{"type":"FeatureCollection","metadata":{"source":"NOAA/NCEI StormEvents details CSV","generatedAt":"2026-04-27T22:31:07.075Z","count":223,"year":1950},"features":[{"type":"Feature","geometry":{"type":"Point","coordinates":[-84.92,34.75]},"properties":{"id":"ncei-1950-10001430","year":1950,"month":5,"state":"GA","stateName":"Georgia","scale":1,"scaleLabel":"F1","lengthMiles":0.5,"deaths":0,"injuries":0}},{"type":"Feature","geometry":{"type":"Point","coordinates":[-84.93,33.68]},"properties":{"id":"ncei-1950-10001431","year":1950,"month":6,"state":"GA","stateName":"Georgia","scale":0,"scaleLabel":"F0","lengthMiles":2,"deaths":0,"injuries":0}},{"type":"Feature","geometry":{"type":"Point","coordinates":[-84.25,33.85]},"properties":{"id":"ncei-1950-10001432","year":1950,"month":6,"state":"GA","stateName":"Georgia","scale":1,"scaleLabel":"F1","lengthMiles":3.3,"deaths":0,"injuries":1}},{"type":"Feature","geometry":{"type":"Point","coordinates":[-84.15,33.03]},"properties":{"id":"ncei-1950-10001433","year":1950,"month":6,"state":"GA","stateName":"Georgia","scale":1,"scaleLabel":"F1","lengthMiles":2,"deaths":0,"injuries":0}},{"type":"Feature","geometry":{"type":"Point","coordinates":[-86.3,41.65]},"properties":{"id":"ncei-1950-10004028","year":1950,"month":7,"state":"IN","stateName":"Indiana","scale":-1,"scaleLabel":"Unknown","lengthMiles":0,"deaths":0,"injuries":0}},{"type":"Feature","geometry":{"type":"Point","coordinates":[-87.15,40.22]},"properties":{"id":"ncei-1950-10004029","year":1950,"month":7,"state":"IN","stateName":"Indiana","scale":1,"scaleLabel":"F1","lengthMiles":4.3,"deaths":0,"injuries":0}},{"type":"Feature","geometry":{"type":"Point","coordinates":[-85.08,41.07]},"properties":{"id":"ncei-1950-10004030","year":1950,"month":7,"state":"IN","stateName":"Indiana","scale":2,"scaleLabel":"F2","lengthMiles":1.1,"deaths":0,"injuries":0}},{"type":"Feature","geometry":{"type":"Point","coordinates":[-90.1,38.82]},"properties":{"id":"ncei-1950-10009710","year":1950,"month":1,"state":"IL","stateName":"Illinois","scale":3,"scaleLabel":"F3","lengthMiles":3.3,"deaths":0,"injuries":0}},{"type":"Feature","geometry":{"type":"Point","coordinates":[-89.3,39.1]},"properties":{"id":"ncei-1950-10009711","year":1950,"month":1,"state":"IL","stateName":"Illinois","scale":3,"scaleLabel":"F3","lengthMiles":3.6,"deaths":0,"injuries":3}},{"type":"Feature","geometry":{"type":"Point","coordinates":[-87.33,41.17]},"properties":{"id":"ncei-1950-10009712","year":1950,"month":1,"state":"IL","stateName":"Illinois","scale":2,"scaleLabel":"F2","lengthMiles":0,"deaths":0,"injuries":0}},{"type":"Feature","geometry":{"type":"Point","coordinates":[-88.6,40.57]},"properties":{"id":"ncei-1950-10009713","year":1950,"month":3,"state":"IL","stateName":"Illinois","scale":2,"scaleLabel":"F2","lengthMiles":3,"deaths":0,"injuries":0}},{"type":"Feature","geometry":{"type":"Point","coordinates":[-89.77,41.95]},"properties":{"id":"ncei-1950-10009714","year":1950,"month":6,"state":"IL","stateName":"Illinois","scale":1,"scaleLabel":"F1","lengthMiles":0,"deaths":0,"injuries":0}},{"type":"Feature","geometry":{"type":"Point","coordinates":[-88.43,41.08]},"properties":{"id":"ncei-1950-10009715","year":1950,"month":7,"state":"IL","stateName":"Illinois","scale":1,"scaleLabel":"F1","lengthMiles":1,"deaths":0,"injuries":0}},{"type":"Feature","geometry":{"type":"Point","coordinates":[-90.05,38.97]},"properties":{"id":"ncei-1950-10009716","year":1950,"month":12,"state":"IL","stateName":"Illinois","scale":2,"scaleLabel":"F2","lengthMiles":7.3,"deaths":0,"injuries":0}},{"type":"Feature","geometry":{"type":"Point","coordinates":[-89.92,39]},"properties":{"id":"ncei-1950-10009717","year":1950,"month":12,"state":"IL","stateName":"Illinois","scale":2,"scaleLabel":"F2","lengthMiles":11.5,"deaths":1,"injuries":3}},{"type":"Feature","geometry":{"type":"Point","coordinates":[-89.67,38.75]},"properties":{"id":"ncei-1950-10009718","year":1950,"month":12,"state":"IL","stateName":"Illinois","scale":3,"scaleLabel":"F3","lengthMiles":4.7,"deaths":0,"injuries":0}},{"type":"Feature","geometry":{"type":"Point","coordinates":[-89.6,38.8]},"properties":{"id":"ncei-1950-10009719","year":1950,"month":12,"state":"IL","stateName":"Illinois","scale":3,"scaleLabel":"F3","lengthMiles":13.3,"deaths":2,"injuries":25}},{"type":"Feature","geometry":{"type":"Point","coordinates":[-89.78,38.17]},"properties":{"id":"ncei-1950-10009720","year":1950,"month":12,"state":"IL","stateName":"Illinois","scale":1,"scaleLabel":"F1","lengthMiles":9.6,"deaths":0,"injuries":0}},{"type":"Feature","geometry":{"type":"Point","coordinates":[-95.73,40.95]},"properties":{"id":"ncei-1950-10017009","year":1950,"month":5,"state":"IA","stateName":"Iowa","scale":1,"scaleLabel":"F1","lengthMiles":0,"deaths":0,"injuries":0}},{"type":"Feature","geometry":{"type":"Point","coordinates":[-95.27,41.03]},"properties":{"id":"ncei-1950-10017010","year":1950,"month":5,"state":"IA","stateName":"Iowa","scale":2,"scaleLabel":"F2","lengthMiles":0,"deaths":0,"injuries":0}},{"type":"Feature","geometry":{"type":"Point","coordinates":[-93.6,41.98]},"properties":{"id":"ncei-1950-10017011","year":1950,"month":6,"state":"IA","stateName":"Iowa","scale":3,"scaleLabel":"F3","lengthMiles":5.6,"deaths":0,"injuries":5}},{"type":"Feature","geometry":{"type":"Point","coordinates":[-91.92,42.45]},"properties":{"id":"ncei-1950-10017012","year":1950,"month":7,"state":"IA","stateName":"Iowa","scale":2,"scaleLabel":"F2","lengthMiles":14,"deaths":0,"injuries":0}},{"type":"Feature","geometry":{"type":"Point","coordinates":[-95.85,38.12]},"properties":{"id":"ncei-1950-10027577","year":1950,"month":4,"state":"KS","stateName":"Kansas","scale":1,"scaleLabel":"F1","lengthMiles":19.8,"deaths":0,"injuries":0}},{"type":"Feature","geometry":{"type":"Point","coordinates":[-99.32,38.68]},"properties":{"id":"ncei-1950-10027578","year":1950,"month":5,"state":"KS","stateName":"Kansas","scale":1,"scaleLabel":"F1","lengthMiles":0,"deaths":0,"injuries":0}},{"type":"Feature","geometry":{"type":"Point","coordinates":[-99.12,38.03]},"properties":{"id":"ncei-1950-10027579","year":1950,"month":5,"state":"KS","stateName":"Kansas","scale":4,"scaleLabel":"F4","lengthMiles":19.3,"deaths":0,"injuries":0}},{"type":"Feature","geometry":{"type":"Point","coordinates":[-98.92,38.27]},"properties":{"id":"ncei-1950-10027580","year":1950,"month":5,"state":"KS","stateName":"Kansas","scale":4,"scaleLabel":"F4","lengthMiles":14.5,"deaths":0,"injuries":1}},{"type":"Feature","geometry":{"type":"Point","coordinates":[-95.62,39.62]},"properties":{"id":"ncei-1950-10027581","year":1950,"month":5,"state":"KS","stateName":"Kansas","scale":3,"scaleLabel":"F3","lengthMiles":3.3,"deaths":0,"injuries":12}},{"type":"Feature","geometry":{"type":"Point","coordinates":[-95.57,39.65]},"properties":{"id":"ncei-1950-10027582","year":1950,"month":5,"state":"KS","stateName":"Kansas","scale":3,"scaleLabel":"F3","lengthMiles":14,"deaths":0,"injuries":0}},{"type":"Feature","geometry":{"type":"Point","coordinates":[-98.48,39.35]},"properties":{"id":"ncei-1950-10027583","year":1950,"month":5,"state":"KS","stateName":"Kansas","scale":2,"scaleLabel":"F2","lengthMiles":12.6,"deaths":0,"injuries":0}},{"type":"Feature","geometry":{"type":"Point","coordinates":[-98.3,39.57]},"properties":{"id":"ncei-1950-10027584","year":1950,"month":5,"state":"KS","stateName":"Kansas","scale":2,"scaleLabel":"F2","lengthMiles":6.8,"deaths":0,"injuries":1}},{"type":"Feature","geometry":{"type":"Point","coordinates":[-98.95,39.23]},"properties":{"id":"ncei-1950-10027585","year":1950,"month":5,"state":"KS","stateName":"Kansas","scale":2,"scaleLabel":"F2","lengthMiles":19.6,"deaths":0,"injuries":2}},{"type":"Feature","geometry":{"type":"Point","coordinates":[-97.65,39.4]},"properties":{"id":"ncei-1950-10027586","year":1950,"month":5,"state":"KS","stateName":"Kansas","scale":1,"scaleLabel":"F1","lengthMiles":0,"deaths":0,"injuries":1}},{"type":"Feature","geometry":{"type":"Point","coordinates":[-97.77,39.72]},"properties":{"id":"ncei-1950-10027587","year":1950,"month":5,"state":"KS","stateName":"Kansas","scale":1,"scaleLabel":"F1","lengthMiles":0,"deaths":0,"injuries":0}},{"type":"Feature","geometry":{"type":"Point","coordinates":[-96.58,39.2]},"properties":{"id":"ncei-1950-10027588","year":1950,"month":5,"state":"KS","stateName":"Kansas","scale":-1,"scaleLabel":"Unknown","lengthMiles":0,"deaths":0,"injuries":0}},{"type":"Feature","geometry":{"type":"Point","coordinates":[-98.42,37.55]},"properties":{"id":"ncei-1950-10027589","year":1950,"month":5,"state":"KS","stateName":"Kansas","scale":2,"scaleLabel":"F2","lengthMiles":0.2,"deaths":0,"injuries":0}},{"type":"Feature","geometry":{"type":"Point","coordinates":[-98.3,39.85]},"properties":{"id":"ncei-1950-10027590","year":1950,"month":5,"state":"KS","stateName":"Kansas","scale":0,"scaleLabel":"F0","lengthMiles":0,"deaths":0,"injuries":0}},{"type":"Feature","geometry":{"type":"Point","coordinates":[-96.82,38.12]},"properties":{"id":"ncei-1950-10027591","year":1950,"month":5,"state":"KS","stateName":"Kansas","scale":3,"scaleLabel":"F3","lengthMiles":14.9,"deaths":0,"injuries":2}},{"type":"Feature","geometry":{"type":"Point","coordinates":[-96.85,37.82]},"properties":{"id":"ncei-1950-10027592","year":1950,"month":5,"state":"KS","stateName":"Kansas","scale":0,"scaleLabel":"F0","lengthMiles":0.1,"deaths":0,"injuries":0}},{"type":"Feature","geometry":{"type":"Point","coordinates":[-99.32,39.75]},"properties":{"id":"ncei-1950-10027593","year":1950,"month":5,"state":"KS","stateName":"Kansas","scale":0,"scaleLabel":"F0","lengthMiles":0.2,"deaths":0,"injuries":0}},{"type":"Feature","geometry":{"type":"Point","coordinates":[-99.48,37.27]},"properties":{"id":"ncei-1950-10027594","year":1950,"month":5,"state":"KS","stateName":"Kansas","scale":2,"scaleLabel":"F2","lengthMiles":3.6,"deaths":0,"injuries":1}},{"type":"Feature","geometry":{"type":"Point","coordinates":[-96.97,39.38]},"properties":{"id":"ncei-1950-10027595","year":1950,"month":5,"state":"KS","stateName":"Kansas","scale":1,"scaleLabel":"F1","lengthMiles":10.7,"deaths":0,"injuries":0}},{"type":"Feature","geometry":{"type":"Point","coordinates":[-97.93,38.33]},"properties":{"id":"ncei-1950-10027596","year":1950,"month":6,"state":"KS","stateName":"Kansas","scale":4,"scaleLabel":"F4","lengthMiles":0,"deaths":0,"injuries":0}},{"type":"Feature","geometry":{"type":"Point","coordinates":[-97.92,38.33]},"properties":{"id":"ncei-1950-10027597","year":1950,"month":6,"state":"KS","stateName":"Kansas","scale":4,"scaleLabel":"F4","lengthMiles":17.1,"deaths":1,"injuries":5}},{"type":"Feature","geometry":{"type":"Point","coordinates":[-101.28,38.28]},"properties":{"id":"ncei-1950-10028460","year":1950,"month":6,"state":"KS","stateName":"Kansas","scale":1,"scaleLabel":"F1","lengthMiles":29.9,"deaths":0,"injuries":0}},{"type":"Feature","geometry":{"type":"Point","coordinates":[-97.47,37.77]},"properties":{"id":"ncei-1950-10028461","year":1950,"month":6,"state":"KS","stateName":"Kansas","scale":0,"scaleLabel":"F0","lengthMiles":0.1,"deaths":0,"injuries":0}},{"type":"Feature","geometry":{"type":"Point","coordinates":[-99.62,39.5]},"properties":{"id":"ncei-1950-10028462","year":1950,"month":6,"state":"KS","stateName":"Kansas","scale":0,"scaleLabel":"F0","lengthMiles":0.1,"deaths":0,"injuries":0}},{"type":"Feature","geometry":{"type":"Point","coordinates":[-96.92,39.3]},"properties":{"id":"ncei-1950-10028463","year":1950,"month":7,"state":"KS","stateName":"Kansas","scale":1,"scaleLabel":"F1","lengthMiles":0,"deaths":0,"injuries":1}},{"type":"Feature","geometry":{"type":"Point","coordinates":[-97.08,38.7]},"properties":{"id":"ncei-1950-10028464","year":1950,"month":7,"state":"KS","stateName":"Kansas","scale":2,"scaleLabel":"F2","lengthMiles":0,"deaths":0,"injuries":0}},{"type":"Feature","geometry":{"type":"Point","coordinates":[-100.88,38.47]},"properties":{"id":"ncei-1950-10028673","year":1950,"month":7,"state":"KS","stateName":"Kansas","scale":2,"scaleLabel":"F2","lengthMiles":1,"deaths":0,"injuries":0}},{"type":"Feature","geometry":{"type":"Point","coordinates":[-96.8,39.82]},"properties":{"id":"ncei-1950-10028674","year":1950,"month":7,"state":"KS","stateName":"Kansas","scale":1,"scaleLabel":"F1","lengthMiles":1,"deaths":0,"injuries":0}},{"type":"Feature","geometry":{"type":"Point","coordinates":[-95.52,37.68]},"properties":{"id":"ncei-1950-10028675","year":1950,"month":7,"state":"KS","stateName":"Kansas","scale":1,"scaleLabel":"F1","lengthMiles":0,"deaths":0,"injuries":0}},{"type":"Feature","geometry":{"type":"Point","coordinates":[-101,39.93]},"properties":{"id":"ncei-1950-10028676","year":1950,"month":8,"state":"KS","stateName":"Kansas","scale":1,"scaleLabel":"F1","lengthMiles":0,"deaths":0,"injuries":0}},{"type":"Feature","geometry":{"type":"Point","coordinates":[-100.77,37.97]},"properties":{"id":"ncei-1950-10028677","year":1950,"month":8,"state":"KS","stateName":"Kansas","scale":2,"scaleLabel":"F2","lengthMiles":0,"deaths":0,"injuries":0}},{"type":"Feature","geometry":{"type":"Point","coordinates":[-100.63,39.13]},"properties":{"id":"ncei-1950-10028678","year":1950,"month":8,"state":"KS","stateName":"Kansas","scale":2,"scaleLabel":"F2","lengthMiles":8.7,"deaths":0,"injuries":0}},{"type":"Feature","geometry":{"type":"Point","coordinates":[-100.82,37.47]},"properties":{"id":"ncei-1950-10028679","year":1950,"month":8,"state":"KS","stateName":"Kansas","scale":1,"scaleLabel":"F1","lengthMiles":7.2,"deaths":0,"injuries":0}},{"type":"Feature","geometry":{"type":"Point","coordinates":[-94,31.97]},"properties":{"id":"ncei-1950-10032623","year":1950,"month":2,"state":"LA","stateName":"Louisiana","scale":4,"scaleLabel":"F4","lengthMiles":29.8,"deaths":0,"injuries":0}},{"type":"Feature","geometry":{"type":"Point","coordinates":[-93.58,32.2]},"properties":{"id":"ncei-1950-10032624","year":1950,"month":2,"state":"LA","stateName":"Louisiana","scale":2,"scaleLabel":"F2","lengthMiles":46.2,"deaths":0,"injuries":0}},{"type":"Feature","geometry":{"type":"Point","coordinates":[-93.65,31.63]},"properties":{"id":"ncei-1950-10032625","year":1950,"month":2,"state":"LA","stateName":"Louisiana","scale":3,"scaleLabel":"F3","lengthMiles":17.6,"deaths":5,"injuries":25}},{"type":"Feature","geometry":{"type":"Point","coordinates":[-93.77,32.35]},"properties":{"id":"ncei-1950-10032626","year":1950,"month":2,"state":"LA","stateName":"Louisiana","scale":4,"scaleLabel":"F4","lengthMiles":9,"deaths":9,"injuries":40}},{"type":"Feature","geometry":{"type":"Point","coordinates":[-93.23,32.8]},"properties":{"id":"ncei-1950-10032627","year":1950,"month":2,"state":"LA","stateName":"Louisiana","scale":2,"scaleLabel":"F2","lengthMiles":12.2,"deaths":5,"injuries":10}},{"type":"Feature","geometry":{"type":"Point","coordinates":[-93.7,32.47]},"properties":{"id":"ncei-1950-10032628","year":1950,"month":2,"state":"LA","stateName":"Louisiana","scale":4,"scaleLabel":"F4","lengthMiles":30.7,"deaths":9,"injuries":37}},{"type":"Feature","geometry":{"type":"Point","coordinates":[-93.47,31.83]},"properties":{"id":"ncei-1950-10032629","year":1950,"month":2,"state":"LA","stateName":"Louisiana","scale":3,"scaleLabel":"F3","lengthMiles":16.5,"deaths":0,"injuries":0}},{"type":"Feature","geometry":{"type":"Point","coordinates":[-93.27,32]},"properties":{"id":"ncei-1950-10032630","year":1950,"month":2,"state":"LA","stateName":"Louisiana","scale":3,"scaleLabel":"F3","lengthMiles":13.3,"deaths":0,"injuries":0}},{"type":"Feature","geometry":{"type":"Point","coordinates":[-93.43,32.85]},"properties":{"id":"ncei-1950-10032631","year":1950,"month":2,"state":"LA","stateName":"Louisiana","scale":4,"scaleLabel":"F4","lengthMiles":13.1,"deaths":0,"injuries":0}},{"type":"Feature","geometry":{"type":"Point","coordinates":[-93.2,32.18]},"properties":{"id":"ncei-1950-10032632","year":1950,"month":2,"state":"LA","stateName":"Louisiana","scale":3,"scaleLabel":"F3","lengthMiles":27.1,"deaths":0,"injuries":0}},{"type":"Feature","geometry":{"type":"Point","coordinates":[-91.33,32.6]},"properties":{"id":"ncei-1950-10032633","year":1950,"month":2,"state":"LA","stateName":"Louisiana","scale":1,"scaleLabel":"F1","lengthMiles":0.5,"deaths":0,"injuries":0}},{"type":"Feature","geometry":{"type":"Point","coordinates":[-93.45,30.45]},"properties":{"id":"ncei-1950-10032634","year":1950,"month":3,"state":"LA","stateName":"Louisiana","scale":1,"scaleLabel":"F1","lengthMiles":2,"deaths":0,"injuries":2}},{"type":"Feature","geometry":{"type":"Point","coordinates":[-90.1,29.7]},"properties":{"id":"ncei-1950-10032635","year":1950,"month":3,"state":"LA","stateName":"Louisiana","scale":0,"scaleLabel":"F0","lengthMiles":18.1,"deaths":0,"injuries":0}},{"type":"Feature","geometry":{"type":"Point","coordinates":[-91,30.1]},"properties":{"id":"ncei-1950-10032636","year":1950,"month":3,"state":"LA","stateName":"Louisiana","scale":2,"scaleLabel":"F2","lengthMiles":1,"deaths":0,"injuries":0}},{"type":"Feature","geometry":{"type":"Point","coordinates":[-91.28,32.63]},"properties":{"id":"ncei-1950-10032637","year":1950,"month":3,"state":"LA","stateName":"Louisiana","scale":1,"scaleLabel":"F1","lengthMiles":15.3,"deaths":0,"injuries":2}},{"type":"Feature","geometry":{"type":"Point","coordinates":[-91.13,30.92]},"properties":{"id":"ncei-1950-10032638","year":1950,"month":3,"state":"LA","stateName":"Louisiana","scale":1,"scaleLabel":"F1","lengthMiles":0.5,"deaths":0,"injuries":0}},{"type":"Feature","geometry":{"type":"Point","coordinates":[-90.03,30.1]},"properties":{"id":"ncei-1950-10032639","year":1950,"month":4,"state":"LA","stateName":"Louisiana","scale":1,"scaleLabel":"F1","lengthMiles":2,"deaths":0,"injuries":0}},{"type":"Feature","geometry":{"type":"Point","coordinates":[-93.3,31.7]},"properties":{"id":"ncei-1950-10032640","year":1950,"month":5,"state":"LA","stateName":"Louisiana","scale":1,"scaleLabel":"F1","lengthMiles":2,"deaths":0,"injuries":0}},{"type":"Feature","geometry":{"type":"Point","coordinates":[-92.63,31.95]},"properties":{"id":"ncei-1950-10032641","year":1950,"month":5,"state":"LA","stateName":"Louisiana","scale":1,"scaleLabel":"F1","lengthMiles":15.4,"deaths":0,"injuries":0}},{"type":"Feature","geometry":{"type":"Point","coordinates":[-92.9,31.55]},"properties":{"id":"ncei-1950-10032642","year":1950,"month":5,"state":"LA","stateName":"Louisiana","scale":2,"scaleLabel":"F2","lengthMiles":3.6,"deaths":0,"injuries":7}},{"type":"Feature","geometry":{"type":"Point","coordinates":[-92.25,31.75]},"properties":{"id":"ncei-1950-10032643","year":1950,"month":5,"state":"LA","stateName":"Louisiana","scale":0,"scaleLabel":"F0","lengthMiles":1,"deaths":0,"injuries":0}},{"type":"Feature","geometry":{"type":"Point","coordinates":[-91.73,31.38]},"properties":{"id":"ncei-1950-10032644","year":1950,"month":5,"state":"LA","stateName":"Louisiana","scale":1,"scaleLabel":"F1","lengthMiles":1,"deaths":0,"injuries":2}},{"type":"Feature","geometry":{"type":"Point","coordinates":[-92.9,31.67]},"properties":{"id":"ncei-1950-10032645","year":1950,"month":5,"state":"LA","stateName":"Louisiana","scale":1,"scaleLabel":"F1","lengthMiles":5.2,"deaths":0,"injuries":0}},{"type":"Feature","geometry":{"type":"Point","coordinates":[-92.83,31.72]},"properties":{"id":"ncei-1950-10032646","year":1950,"month":5,"state":"LA","stateName":"Louisiana","scale":1,"scaleLabel":"F1","lengthMiles":27.6,"deaths":0,"injuries":1}},{"type":"Feature","geometry":{"type":"Point","coordinates":[-91.97,31.55]},"properties":{"id":"ncei-1950-10032647","year":1950,"month":5,"state":"LA","stateName":"Louisiana","scale":2,"scaleLabel":"F2","lengthMiles":2,"deaths":1,"injuries":5}},{"type":"Feature","geometry":{"type":"Point","coordinates":[-91.95,31.15]},"properties":{"id":"ncei-1950-10032648","year":1950,"month":5,"state":"LA","stateName":"Louisiana","scale":1,"scaleLabel":"F1","lengthMiles":2,"deaths":0,"injuries":0}},{"type":"Feature","geometry":{"type":"Point","coordinates":[-93.9,32.1]},"properties":{"id":"ncei-1950-10032649","year":1950,"month":5,"state":"LA","stateName":"Louisiana","scale":1,"scaleLabel":"F1","lengthMiles":1,"deaths":0,"injuries":13}},{"type":"Feature","geometry":{"type":"Point","coordinates":[-93.7,31.67]},"properties":{"id":"ncei-1950-10032650","year":1950,"month":5,"state":"LA","stateName":"Louisiana","scale":1,"scaleLabel":"F1","lengthMiles":1,"deaths":0,"injuries":0}},{"type":"Feature","geometry":{"type":"Point","coordinates":[-87.2,37.37]},"properties":{"id":"ncei-1950-10035921","year":1950,"month":11,"state":"KY","stateName":"Kentucky","scale":2,"scaleLabel":"F2","lengthMiles":0,"deaths":0,"injuries":0}},{"type":"Feature","geometry":{"type":"Point","coordinates":[-84.5,38.2]},"properties":{"id":"ncei-1950-10035922","year":1950,"month":11,"state":"KY","stateName":"Kentucky","scale":1,"scaleLabel":"F1","lengthMiles":0,"deaths":0,"injuries":0}},{"type":"Feature","geometry":{"type":"Point","coordinates":[-75.87,39.33]},"properties":{"id":"ncei-1950-10038920","year":1950,"month":8,"state":"MD","stateName":"Maryland","scale":1,"scaleLabel":"F1","lengthMiles":6,"deaths":0,"injuries":0}},{"type":"Feature","geometry":{"type":"Point","coordinates":[-89.13,32.42]},"properties":{"id":"ncei-1950-10047275","year":1950,"month":11,"state":"MS","stateName":"Mississippi","scale":1,"scaleLabel":"F1","lengthMiles":2,"deaths":0,"injuries":3}},{"type":"Feature","geometry":{"type":"Point","coordinates":[-89.12,34.6]},"properties":{"id":"ncei-1950-10049524","year":1950,"month":2,"state":"MS","stateName":"Mississippi","scale":1,"scaleLabel":"F1","lengthMiles":2,"deaths":0,"injuries":0}},{"type":"Feature","geometry":{"type":"Point","coordinates":[-89.12,34.6]},"properties":{"id":"ncei-1950-10049525","year":1950,"month":2,"state":"MS","stateName":"Mississippi","scale":2,"scaleLabel":"F2","lengthMiles":0,"deaths":3,"injuries":2}},{"type":"Feature","geometry":{"type":"Point","coordinates":[-88.85,32.5]},"properties":{"id":"ncei-1950-10049526","year":1950,"month":3,"state":"MS","stateName":"Mississippi","scale":1,"scaleLabel":"F1","lengthMiles":0,"deaths":0,"injuries":0}},{"type":"Feature","geometry":{"type":"Point","coordinates":[-90.55,33.17]},"properties":{"id":"ncei-1950-10049527","year":1950,"month":3,"state":"MS","stateName":"Mississippi","scale":2,"scaleLabel":"F2","lengthMiles":0,"deaths":1,"injuries":2}},{"type":"Feature","geometry":{"type":"Point","coordinates":[-89.57,33.13]},"properties":{"id":"ncei-1950-10049528","year":1950,"month":3,"state":"MS","stateName":"Mississippi","scale":2,"scaleLabel":"F2","lengthMiles":11.9,"deaths":0,"injuries":0}},{"type":"Feature","geometry":{"type":"Point","coordinates":[-90.27,32.28]},"properties":{"id":"ncei-1950-10049529","year":1950,"month":3,"state":"MS","stateName":"Mississippi","scale":2,"scaleLabel":"F2","lengthMiles":9,"deaths":0,"injuries":7}},{"type":"Feature","geometry":{"type":"Point","coordinates":[-90.27,32.28]},"properties":{"id":"ncei-1950-10049530","year":1950,"month":3,"state":"MS","stateName":"Mississippi","scale":2,"scaleLabel":"F2","lengthMiles":6.2,"deaths":0,"injuries":6}},{"type":"Feature","geometry":{"type":"Point","coordinates":[-90.12,32.3]},"properties":{"id":"ncei-1950-10049531","year":1950,"month":3,"state":"MS","stateName":"Mississippi","scale":2,"scaleLabel":"F2","lengthMiles":50.3,"deaths":0,"injuries":0}},{"type":"Feature","geometry":{"type":"Point","coordinates":[-90.17,32.3]},"properties":{"id":"ncei-1950-10049532","year":1950,"month":3,"state":"MS","stateName":"Mississippi","scale":2,"scaleLabel":"F2","lengthMiles":25.7,"deaths":0,"injuries":0}},{"type":"Feature","geometry":{"type":"Point","coordinates":[-88.78,33.67]},"properties":{"id":"ncei-1950-10049533","year":1950,"month":3,"state":"MS","stateName":"Mississippi","scale":2,"scaleLabel":"F2","lengthMiles":4.7,"deaths":0,"injuries":0}},{"type":"Feature","geometry":{"type":"Point","coordinates":[-88.27,34.73]},"properties":{"id":"ncei-1950-10049534","year":1950,"month":3,"state":"MS","stateName":"Mississippi","scale":1,"scaleLabel":"F1","lengthMiles":0.1,"deaths":0,"injuries":2}},{"type":"Feature","geometry":{"type":"Point","coordinates":[-89.83,31.27]},"properties":{"id":"ncei-1950-10049535","year":1950,"month":4,"state":"MS","stateName":"Mississippi","scale":2,"scaleLabel":"F2","lengthMiles":11.3,"deaths":0,"injuries":0}},{"type":"Feature","geometry":{"type":"Point","coordinates":[-91.07,31.73]},"properties":{"id":"ncei-1950-10050382","year":1950,"month":5,"state":"MS","stateName":"Mississippi","scale":1,"scaleLabel":"F1","lengthMiles":0,"deaths":0,"injuries":0}},{"type":"Feature","geometry":{"type":"Point","coordinates":[-91.38,31.55]},"properties":{"id":"ncei-1950-10050383","year":1950,"month":5,"state":"MS","stateName":"Mississippi","scale":-1,"scaleLabel":"Unknown","lengthMiles":0,"deaths":0,"injuries":0}},{"type":"Feature","geometry":{"type":"Point","coordinates":[-89.58,33.08]},"properties":{"id":"ncei-1950-10050384","year":1950,"month":6,"state":"MS","stateName":"Mississippi","scale":3,"scaleLabel":"F3","lengthMiles":2,"deaths":2,"injuries":1}},{"type":"Feature","geometry":{"type":"Point","coordinates":[-96.33,46.58]},"properties":{"id":"ncei-1950-10052051","year":1950,"month":6,"state":"MN","stateName":"Minnesota","scale":2,"scaleLabel":"F2","lengthMiles":4.6,"deaths":0,"injuries":4}},{"type":"Feature","geometry":{"type":"Point","coordinates":[-90.22,38.77]},"properties":{"id":"ncei-1950-10063615","year":1950,"month":1,"state":"MO","stateName":"Missouri","scale":3,"scaleLabel":"F3","lengthMiles":6.2,"deaths":0,"injuries":3}},{"type":"Feature","geometry":{"type":"Point","coordinates":[-90.68,37.6]},"properties":{"id":"ncei-1950-10063616","year":1950,"month":1,"state":"MO","stateName":"Missouri","scale":2,"scaleLabel":"F2","lengthMiles":2.3,"deaths":0,"injuries":5}},{"type":"Feature","geometry":{"type":"Point","coordinates":[-92.22,38]},"properties":{"id":"ncei-1950-10063617","year":1950,"month":6,"state":"MO","stateName":"Missouri","scale":1,"scaleLabel":"F1","lengthMiles":2.7,"deaths":0,"injuries":0}},{"type":"Feature","geometry":{"type":"Point","coordinates":[-92.07,39.7]},"properties":{"id":"ncei-1950-10063618","year":1950,"month":6,"state":"MO","stateName":"Missouri","scale":1,"scaleLabel":"F1","lengthMiles":0.2,"deaths":0,"injuries":0}},{"type":"Feature","geometry":{"type":"Point","coordinates":[-92.77,38.42]},"properties":{"id":"ncei-1950-10063619","year":1950,"month":7,"state":"MO","stateName":"Missouri","scale":1,"scaleLabel":"F1","lengthMiles":1.5,"deaths":0,"injuries":0}},{"type":"Feature","geometry":{"type":"Point","coordinates":[-93.38,37.13]},"properties":{"id":"ncei-1950-10063620","year":1950,"month":8,"state":"MO","stateName":"Missouri","scale":1,"scaleLabel":"F1","lengthMiles":2,"deaths":0,"injuries":0}},{"type":"Feature","geometry":{"type":"Point","coordinates":[-95.8,40.38]},"properties":{"id":"ncei-1950-10073782","year":1950,"month":5,"state":"NE","stateName":"Nebraska","scale":2,"scaleLabel":"F2","lengthMiles":8.8,"deaths":0,"injuries":1}},{"type":"Feature","geometry":{"type":"Point","coordinates":[-100.63,40.22]},"properties":{"id":"ncei-1950-10073783","year":1950,"month":5,"state":"NE","stateName":"Nebraska","scale":1,"scaleLabel":"F1","lengthMiles":0.7,"deaths":0,"injuries":0}},{"type":"Feature","geometry":{"type":"Point","coordinates":[-97.88,42.6]},"properties":{"id":"ncei-1950-10073784","year":1950,"month":6,"state":"NE","stateName":"Nebraska","scale":2,"scaleLabel":"F2","lengthMiles":4.1,"deaths":0,"injuries":101}},{"type":"Feature","geometry":{"type":"Point","coordinates":[-98.03,40.18]},"properties":{"id":"ncei-1950-10073785","year":1950,"month":6,"state":"NE","stateName":"Nebraska","scale":0,"scaleLabel":"F0","lengthMiles":1.9,"deaths":0,"injuries":0}},{"type":"Feature","geometry":{"type":"Point","coordinates":[-96.6,41.8]},"properties":{"id":"ncei-1950-10073786","year":1950,"month":7,"state":"NE","stateName":"Nebraska","scale":4,"scaleLabel":"F4","lengthMiles":10,"deaths":0,"injuries":33}},{"type":"Feature","geometry":{"type":"Point","coordinates":[-96.82,40.72]},"properties":{"id":"ncei-1950-10073787","year":1950,"month":9,"state":"NE","stateName":"Nebraska","scale":1,"scaleLabel":"F1","lengthMiles":22.5,"deaths":0,"injuries":0}},{"type":"Feature","geometry":{"type":"Point","coordinates":[-77.42,35.75]},"properties":{"id":"ncei-1950-10077690","year":1950,"month":5,"state":"NC","stateName":"North Carolina","scale":1,"scaleLabel":"F1","lengthMiles":2,"deaths":0,"injuries":0}},{"type":"Feature","geometry":{"type":"Point","coordinates":[-78.4,35.73]},"properties":{"id":"ncei-1950-10077691","year":1950,"month":5,"state":"NC","stateName":"North Carolina","scale":0,"scaleLabel":"F0","lengthMiles":1,"deaths":0,"injuries":0}},{"type":"Feature","geometry":{"type":"Point","coordinates":[-78.4,35.73]},"properties":{"id":"ncei-1950-10077692","year":1950,"month":5,"state":"NC","stateName":"North Carolina","scale":1,"scaleLabel":"F1","lengthMiles":1,"deaths":0,"injuries":0}},{"type":"Feature","geometry":{"type":"Point","coordinates":[-79.8,35.3]},"properties":{"id":"ncei-1950-10077693","year":1950,"month":5,"state":"NC","stateName":"North Carolina","scale":1,"scaleLabel":"F1","lengthMiles":3.8,"deaths":0,"injuries":0}},{"type":"Feature","geometry":{"type":"Point","coordinates":[-80.68,35]},"properties":{"id":"ncei-1950-10077694","year":1950,"month":5,"state":"NC","stateName":"North Carolina","scale":2,"scaleLabel":"F2","lengthMiles":2,"deaths":0,"injuries":5}},{"type":"Feature","geometry":{"type":"Point","coordinates":[-77.25,35.42]},"properties":{"id":"ncei-1950-10077695","year":1950,"month":5,"state":"NC","stateName":"North Carolina","scale":1,"scaleLabel":"F1","lengthMiles":0,"deaths":0,"injuries":0}},{"type":"Feature","geometry":{"type":"Point","coordinates":[-77.4,35.53]},"properties":{"id":"ncei-1950-10077696","year":1950,"month":7,"state":"NC","stateName":"North Carolina","scale":1,"scaleLabel":"F1","lengthMiles":0,"deaths":0,"injuries":0}},{"type":"Feature","geometry":{"type":"Point","coordinates":[-80.57,35.4]},"properties":{"id":"ncei-1950-10077697","year":1950,"month":7,"state":"NC","stateName":"North Carolina","scale":1,"scaleLabel":"F1","lengthMiles":0,"deaths":0,"injuries":0}},{"type":"Feature","geometry":{"type":"Point","coordinates":[-78.6,34.17]},"properties":{"id":"ncei-1950-10077698","year":1950,"month":10,"state":"NC","stateName":"North Carolina","scale":3,"scaleLabel":"F3","lengthMiles":2,"deaths":0,"injuries":3}},{"type":"Feature","geometry":{"type":"Point","coordinates":[-103.52,35.28]},"properties":{"id":"ncei-1950-10080563","year":1950,"month":7,"state":"NM","stateName":"New Mexico","scale":1,"scaleLabel":"F1","lengthMiles":3.8,"deaths":0,"injuries":0}},{"type":"Feature","geometry":{"type":"Point","coordinates":[-107.23,34.12]},"properties":{"id":"ncei-1950-10080564","year":1950,"month":8,"state":"NM","stateName":"New Mexico","scale":1,"scaleLabel":"F1","lengthMiles":7.9,"deaths":0,"injuries":0}},{"type":"Feature","geometry":{"type":"Point","coordinates":[-84.58,40.88]},"properties":{"id":"ncei-1950-10086808","year":1950,"month":1,"state":"OH","stateName":"Ohio","scale":1,"scaleLabel":"F1","lengthMiles":0.1,"deaths":0,"injuries":1}},{"type":"Feature","geometry":{"type":"Point","coordinates":[-84.62,40.8]},"properties":{"id":"ncei-1950-10086809","year":1950,"month":7,"state":"OH","stateName":"Ohio","scale":2,"scaleLabel":"F2","lengthMiles":0,"deaths":0,"injuries":0}},{"type":"Feature","geometry":{"type":"Point","coordinates":[-84.08,40.72]},"properties":{"id":"ncei-1950-10086810","year":1950,"month":7,"state":"OH","stateName":"Ohio","scale":3,"scaleLabel":"F3","lengthMiles":9.7,"deaths":0,"injuries":30}},{"type":"Feature","geometry":{"type":"Point","coordinates":[-97.92,46.8]},"properties":{"id":"ncei-1950-10089655","year":1950,"month":6,"state":"ND","stateName":"North Dakota","scale":3,"scaleLabel":"F3","lengthMiles":2,"deaths":0,"injuries":0}},{"type":"Feature","geometry":{"type":"Point","coordinates":[-103.77,48.92]},"properties":{"id":"ncei-1950-10089656","year":1950,"month":6,"state":"ND","stateName":"North Dakota","scale":3,"scaleLabel":"F3","lengthMiles":23.7,"deaths":0,"injuries":0}},{"type":"Feature","geometry":{"type":"Point","coordinates":[-97.6,35.55]},"properties":{"id":"ncei-1950-10096216","year":1950,"month":2,"state":"OK","stateName":"Oklahoma","scale":2,"scaleLabel":"F2","lengthMiles":2,"deaths":0,"injuries":0}},{"type":"Feature","geometry":{"type":"Point","coordinates":[-95.75,34.85]},"properties":{"id":"ncei-1950-10096217","year":1950,"month":3,"state":"OK","stateName":"Oklahoma","scale":2,"scaleLabel":"F2","lengthMiles":0.1,"deaths":0,"injuries":0}},{"type":"Feature","geometry":{"type":"Point","coordinates":[-97.02,35.82]},"properties":{"id":"ncei-1950-10096218","year":1950,"month":4,"state":"OK","stateName":"Oklahoma","scale":2,"scaleLabel":"F2","lengthMiles":1,"deaths":0,"injuries":0}},{"type":"Feature","geometry":{"type":"Point","coordinates":[-95.83,36.13]},"properties":{"id":"ncei-1950-10096219","year":1950,"month":4,"state":"OK","stateName":"Oklahoma","scale":1,"scaleLabel":"F1","lengthMiles":1,"deaths":0,"injuries":0}},{"type":"Feature","geometry":{"type":"Point","coordinates":[-99.28,34.88]},"properties":{"id":"ncei-1950-10096220","year":1950,"month":4,"state":"OK","stateName":"Oklahoma","scale":3,"scaleLabel":"F3","lengthMiles":9.4,"deaths":1,"injuries":1}},{"type":"Feature","geometry":{"type":"Point","coordinates":[-99.2,35]},"properties":{"id":"ncei-1950-10096221","year":1950,"month":4,"state":"OK","stateName":"Oklahoma","scale":3,"scaleLabel":"F3","lengthMiles":8,"deaths":0,"injuries":0}},{"type":"Feature","geometry":{"type":"Point","coordinates":[-99.2,35.12]},"properties":{"id":"ncei-1950-10096222","year":1950,"month":4,"state":"OK","stateName":"Oklahoma","scale":3,"scaleLabel":"F3","lengthMiles":3.4,"deaths":0,"injuries":0}},{"type":"Feature","geometry":{"type":"Point","coordinates":[-96.4,35.08]},"properties":{"id":"ncei-1950-10096223","year":1950,"month":4,"state":"OK","stateName":"Oklahoma","scale":4,"scaleLabel":"F4","lengthMiles":4.5,"deaths":5,"injuries":32}},{"type":"Feature","geometry":{"type":"Point","coordinates":[-96.2,34.55]},"properties":{"id":"ncei-1950-10096224","year":1950,"month":4,"state":"OK","stateName":"Oklahoma","scale":2,"scaleLabel":"F2","lengthMiles":0.8,"deaths":0,"injuries":0}},{"type":"Feature","geometry":{"type":"Point","coordinates":[-99.17,35.58]},"properties":{"id":"ncei-1950-10096225","year":1950,"month":5,"state":"OK","stateName":"Oklahoma","scale":1,"scaleLabel":"F1","lengthMiles":0,"deaths":0,"injuries":0}},{"type":"Feature","geometry":{"type":"Point","coordinates":[-99.55,35.25]},"properties":{"id":"ncei-1950-10096226","year":1950,"month":5,"state":"OK","stateName":"Oklahoma","scale":2,"scaleLabel":"F2","lengthMiles":5.6,"deaths":0,"injuries":0}},{"type":"Feature","geometry":{"type":"Point","coordinates":[-99.57,36.57]},"properties":{"id":"ncei-1950-10096227","year":1950,"month":5,"state":"OK","stateName":"Oklahoma","scale":2,"scaleLabel":"F2","lengthMiles":1,"deaths":0,"injuries":0}},{"type":"Feature","geometry":{"type":"Point","coordinates":[-99.8,36.3]},"properties":{"id":"ncei-1950-10096228","year":1950,"month":5,"state":"OK","stateName":"Oklahoma","scale":1,"scaleLabel":"F1","lengthMiles":0,"deaths":0,"injuries":0}},{"type":"Feature","geometry":{"type":"Point","coordinates":[-97,36]},"properties":{"id":"ncei-1950-10096229","year":1950,"month":5,"state":"OK","stateName":"Oklahoma","scale":1,"scaleLabel":"F1","lengthMiles":0,"deaths":0,"injuries":0}},{"type":"Feature","geometry":{"type":"Point","coordinates":[-97.83,36.12]},"properties":{"id":"ncei-1950-10096230","year":1950,"month":5,"state":"OK","stateName":"Oklahoma","scale":2,"scaleLabel":"F2","lengthMiles":4.3,"deaths":0,"injuries":3}},{"type":"Feature","geometry":{"type":"Point","coordinates":[-96.83,34.77]},"properties":{"id":"ncei-1950-10096231","year":1950,"month":5,"state":"OK","stateName":"Oklahoma","scale":1,"scaleLabel":"F1","lengthMiles":0.8,"deaths":0,"injuries":0}},{"type":"Feature","geometry":{"type":"Point","coordinates":[-100.52,36.82]},"properties":{"id":"ncei-1950-10096232","year":1950,"month":5,"state":"OK","stateName":"Oklahoma","scale":1,"scaleLabel":"F1","lengthMiles":0.5,"deaths":0,"injuries":0}},{"type":"Feature","geometry":{"type":"Point","coordinates":[-99.12,35.82]},"properties":{"id":"ncei-1950-10096233","year":1950,"month":5,"state":"OK","stateName":"Oklahoma","scale":1,"scaleLabel":"F1","lengthMiles":7.3,"deaths":0,"injuries":1}},{"type":"Feature","geometry":{"type":"Point","coordinates":[-99.23,35.67]},"properties":{"id":"ncei-1950-10096234","year":1950,"month":5,"state":"OK","stateName":"Oklahoma","scale":1,"scaleLabel":"F1","lengthMiles":1.5,"deaths":0,"injuries":0}},{"type":"Feature","geometry":{"type":"Point","coordinates":[-99.03,36.45]},"properties":{"id":"ncei-1950-10096235","year":1950,"month":5,"state":"OK","stateName":"Oklahoma","scale":2,"scaleLabel":"F2","lengthMiles":1,"deaths":0,"injuries":2}},{"type":"Feature","geometry":{"type":"Point","coordinates":[-95.27,36.38]},"properties":{"id":"ncei-1950-10096236","year":1950,"month":5,"state":"OK","stateName":"Oklahoma","scale":1,"scaleLabel":"F1","lengthMiles":1,"deaths":0,"injuries":0}},{"type":"Feature","geometry":{"type":"Point","coordinates":[-97.25,36.8]},"properties":{"id":"ncei-1950-10096237","year":1950,"month":6,"state":"OK","stateName":"Oklahoma","scale":1,"scaleLabel":"F1","lengthMiles":0,"deaths":0,"injuries":0}},{"type":"Feature","geometry":{"type":"Point","coordinates":[-96.25,35]},"properties":{"id":"ncei-1950-10099490","year":1950,"month":9,"state":"OK","stateName":"Oklahoma","scale":2,"scaleLabel":"F2","lengthMiles":6.8,"deaths":0,"injuries":6}},{"type":"Feature","geometry":{"type":"Point","coordinates":[-95.85,34.83]},"properties":{"id":"ncei-1950-10099491","year":1950,"month":9,"state":"OK","stateName":"Oklahoma","scale":0,"scaleLabel":"F0","lengthMiles":0,"deaths":0,"injuries":0}},{"type":"Feature","geometry":{"type":"Point","coordinates":[-102.52,36.73]},"properties":{"id":"ncei-1950-10099492","year":1950,"month":10,"state":"OK","stateName":"Oklahoma","scale":1,"scaleLabel":"F1","lengthMiles":15.8,"deaths":0,"injuries":0}},{"type":"Feature","geometry":{"type":"Point","coordinates":[-75.7,40.58]},"properties":{"id":"ncei-1950-10104927","year":1950,"month":7,"state":"PA","stateName":"Pennsylvania","scale":2,"scaleLabel":"F2","lengthMiles":12.9,"deaths":0,"injuries":2}},{"type":"Feature","geometry":{"type":"Point","coordinates":[-76.75,40.6]},"properties":{"id":"ncei-1950-10104928","year":1950,"month":7,"state":"PA","stateName":"Pennsylvania","scale":2,"scaleLabel":"F2","lengthMiles":0,"deaths":0,"injuries":0}},{"type":"Feature","geometry":{"type":"Point","coordinates":[-79.68,41.63]},"properties":{"id":"ncei-1950-10104929","year":1950,"month":7,"state":"PA","stateName":"Pennsylvania","scale":0,"scaleLabel":"F0","lengthMiles":0,"deaths":0,"injuries":0}},{"type":"Feature","geometry":{"type":"Point","coordinates":[-75,40.22]},"properties":{"id":"ncei-1950-10104930","year":1950,"month":8,"state":"PA","stateName":"Pennsylvania","scale":1,"scaleLabel":"F1","lengthMiles":1,"deaths":0,"injuries":0}},{"type":"Feature","geometry":{"type":"Point","coordinates":[-76.12,40.2]},"properties":{"id":"ncei-1950-10104931","year":1950,"month":11,"state":"PA","stateName":"Pennsylvania","scale":3,"scaleLabel":"F3","lengthMiles":4.7,"deaths":0,"injuries":1}},{"type":"Feature","geometry":{"type":"Point","coordinates":[-76.07,40.27]},"properties":{"id":"ncei-1950-10104932","year":1950,"month":11,"state":"PA","stateName":"Pennsylvania","scale":3,"scaleLabel":"F3","lengthMiles":11.2,"deaths":0,"injuries":0}},{"type":"Feature","geometry":{"type":"Point","coordinates":[-97.97,43.38]},"properties":{"id":"ncei-1950-10110746","year":1950,"month":5,"state":"SD","stateName":"South Dakota","scale":1,"scaleLabel":"F1","lengthMiles":1,"deaths":0,"injuries":0}},{"type":"Feature","geometry":{"type":"Point","coordinates":[-80,33.07]},"properties":{"id":"ncei-1950-10117453","year":1950,"month":4,"state":"SC","stateName":"South Carolina","scale":1,"scaleLabel":"F1","lengthMiles":0.7,"deaths":0,"injuries":0}},{"type":"Feature","geometry":{"type":"Point","coordinates":[-98.12,26.88]},"properties":{"id":"ncei-1950-10120401","year":1950,"month":1,"state":"TX","stateName":"Texas","scale":2,"scaleLabel":"F2","lengthMiles":4.7,"deaths":0,"injuries":2}},{"type":"Feature","geometry":{"type":"Point","coordinates":[-95.25,29.42]},"properties":{"id":"ncei-1950-10120402","year":1950,"month":2,"state":"TX","stateName":"Texas","scale":2,"scaleLabel":"F2","lengthMiles":9.9,"deaths":0,"injuries":0}},{"type":"Feature","geometry":{"type":"Point","coordinates":[-95.05,29.67]},"properties":{"id":"ncei-1950-10120403","year":1950,"month":2,"state":"TX","stateName":"Texas","scale":3,"scaleLabel":"F3","lengthMiles":12,"deaths":1,"injuries":12}},{"type":"Feature","geometry":{"type":"Point","coordinates":[-95.2,32.35]},"properties":{"id":"ncei-1950-10120404","year":1950,"month":2,"state":"TX","stateName":"Texas","scale":2,"scaleLabel":"F2","lengthMiles":4.6,"deaths":0,"injuries":5}},{"type":"Feature","geometry":{"type":"Point","coordinates":[-94.63,32.98]},"properties":{"id":"ncei-1950-10120405","year":1950,"month":2,"state":"TX","stateName":"Texas","scale":2,"scaleLabel":"F2","lengthMiles":4.5,"deaths":0,"injuries":6}},{"type":"Feature","geometry":{"type":"Point","coordinates":[-94.42,33.33]},"properties":{"id":"ncei-1950-10120406","year":1950,"month":2,"state":"TX","stateName":"Texas","scale":2,"scaleLabel":"F2","lengthMiles":8,"deaths":1,"injuries":8}},{"type":"Feature","geometry":{"type":"Point","coordinates":[-98.35,32.08]},"properties":{"id":"ncei-1950-10120407","year":1950,"month":2,"state":"TX","stateName":"Texas","scale":1,"scaleLabel":"F1","lengthMiles":2.3,"deaths":0,"injuries":0}},{"type":"Feature","geometry":{"type":"Point","coordinates":[-96.55,31.52]},"properties":{"id":"ncei-1950-10120408","year":1950,"month":2,"state":"TX","stateName":"Texas","scale":2,"scaleLabel":"F2","lengthMiles":3.4,"deaths":0,"injuries":0}},{"type":"Feature","geometry":{"type":"Point","coordinates":[-94.2,31.8]},"properties":{"id":"ncei-1950-10120409","year":1950,"month":2,"state":"TX","stateName":"Texas","scale":1,"scaleLabel":"F1","lengthMiles":7.7,"deaths":0,"injuries":32}},{"type":"Feature","geometry":{"type":"Point","coordinates":[-94.2,31.8]},"properties":{"id":"ncei-1950-10120410","year":1950,"month":2,"state":"TX","stateName":"Texas","scale":3,"scaleLabel":"F3","lengthMiles":1.9,"deaths":3,"injuries":15}},{"type":"Feature","geometry":{"type":"Point","coordinates":[-99.5,32.42]},"properties":{"id":"ncei-1950-10120411","year":1950,"month":4,"state":"TX","stateName":"Texas","scale":4,"scaleLabel":"F4","lengthMiles":1.3,"deaths":5,"injuries":5}},{"type":"Feature","geometry":{"type":"Point","coordinates":[-98.6,31.9]},"properties":{"id":"ncei-1950-10120412","year":1950,"month":4,"state":"TX","stateName":"Texas","scale":1,"scaleLabel":"F1","lengthMiles":11.5,"deaths":0,"injuries":0}},{"type":"Feature","geometry":{"type":"Point","coordinates":[-100.8,36.4]},"properties":{"id":"ncei-1950-10120413","year":1950,"month":5,"state":"TX","stateName":"Texas","scale":2,"scaleLabel":"F2","lengthMiles":1.9,"deaths":1,"injuries":13}},{"type":"Feature","geometry":{"type":"Point","coordinates":[-95.45,29.53]},"properties":{"id":"ncei-1950-10120414","year":1950,"month":5,"state":"TX","stateName":"Texas","scale":1,"scaleLabel":"F1","lengthMiles":1,"deaths":0,"injuries":0}},{"type":"Feature","geometry":{"type":"Point","coordinates":[-98.83,29.78]},"properties":{"id":"ncei-1950-10120415","year":1950,"month":5,"state":"TX","stateName":"Texas","scale":2,"scaleLabel":"F2","lengthMiles":18,"deaths":0,"injuries":0}},{"type":"Feature","geometry":{"type":"Point","coordinates":[-101.88,32.67]},"properties":{"id":"ncei-1950-10120416","year":1950,"month":5,"state":"TX","stateName":"Texas","scale":1,"scaleLabel":"F1","lengthMiles":3,"deaths":0,"injuries":0}},{"type":"Feature","geometry":{"type":"Point","coordinates":[-96.92,33.35]},"properties":{"id":"ncei-1950-10120417","year":1950,"month":5,"state":"TX","stateName":"Texas","scale":1,"scaleLabel":"F1","lengthMiles":3.4,"deaths":0,"injuries":0}},{"type":"Feature","geometry":{"type":"Point","coordinates":[-96.4,30.18]},"properties":{"id":"ncei-1950-10120418","year":1950,"month":6,"state":"TX","stateName":"Texas","scale":3,"scaleLabel":"F3","lengthMiles":23.9,"deaths":0,"injuries":6}},{"type":"Feature","geometry":{"type":"Point","coordinates":[-96.4,29.9]},"properties":{"id":"ncei-1950-10120419","year":1950,"month":6,"state":"TX","stateName":"Texas","scale":1,"scaleLabel":"F1","lengthMiles":23.7,"deaths":0,"injuries":2}},{"type":"Feature","geometry":{"type":"Point","coordinates":[-102.53,36.08]},"properties":{"id":"ncei-1950-10120420","year":1950,"month":6,"state":"TX","stateName":"Texas","scale":0,"scaleLabel":"F0","lengthMiles":15.8,"deaths":0,"injuries":0}},{"type":"Feature","geometry":{"type":"Point","coordinates":[-89.77,35.35]},"properties":{"id":"ncei-1950-10126026","year":1950,"month":2,"state":"TN","stateName":"Tennessee","scale":1,"scaleLabel":"F1","lengthMiles":0.2,"deaths":0,"injuries":8}},{"type":"Feature","geometry":{"type":"Point","coordinates":[-89.48,35.75]},"properties":{"id":"ncei-1950-10126027","year":1950,"month":2,"state":"TN","stateName":"Tennessee","scale":2,"scaleLabel":"F2","lengthMiles":0.2,"deaths":9,"injuries":1}},{"type":"Feature","geometry":{"type":"Point","coordinates":[-85.77,35.68]},"properties":{"id":"ncei-1950-10126028","year":1950,"month":3,"state":"TN","stateName":"Tennessee","scale":1,"scaleLabel":"F1","lengthMiles":0.2,"deaths":0,"injuries":0}},{"type":"Feature","geometry":{"type":"Point","coordinates":[-91,45.42]},"properties":{"id":"ncei-1950-10146801","year":1950,"month":6,"state":"WI","stateName":"Wisconsin","scale":-1,"scaleLabel":"Unknown","lengthMiles":0.5,"deaths":0,"injuries":0}},{"type":"Feature","geometry":{"type":"Point","coordinates":[-90.3,45.57]},"properties":{"id":"ncei-1950-10146802","year":1950,"month":6,"state":"WI","stateName":"Wisconsin","scale":2,"scaleLabel":"F2","lengthMiles":8.4,"deaths":0,"injuries":0}},{"type":"Feature","geometry":{"type":"Point","coordinates":[-90.35,44.83]},"properties":{"id":"ncei-1950-10146803","year":1950,"month":6,"state":"WI","stateName":"Wisconsin","scale":2,"scaleLabel":"F2","lengthMiles":5.1,"deaths":1,"injuries":0}},{"type":"Feature","geometry":{"type":"Point","coordinates":[-89.58,45.58]},"properties":{"id":"ncei-1950-10146804","year":1950,"month":6,"state":"WI","stateName":"Wisconsin","scale":4,"scaleLabel":"F4","lengthMiles":13.1,"deaths":2,"injuries":12}},{"type":"Feature","geometry":{"type":"Point","coordinates":[-90.32,44.92]},"properties":{"id":"ncei-1950-10146805","year":1950,"month":6,"state":"WI","stateName":"Wisconsin","scale":2,"scaleLabel":"F2","lengthMiles":2.7,"deaths":0,"injuries":0}},{"type":"Feature","geometry":{"type":"Point","coordinates":[-88.95,43.95]},"properties":{"id":"ncei-1950-10146806","year":1950,"month":6,"state":"WI","stateName":"Wisconsin","scale":3,"scaleLabel":"F3","lengthMiles":0,"deaths":0,"injuries":0}},{"type":"Feature","geometry":{"type":"Point","coordinates":[-81.38,39.28]},"properties":{"id":"ncei-1950-10147653","year":1950,"month":8,"state":"WV","stateName":"West Virginia","scale":1,"scaleLabel":"F1","lengthMiles":5,"deaths":0,"injuries":0}},{"type":"Feature","geometry":{"type":"Point","coordinates":[-110.42,41.18]},"properties":{"id":"ncei-1950-10162813","year":1950,"month":5,"state":"WY","stateName":"Wyoming","scale":2,"scaleLabel":"F2","lengthMiles":2,"deaths":0,"injuries":0}},{"type":"Feature","geometry":{"type":"Point","coordinates":[-104.5,43.08]},"properties":{"id":"ncei-1950-10162814","year":1950,"month":6,"state":"WY","stateName":"Wyoming","scale":1,"scaleLabel":"F1","lengthMiles":0.2,"deaths":0,"injuries":0}},{"type":"Feature","geometry":{"type":"Point","coordinates":[-104.18,44.13]},"properties":{"id":"ncei-1950-10162815","year":1950,"month":6,"state":"WY","stateName":"Wyoming","scale":1,"scaleLabel":"F1","lengthMiles":0.2,"deaths":0,"injuries":0}},{"type":"Feature","geometry":{"type":"Point","coordinates":[-88.2,30.67]},"properties":{"id":"ncei-1950-9979207","year":1950,"month":4,"state":"AL","stateName":"Alabama","scale":3,"scaleLabel":"F3","lengthMiles":14,"deaths":0,"injuries":15}},{"type":"Feature","geometry":{"type":"Point","coordinates":[-87.92,30.7]},"properties":{"id":"ncei-1950-9979423","year":1950,"month":4,"state":"AL","stateName":"Alabama","scale":2,"scaleLabel":"F2","lengthMiles":2,"deaths":0,"injuries":0}},{"type":"Feature","geometry":{"type":"Point","coordinates":[-94.37,34.4]},"properties":{"id":"ncei-1950-9981922","year":1950,"month":1,"state":"AR","stateName":"Arkansas","scale":3,"scaleLabel":"F3","lengthMiles":0.6,"deaths":1,"injuries":1}},{"type":"Feature","geometry":{"type":"Point","coordinates":[-92.4,34.48]},"properties":{"id":"ncei-1950-9981923","year":1950,"month":2,"state":"AR","stateName":"Arkansas","scale":2,"scaleLabel":"F2","lengthMiles":0,"deaths":0,"injuries":0}},{"type":"Feature","geometry":{"type":"Point","coordinates":[-92.95,33.27]},"properties":{"id":"ncei-1950-9981924","year":1950,"month":2,"state":"AR","stateName":"Arkansas","scale":2,"scaleLabel":"F2","lengthMiles":5.7,"deaths":0,"injuries":0}},{"type":"Feature","geometry":{"type":"Point","coordinates":[-93.07,34.12]},"properties":{"id":"ncei-1950-9981925","year":1950,"month":3,"state":"AR","stateName":"Arkansas","scale":2,"scaleLabel":"F2","lengthMiles":4.1,"deaths":0,"injuries":3}},{"type":"Feature","geometry":{"type":"Point","coordinates":[-93.03,34.17]},"properties":{"id":"ncei-1950-9981926","year":1950,"month":3,"state":"AR","stateName":"Arkansas","scale":2,"scaleLabel":"F2","lengthMiles":13.3,"deaths":0,"injuries":0}},{"type":"Feature","geometry":{"type":"Point","coordinates":[-91.83,36.15]},"properties":{"id":"ncei-1950-9982998","year":1950,"month":3,"state":"AR","stateName":"Arkansas","scale":3,"scaleLabel":"F3","lengthMiles":5.7,"deaths":0,"injuries":1}},{"type":"Feature","geometry":{"type":"Point","coordinates":[-92.35,34.7]},"properties":{"id":"ncei-1950-9982999","year":1950,"month":3,"state":"AR","stateName":"Arkansas","scale":2,"scaleLabel":"F2","lengthMiles":10.4,"deaths":0,"injuries":7}},{"type":"Feature","geometry":{"type":"Point","coordinates":[-91.73,34.98]},"properties":{"id":"ncei-1950-9983000","year":1950,"month":3,"state":"AR","stateName":"Arkansas","scale":3,"scaleLabel":"F3","lengthMiles":14.9,"deaths":0,"injuries":20}},{"type":"Feature","geometry":{"type":"Point","coordinates":[-91.4,35.1]},"properties":{"id":"ncei-1950-9983001","year":1950,"month":3,"state":"AR","stateName":"Arkansas","scale":2,"scaleLabel":"F2","lengthMiles":5.4,"deaths":0,"injuries":2}},{"type":"Feature","geometry":{"type":"Point","coordinates":[-91.22,35.75]},"properties":{"id":"ncei-1950-9983002","year":1950,"month":4,"state":"AR","stateName":"Arkansas","scale":3,"scaleLabel":"F3","lengthMiles":2.5,"deaths":1,"injuries":8}},{"type":"Feature","geometry":{"type":"Point","coordinates":[-89.92,35.98]},"properties":{"id":"ncei-1950-9983003","year":1950,"month":4,"state":"AR","stateName":"Arkansas","scale":1,"scaleLabel":"F1","lengthMiles":0.8,"deaths":0,"injuries":0}},{"type":"Feature","geometry":{"type":"Point","coordinates":[-91.43,34.4]},"properties":{"id":"ncei-1950-9983004","year":1950,"month":8,"state":"AR","stateName":"Arkansas","scale":2,"scaleLabel":"F2","lengthMiles":3.6,"deaths":0,"injuries":7}},{"type":"Feature","geometry":{"type":"Point","coordinates":[-91.83,36.12]},"properties":{"id":"ncei-1950-9983005","year":1950,"month":12,"state":"AR","stateName":"Arkansas","scale":3,"scaleLabel":"F3","lengthMiles":7.8,"deaths":0,"injuries":0}},{"type":"Feature","geometry":{"type":"Point","coordinates":[-81.22,29.65]},"properties":{"id":"ncei-1950-9985754","year":1950,"month":3,"state":"FL","stateName":"Florida","scale":2,"scaleLabel":"F2","lengthMiles":1.5,"deaths":0,"injuries":0}},{"type":"Feature","geometry":{"type":"Point","coordinates":[-81.35,29.13]},"properties":{"id":"ncei-1950-9985755","year":1950,"month":5,"state":"FL","stateName":"Florida","scale":1,"scaleLabel":"F1","lengthMiles":0.3,"deaths":0,"injuries":0}},{"type":"Feature","geometry":{"type":"Point","coordinates":[-81.37,28.58]},"properties":{"id":"ncei-1950-9985756","year":1950,"month":5,"state":"FL","stateName":"Florida","scale":1,"scaleLabel":"F1","lengthMiles":0,"deaths":0,"injuries":0}},{"type":"Feature","geometry":{"type":"Point","coordinates":[-81.37,28.5]},"properties":{"id":"ncei-1950-9985757","year":1950,"month":5,"state":"FL","stateName":"Florida","scale":2,"scaleLabel":"F2","lengthMiles":0,"deaths":0,"injuries":0}},{"type":"Feature","geometry":{"type":"Point","coordinates":[-84.98,29.73]},"properties":{"id":"ncei-1950-9985758","year":1950,"month":8,"state":"FL","stateName":"Florida","scale":1,"scaleLabel":"F1","lengthMiles":0.5,"deaths":0,"injuries":0}},{"type":"Feature","geometry":{"type":"Point","coordinates":[-85.2,30.8]},"properties":{"id":"ncei-1950-9985759","year":1950,"month":8,"state":"FL","stateName":"Florida","scale":-1,"scaleLabel":"Unknown","lengthMiles":0,"deaths":0,"injuries":0}},{"type":"Feature","geometry":{"type":"Point","coordinates":[-72.57,41.57]},"properties":{"id":"ncei-1950-9986148","year":1950,"month":7,"state":"CT","stateName":"Connecticut","scale":2,"scaleLabel":"F2","lengthMiles":10,"deaths":0,"injuries":0}},{"type":"Feature","geometry":{"type":"Point","coordinates":[-73.5,41.27]},"properties":{"id":"ncei-1950-9986149","year":1950,"month":7,"state":"CT","stateName":"Connecticut","scale":2,"scaleLabel":"F2","lengthMiles":5,"deaths":0,"injuries":3}},{"type":"Feature","geometry":{"type":"Point","coordinates":[-104.57,40.52]},"properties":{"id":"ncei-1950-9991325","year":1950,"month":7,"state":"CO","stateName":"Colorado","scale":-1,"scaleLabel":"Unknown","lengthMiles":0,"deaths":0,"injuries":0}},{"type":"Feature","geometry":{"type":"Point","coordinates":[-102.55,40.73]},"properties":{"id":"ncei-1950-9991326","year":1950,"month":8,"state":"CO","stateName":"Colorado","scale":2,"scaleLabel":"F2","lengthMiles":0,"deaths":0,"injuries":1}},{"type":"Feature","geometry":{"type":"Point","coordinates":[-102.5,40.7]},"properties":{"id":"ncei-1950-9991327","year":1950,"month":8,"state":"CO","stateName":"Colorado","scale":2,"scaleLabel":"F2","lengthMiles":0,"deaths":0,"injuries":0}}]}
