{"type":"FeatureCollection","metadata":{"source":"NOAA/NCEI StormEvents details CSV","generatedAt":"2026-04-27T22:31:07.075Z","count":269,"year":1951},"features":[{"type":"Feature","geometry":{"type":"Point","coordinates":[-81.5,31.83]},"properties":{"id":"ncei-1951-10001434","year":1951,"month":5,"state":"GA","stateName":"Georgia","scale":1,"scaleLabel":"F1","lengthMiles":0.3,"deaths":0,"injuries":0}},{"type":"Feature","geometry":{"type":"Point","coordinates":[-83.83,31.3]},"properties":{"id":"ncei-1951-10001435","year":1951,"month":5,"state":"GA","stateName":"Georgia","scale":2,"scaleLabel":"F2","lengthMiles":9.2,"deaths":0,"injuries":0}},{"type":"Feature","geometry":{"type":"Point","coordinates":[-84.17,31.53]},"properties":{"id":"ncei-1951-10001436","year":1951,"month":11,"state":"GA","stateName":"Georgia","scale":1,"scaleLabel":"F1","lengthMiles":0.5,"deaths":0,"injuries":0}},{"type":"Feature","geometry":{"type":"Point","coordinates":[-85.77,39.78]},"properties":{"id":"ncei-1951-10004031","year":1951,"month":3,"state":"IN","stateName":"Indiana","scale":2,"scaleLabel":"F2","lengthMiles":3,"deaths":0,"injuries":2}},{"type":"Feature","geometry":{"type":"Point","coordinates":[-86.48,41.12]},"properties":{"id":"ncei-1951-10004032","year":1951,"month":6,"state":"IN","stateName":"Indiana","scale":3,"scaleLabel":"F3","lengthMiles":2.7,"deaths":0,"injuries":2}},{"type":"Feature","geometry":{"type":"Point","coordinates":[-86.42,41.12]},"properties":{"id":"ncei-1951-10004033","year":1951,"month":6,"state":"IN","stateName":"Indiana","scale":3,"scaleLabel":"F3","lengthMiles":2.7,"deaths":0,"injuries":2}},{"type":"Feature","geometry":{"type":"Point","coordinates":[-86.12,40.48]},"properties":{"id":"ncei-1951-10004034","year":1951,"month":7,"state":"IN","stateName":"Indiana","scale":2,"scaleLabel":"F2","lengthMiles":1,"deaths":0,"injuries":0}},{"type":"Feature","geometry":{"type":"Point","coordinates":[-87.33,41.6]},"properties":{"id":"ncei-1951-10004035","year":1951,"month":11,"state":"IN","stateName":"Indiana","scale":2,"scaleLabel":"F2","lengthMiles":0.3,"deaths":0,"injuries":0}},{"type":"Feature","geometry":{"type":"Point","coordinates":[-89.17,39.95]},"properties":{"id":"ncei-1951-10009721","year":1951,"month":6,"state":"IL","stateName":"Illinois","scale":3,"scaleLabel":"F3","lengthMiles":9.6,"deaths":0,"injuries":35}},{"type":"Feature","geometry":{"type":"Point","coordinates":[-89.47,40.27]},"properties":{"id":"ncei-1951-10009722","year":1951,"month":6,"state":"IL","stateName":"Illinois","scale":3,"scaleLabel":"F3","lengthMiles":18.2,"deaths":1,"injuries":15}},{"type":"Feature","geometry":{"type":"Point","coordinates":[-89.72,40.2]},"properties":{"id":"ncei-1951-10009723","year":1951,"month":11,"state":"IL","stateName":"Illinois","scale":2,"scaleLabel":"F2","lengthMiles":47.4,"deaths":0,"injuries":0}},{"type":"Feature","geometry":{"type":"Point","coordinates":[-89.53,37.9]},"properties":{"id":"ncei-1951-10009724","year":1951,"month":11,"state":"IL","stateName":"Illinois","scale":2,"scaleLabel":"F2","lengthMiles":7.1,"deaths":0,"injuries":7}},{"type":"Feature","geometry":{"type":"Point","coordinates":[-89.18,41.33]},"properties":{"id":"ncei-1951-10009725","year":1951,"month":12,"state":"IL","stateName":"Illinois","scale":3,"scaleLabel":"F3","lengthMiles":21.9,"deaths":1,"injuries":1}},{"type":"Feature","geometry":{"type":"Point","coordinates":[-92.92,42.07]},"properties":{"id":"ncei-1951-10017013","year":1951,"month":6,"state":"IA","stateName":"Iowa","scale":3,"scaleLabel":"F3","lengthMiles":1.5,"deaths":0,"injuries":7}},{"type":"Feature","geometry":{"type":"Point","coordinates":[-96.25,43.38]},"properties":{"id":"ncei-1951-10017014","year":1951,"month":6,"state":"IA","stateName":"Iowa","scale":1,"scaleLabel":"F1","lengthMiles":0.5,"deaths":0,"injuries":0}},{"type":"Feature","geometry":{"type":"Point","coordinates":[-93.8,43.22]},"properties":{"id":"ncei-1951-10017015","year":1951,"month":6,"state":"IA","stateName":"Iowa","scale":2,"scaleLabel":"F2","lengthMiles":0.8,"deaths":0,"injuries":8}},{"type":"Feature","geometry":{"type":"Point","coordinates":[-95.87,43.18]},"properties":{"id":"ncei-1951-10017016","year":1951,"month":7,"state":"IA","stateName":"Iowa","scale":1,"scaleLabel":"F1","lengthMiles":0,"deaths":0,"injuries":2}},{"type":"Feature","geometry":{"type":"Point","coordinates":[-95.95,42.85]},"properties":{"id":"ncei-1951-10017017","year":1951,"month":8,"state":"IA","stateName":"Iowa","scale":1,"scaleLabel":"F1","lengthMiles":5.6,"deaths":0,"injuries":0}},{"type":"Feature","geometry":{"type":"Point","coordinates":[-96.3,37.83]},"properties":{"id":"ncei-1951-10025119","year":1951,"month":6,"state":"KS","stateName":"Kansas","scale":-1,"scaleLabel":"Unknown","lengthMiles":0,"deaths":0,"injuries":0}},{"type":"Feature","geometry":{"type":"Point","coordinates":[-101.62,37.12]},"properties":{"id":"ncei-1951-10025120","year":1951,"month":6,"state":"KS","stateName":"Kansas","scale":-1,"scaleLabel":"Unknown","lengthMiles":0,"deaths":1,"injuries":0}},{"type":"Feature","geometry":{"type":"Point","coordinates":[-101.35,37.18]},"properties":{"id":"ncei-1951-10025121","year":1951,"month":6,"state":"KS","stateName":"Kansas","scale":2,"scaleLabel":"F2","lengthMiles":0,"deaths":1,"injuries":5}},{"type":"Feature","geometry":{"type":"Point","coordinates":[-99.88,39.03]},"properties":{"id":"ncei-1951-10025122","year":1951,"month":6,"state":"KS","stateName":"Kansas","scale":4,"scaleLabel":"F4","lengthMiles":0.8,"deaths":5,"injuries":100}},{"type":"Feature","geometry":{"type":"Point","coordinates":[-99.37,38.87]},"properties":{"id":"ncei-1951-10025123","year":1951,"month":6,"state":"KS","stateName":"Kansas","scale":1,"scaleLabel":"F1","lengthMiles":0,"deaths":0,"injuries":0}},{"type":"Feature","geometry":{"type":"Point","coordinates":[-99.6,37.58]},"properties":{"id":"ncei-1951-10025124","year":1951,"month":7,"state":"KS","stateName":"Kansas","scale":-1,"scaleLabel":"Unknown","lengthMiles":0,"deaths":0,"injuries":0}},{"type":"Feature","geometry":{"type":"Point","coordinates":[-99.57,39.25]},"properties":{"id":"ncei-1951-10025336","year":1951,"month":7,"state":"KS","stateName":"Kansas","scale":2,"scaleLabel":"F2","lengthMiles":0,"deaths":0,"injuries":0}},{"type":"Feature","geometry":{"type":"Point","coordinates":[-97.58,39.48]},"properties":{"id":"ncei-1951-10025337","year":1951,"month":7,"state":"KS","stateName":"Kansas","scale":-1,"scaleLabel":"Unknown","lengthMiles":7.7,"deaths":0,"injuries":0}},{"type":"Feature","geometry":{"type":"Point","coordinates":[-99.63,37.55]},"properties":{"id":"ncei-1951-10025338","year":1951,"month":8,"state":"KS","stateName":"Kansas","scale":-1,"scaleLabel":"Unknown","lengthMiles":0,"deaths":0,"injuries":0}},{"type":"Feature","geometry":{"type":"Point","coordinates":[-101.77,37.05]},"properties":{"id":"ncei-1951-10025339","year":1951,"month":8,"state":"KS","stateName":"Kansas","scale":1,"scaleLabel":"F1","lengthMiles":0,"deaths":0,"injuries":0}},{"type":"Feature","geometry":{"type":"Point","coordinates":[-99.83,38.75]},"properties":{"id":"ncei-1951-10025340","year":1951,"month":8,"state":"KS","stateName":"Kansas","scale":-1,"scaleLabel":"Unknown","lengthMiles":0,"deaths":0,"injuries":0}},{"type":"Feature","geometry":{"type":"Point","coordinates":[-101.67,39.87]},"properties":{"id":"ncei-1951-10025341","year":1951,"month":8,"state":"KS","stateName":"Kansas","scale":-1,"scaleLabel":"Unknown","lengthMiles":2.3,"deaths":0,"injuries":0}},{"type":"Feature","geometry":{"type":"Point","coordinates":[-97.77,38.23]},"properties":{"id":"ncei-1951-10025342","year":1951,"month":8,"state":"KS","stateName":"Kansas","scale":-1,"scaleLabel":"Unknown","lengthMiles":0,"deaths":0,"injuries":0}},{"type":"Feature","geometry":{"type":"Point","coordinates":[-97.77,38.23]},"properties":{"id":"ncei-1951-10025343","year":1951,"month":8,"state":"KS","stateName":"Kansas","scale":-1,"scaleLabel":"Unknown","lengthMiles":0,"deaths":0,"injuries":0}},{"type":"Feature","geometry":{"type":"Point","coordinates":[-99.57,38.58]},"properties":{"id":"ncei-1951-10025344","year":1951,"month":8,"state":"KS","stateName":"Kansas","scale":-1,"scaleLabel":"Unknown","lengthMiles":0,"deaths":0,"injuries":0}},{"type":"Feature","geometry":{"type":"Point","coordinates":[-95.17,38.67]},"properties":{"id":"ncei-1951-10025345","year":1951,"month":8,"state":"KS","stateName":"Kansas","scale":-1,"scaleLabel":"Unknown","lengthMiles":0,"deaths":0,"injuries":0}},{"type":"Feature","geometry":{"type":"Point","coordinates":[-100.92,39.78]},"properties":{"id":"ncei-1951-10025346","year":1951,"month":8,"state":"KS","stateName":"Kansas","scale":2,"scaleLabel":"F2","lengthMiles":3.3,"deaths":0,"injuries":0}},{"type":"Feature","geometry":{"type":"Point","coordinates":[-97.67,38.67]},"properties":{"id":"ncei-1951-10025347","year":1951,"month":8,"state":"KS","stateName":"Kansas","scale":-1,"scaleLabel":"Unknown","lengthMiles":0,"deaths":0,"injuries":0}},{"type":"Feature","geometry":{"type":"Point","coordinates":[-96.95,38.67]},"properties":{"id":"ncei-1951-10025348","year":1951,"month":8,"state":"KS","stateName":"Kansas","scale":-1,"scaleLabel":"Unknown","lengthMiles":0,"deaths":0,"injuries":0}},{"type":"Feature","geometry":{"type":"Point","coordinates":[-99.52,38.62]},"properties":{"id":"ncei-1951-10025349","year":1951,"month":9,"state":"KS","stateName":"Kansas","scale":-1,"scaleLabel":"Unknown","lengthMiles":0.8,"deaths":0,"injuries":0}},{"type":"Feature","geometry":{"type":"Point","coordinates":[-98.55,39.43]},"properties":{"id":"ncei-1951-10028680","year":1951,"month":3,"state":"KS","stateName":"Kansas","scale":-1,"scaleLabel":"Unknown","lengthMiles":38.1,"deaths":0,"injuries":0}},{"type":"Feature","geometry":{"type":"Point","coordinates":[-95.72,39.83]},"properties":{"id":"ncei-1951-10028681","year":1951,"month":3,"state":"KS","stateName":"Kansas","scale":-1,"scaleLabel":"Unknown","lengthMiles":0,"deaths":0,"injuries":0}},{"type":"Feature","geometry":{"type":"Point","coordinates":[-101.77,37.12]},"properties":{"id":"ncei-1951-10028682","year":1951,"month":4,"state":"KS","stateName":"Kansas","scale":0,"scaleLabel":"F0","lengthMiles":0,"deaths":0,"injuries":0}},{"type":"Feature","geometry":{"type":"Point","coordinates":[-101.52,37.47]},"properties":{"id":"ncei-1951-10028683","year":1951,"month":4,"state":"KS","stateName":"Kansas","scale":0,"scaleLabel":"F0","lengthMiles":29.2,"deaths":0,"injuries":0}},{"type":"Feature","geometry":{"type":"Point","coordinates":[-101.62,37.17]},"properties":{"id":"ncei-1951-10028684","year":1951,"month":4,"state":"KS","stateName":"Kansas","scale":1,"scaleLabel":"F1","lengthMiles":0,"deaths":0,"injuries":0}},{"type":"Feature","geometry":{"type":"Point","coordinates":[-100.93,37.07]},"properties":{"id":"ncei-1951-10028685","year":1951,"month":4,"state":"KS","stateName":"Kansas","scale":0,"scaleLabel":"F0","lengthMiles":1,"deaths":0,"injuries":0}},{"type":"Feature","geometry":{"type":"Point","coordinates":[-101.77,37.08]},"properties":{"id":"ncei-1951-10028686","year":1951,"month":4,"state":"KS","stateName":"Kansas","scale":1,"scaleLabel":"F1","lengthMiles":0,"deaths":0,"injuries":0}},{"type":"Feature","geometry":{"type":"Point","coordinates":[-98.75,37.63]},"properties":{"id":"ncei-1951-10028687","year":1951,"month":4,"state":"KS","stateName":"Kansas","scale":3,"scaleLabel":"F3","lengthMiles":12.8,"deaths":0,"injuries":0}},{"type":"Feature","geometry":{"type":"Point","coordinates":[-96.5,37.1]},"properties":{"id":"ncei-1951-10028688","year":1951,"month":4,"state":"KS","stateName":"Kansas","scale":-1,"scaleLabel":"Unknown","lengthMiles":0,"deaths":0,"injuries":0}},{"type":"Feature","geometry":{"type":"Point","coordinates":[-95.8,39.03]},"properties":{"id":"ncei-1951-10028689","year":1951,"month":5,"state":"KS","stateName":"Kansas","scale":1,"scaleLabel":"F1","lengthMiles":0,"deaths":0,"injuries":0}},{"type":"Feature","geometry":{"type":"Point","coordinates":[-95.4,39.4]},"properties":{"id":"ncei-1951-10028690","year":1951,"month":5,"state":"KS","stateName":"Kansas","scale":1,"scaleLabel":"F1","lengthMiles":0,"deaths":0,"injuries":0}},{"type":"Feature","geometry":{"type":"Point","coordinates":[-101.55,38.38]},"properties":{"id":"ncei-1951-10028691","year":1951,"month":5,"state":"KS","stateName":"Kansas","scale":1,"scaleLabel":"F1","lengthMiles":0,"deaths":0,"injuries":0}},{"type":"Feature","geometry":{"type":"Point","coordinates":[-95.5,39.3]},"properties":{"id":"ncei-1951-10028692","year":1951,"month":5,"state":"KS","stateName":"Kansas","scale":1,"scaleLabel":"F1","lengthMiles":2.3,"deaths":0,"injuries":0}},{"type":"Feature","geometry":{"type":"Point","coordinates":[-95.55,38.78]},"properties":{"id":"ncei-1951-10028693","year":1951,"month":5,"state":"KS","stateName":"Kansas","scale":0,"scaleLabel":"F0","lengthMiles":0,"deaths":0,"injuries":0}},{"type":"Feature","geometry":{"type":"Point","coordinates":[-99.5,39.08]},"properties":{"id":"ncei-1951-10028694","year":1951,"month":5,"state":"KS","stateName":"Kansas","scale":1,"scaleLabel":"F1","lengthMiles":0,"deaths":0,"injuries":0}},{"type":"Feature","geometry":{"type":"Point","coordinates":[-101.37,39.37]},"properties":{"id":"ncei-1951-10028695","year":1951,"month":5,"state":"KS","stateName":"Kansas","scale":2,"scaleLabel":"F2","lengthMiles":0,"deaths":0,"injuries":0}},{"type":"Feature","geometry":{"type":"Point","coordinates":[-101.9,37]},"properties":{"id":"ncei-1951-10028696","year":1951,"month":5,"state":"KS","stateName":"Kansas","scale":2,"scaleLabel":"F2","lengthMiles":0,"deaths":0,"injuries":0}},{"type":"Feature","geometry":{"type":"Point","coordinates":[-101.33,39.78]},"properties":{"id":"ncei-1951-10028697","year":1951,"month":5,"state":"KS","stateName":"Kansas","scale":3,"scaleLabel":"F3","lengthMiles":0,"deaths":0,"injuries":4}},{"type":"Feature","geometry":{"type":"Point","coordinates":[-101.25,37.97]},"properties":{"id":"ncei-1951-10028698","year":1951,"month":5,"state":"KS","stateName":"Kansas","scale":2,"scaleLabel":"F2","lengthMiles":1,"deaths":0,"injuries":0}},{"type":"Feature","geometry":{"type":"Point","coordinates":[-101.2,37.9]},"properties":{"id":"ncei-1951-10028699","year":1951,"month":5,"state":"KS","stateName":"Kansas","scale":3,"scaleLabel":"F3","lengthMiles":12.8,"deaths":0,"injuries":0}},{"type":"Feature","geometry":{"type":"Point","coordinates":[-101.38,39.78]},"properties":{"id":"ncei-1951-10028700","year":1951,"month":5,"state":"KS","stateName":"Kansas","scale":3,"scaleLabel":"F3","lengthMiles":0,"deaths":0,"injuries":0}},{"type":"Feature","geometry":{"type":"Point","coordinates":[-96.97,39.03]},"properties":{"id":"ncei-1951-10028701","year":1951,"month":5,"state":"KS","stateName":"Kansas","scale":2,"scaleLabel":"F2","lengthMiles":0,"deaths":0,"injuries":0}},{"type":"Feature","geometry":{"type":"Point","coordinates":[-101.75,37.53]},"properties":{"id":"ncei-1951-10028702","year":1951,"month":5,"state":"KS","stateName":"Kansas","scale":1,"scaleLabel":"F1","lengthMiles":0,"deaths":0,"injuries":0}},{"type":"Feature","geometry":{"type":"Point","coordinates":[-97.5,39.45]},"properties":{"id":"ncei-1951-10028703","year":1951,"month":5,"state":"KS","stateName":"Kansas","scale":1,"scaleLabel":"F1","lengthMiles":0,"deaths":0,"injuries":0}},{"type":"Feature","geometry":{"type":"Point","coordinates":[-97.18,39.27]},"properties":{"id":"ncei-1951-10028704","year":1951,"month":5,"state":"KS","stateName":"Kansas","scale":3,"scaleLabel":"F3","lengthMiles":4.1,"deaths":1,"injuries":0}},{"type":"Feature","geometry":{"type":"Point","coordinates":[-97.43,39.93]},"properties":{"id":"ncei-1951-10028705","year":1951,"month":5,"state":"KS","stateName":"Kansas","scale":2,"scaleLabel":"F2","lengthMiles":0,"deaths":0,"injuries":0}},{"type":"Feature","geometry":{"type":"Point","coordinates":[-99.27,38.83]},"properties":{"id":"ncei-1951-10028706","year":1951,"month":5,"state":"KS","stateName":"Kansas","scale":1,"scaleLabel":"F1","lengthMiles":3,"deaths":0,"injuries":0}},{"type":"Feature","geometry":{"type":"Point","coordinates":[-97.18,39.4]},"properties":{"id":"ncei-1951-10028707","year":1951,"month":5,"state":"KS","stateName":"Kansas","scale":-1,"scaleLabel":"Unknown","lengthMiles":0,"deaths":0,"injuries":0}},{"type":"Feature","geometry":{"type":"Point","coordinates":[-96.58,39.25]},"properties":{"id":"ncei-1951-10028708","year":1951,"month":5,"state":"KS","stateName":"Kansas","scale":-1,"scaleLabel":"Unknown","lengthMiles":0,"deaths":0,"injuries":0}},{"type":"Feature","geometry":{"type":"Point","coordinates":[-96.03,39.4]},"properties":{"id":"ncei-1951-10028709","year":1951,"month":5,"state":"KS","stateName":"Kansas","scale":-1,"scaleLabel":"Unknown","lengthMiles":0,"deaths":0,"injuries":0}},{"type":"Feature","geometry":{"type":"Point","coordinates":[-95.73,39.47]},"properties":{"id":"ncei-1951-10028710","year":1951,"month":5,"state":"KS","stateName":"Kansas","scale":-1,"scaleLabel":"Unknown","lengthMiles":0,"deaths":0,"injuries":0}},{"type":"Feature","geometry":{"type":"Point","coordinates":[-97.02,39.28]},"properties":{"id":"ncei-1951-10028711","year":1951,"month":5,"state":"KS","stateName":"Kansas","scale":0,"scaleLabel":"F0","lengthMiles":0,"deaths":0,"injuries":0}},{"type":"Feature","geometry":{"type":"Point","coordinates":[-97.05,39.13]},"properties":{"id":"ncei-1951-10028712","year":1951,"month":5,"state":"KS","stateName":"Kansas","scale":1,"scaleLabel":"F1","lengthMiles":8.3,"deaths":0,"injuries":0}},{"type":"Feature","geometry":{"type":"Point","coordinates":[-96.45,39.35]},"properties":{"id":"ncei-1951-10028713","year":1951,"month":5,"state":"KS","stateName":"Kansas","scale":1,"scaleLabel":"F1","lengthMiles":7.7,"deaths":0,"injuries":0}},{"type":"Feature","geometry":{"type":"Point","coordinates":[-95.4,39.37]},"properties":{"id":"ncei-1951-10028714","year":1951,"month":5,"state":"KS","stateName":"Kansas","scale":2,"scaleLabel":"F2","lengthMiles":3,"deaths":0,"injuries":0}},{"type":"Feature","geometry":{"type":"Point","coordinates":[-97.98,39.73]},"properties":{"id":"ncei-1951-10028715","year":1951,"month":6,"state":"KS","stateName":"Kansas","scale":1,"scaleLabel":"F1","lengthMiles":11,"deaths":0,"injuries":0}},{"type":"Feature","geometry":{"type":"Point","coordinates":[-101.33,37.58]},"properties":{"id":"ncei-1951-10028716","year":1951,"month":6,"state":"KS","stateName":"Kansas","scale":2,"scaleLabel":"F2","lengthMiles":0,"deaths":0,"injuries":3}},{"type":"Feature","geometry":{"type":"Point","coordinates":[-99.92,38.88]},"properties":{"id":"ncei-1951-10028717","year":1951,"month":6,"state":"KS","stateName":"Kansas","scale":1,"scaleLabel":"F1","lengthMiles":3,"deaths":0,"injuries":0}},{"type":"Feature","geometry":{"type":"Point","coordinates":[-98.87,37.78]},"properties":{"id":"ncei-1951-10028718","year":1951,"month":6,"state":"KS","stateName":"Kansas","scale":-1,"scaleLabel":"Unknown","lengthMiles":0,"deaths":0,"injuries":0}},{"type":"Feature","geometry":{"type":"Point","coordinates":[-98.9,37.63]},"properties":{"id":"ncei-1951-10028719","year":1951,"month":6,"state":"KS","stateName":"Kansas","scale":-1,"scaleLabel":"Unknown","lengthMiles":9,"deaths":0,"injuries":0}},{"type":"Feature","geometry":{"type":"Point","coordinates":[-98.82,37.52]},"properties":{"id":"ncei-1951-10028720","year":1951,"month":6,"state":"KS","stateName":"Kansas","scale":-1,"scaleLabel":"Unknown","lengthMiles":0,"deaths":0,"injuries":0}},{"type":"Feature","geometry":{"type":"Point","coordinates":[-98.57,37.77]},"properties":{"id":"ncei-1951-10028721","year":1951,"month":6,"state":"KS","stateName":"Kansas","scale":-1,"scaleLabel":"Unknown","lengthMiles":0,"deaths":0,"injuries":0}},{"type":"Feature","geometry":{"type":"Point","coordinates":[-101.37,37.58]},"properties":{"id":"ncei-1951-10028722","year":1951,"month":6,"state":"KS","stateName":"Kansas","scale":3,"scaleLabel":"F3","lengthMiles":44.8,"deaths":0,"injuries":3}},{"type":"Feature","geometry":{"type":"Point","coordinates":[-99.03,39.18]},"properties":{"id":"ncei-1951-10028723","year":1951,"month":6,"state":"KS","stateName":"Kansas","scale":1,"scaleLabel":"F1","lengthMiles":0,"deaths":0,"injuries":0}},{"type":"Feature","geometry":{"type":"Point","coordinates":[-97.12,37.68]},"properties":{"id":"ncei-1951-10028724","year":1951,"month":6,"state":"KS","stateName":"Kansas","scale":1,"scaleLabel":"F1","lengthMiles":0,"deaths":0,"injuries":0}},{"type":"Feature","geometry":{"type":"Point","coordinates":[-95.62,38.42]},"properties":{"id":"ncei-1951-10028725","year":1951,"month":6,"state":"KS","stateName":"Kansas","scale":1,"scaleLabel":"F1","lengthMiles":0.8,"deaths":0,"injuries":0}},{"type":"Feature","geometry":{"type":"Point","coordinates":[-95.35,38.88]},"properties":{"id":"ncei-1951-10028726","year":1951,"month":6,"state":"KS","stateName":"Kansas","scale":2,"scaleLabel":"F2","lengthMiles":0,"deaths":0,"injuries":0}},{"type":"Feature","geometry":{"type":"Point","coordinates":[-95.82,39.07]},"properties":{"id":"ncei-1951-10028727","year":1951,"month":6,"state":"KS","stateName":"Kansas","scale":0,"scaleLabel":"F0","lengthMiles":0.5,"deaths":0,"injuries":0}},{"type":"Feature","geometry":{"type":"Point","coordinates":[-101.78,38]},"properties":{"id":"ncei-1951-10028728","year":1951,"month":6,"state":"KS","stateName":"Kansas","scale":-1,"scaleLabel":"Unknown","lengthMiles":0,"deaths":0,"injuries":0}},{"type":"Feature","geometry":{"type":"Point","coordinates":[-100.23,39.07]},"properties":{"id":"ncei-1951-10028729","year":1951,"month":6,"state":"KS","stateName":"Kansas","scale":0,"scaleLabel":"F0","lengthMiles":0.7,"deaths":0,"injuries":0}},{"type":"Feature","geometry":{"type":"Point","coordinates":[-100.3,39.07]},"properties":{"id":"ncei-1951-10028730","year":1951,"month":6,"state":"KS","stateName":"Kansas","scale":-1,"scaleLabel":"Unknown","lengthMiles":0,"deaths":0,"injuries":0}},{"type":"Feature","geometry":{"type":"Point","coordinates":[-95.08,38.62]},"properties":{"id":"ncei-1951-10028731","year":1951,"month":6,"state":"KS","stateName":"Kansas","scale":-1,"scaleLabel":"Unknown","lengthMiles":0,"deaths":0,"injuries":0}},{"type":"Feature","geometry":{"type":"Point","coordinates":[-99.1,37.1]},"properties":{"id":"ncei-1951-10028732","year":1951,"month":6,"state":"KS","stateName":"Kansas","scale":-1,"scaleLabel":"Unknown","lengthMiles":0,"deaths":0,"injuries":0}},{"type":"Feature","geometry":{"type":"Point","coordinates":[-100.95,39.28]},"properties":{"id":"ncei-1951-10028733","year":1951,"month":6,"state":"KS","stateName":"Kansas","scale":1,"scaleLabel":"F1","lengthMiles":0,"deaths":0,"injuries":0}},{"type":"Feature","geometry":{"type":"Point","coordinates":[-101.37,38.47]},"properties":{"id":"ncei-1951-10028734","year":1951,"month":6,"state":"KS","stateName":"Kansas","scale":2,"scaleLabel":"F2","lengthMiles":48.6,"deaths":0,"injuries":0}},{"type":"Feature","geometry":{"type":"Point","coordinates":[-98.88,39.37]},"properties":{"id":"ncei-1951-10028735","year":1951,"month":6,"state":"KS","stateName":"Kansas","scale":-1,"scaleLabel":"Unknown","lengthMiles":22.2,"deaths":0,"injuries":0}},{"type":"Feature","geometry":{"type":"Point","coordinates":[-99.32,38.53]},"properties":{"id":"ncei-1951-10028736","year":1951,"month":6,"state":"KS","stateName":"Kansas","scale":2,"scaleLabel":"F2","lengthMiles":0,"deaths":0,"injuries":0}},{"type":"Feature","geometry":{"type":"Point","coordinates":[-92.47,31.3]},"properties":{"id":"ncei-1951-10032651","year":1951,"month":1,"state":"LA","stateName":"Louisiana","scale":3,"scaleLabel":"F3","lengthMiles":9.5,"deaths":0,"injuries":11}},{"type":"Feature","geometry":{"type":"Point","coordinates":[-92.43,31.43]},"properties":{"id":"ncei-1951-10032652","year":1951,"month":1,"state":"LA","stateName":"Louisiana","scale":3,"scaleLabel":"F3","lengthMiles":7.3,"deaths":0,"injuries":0}},{"type":"Feature","geometry":{"type":"Point","coordinates":[-92,30.5]},"properties":{"id":"ncei-1951-10032653","year":1951,"month":2,"state":"LA","stateName":"Louisiana","scale":1,"scaleLabel":"F1","lengthMiles":0.5,"deaths":0,"injuries":0}},{"type":"Feature","geometry":{"type":"Point","coordinates":[-90.42,30.48]},"properties":{"id":"ncei-1951-10032654","year":1951,"month":2,"state":"LA","stateName":"Louisiana","scale":1,"scaleLabel":"F1","lengthMiles":4.9,"deaths":0,"injuries":0}},{"type":"Feature","geometry":{"type":"Point","coordinates":[-92.25,31.72]},"properties":{"id":"ncei-1951-10032655","year":1951,"month":4,"state":"LA","stateName":"Louisiana","scale":0,"scaleLabel":"F0","lengthMiles":1,"deaths":0,"injuries":2}},{"type":"Feature","geometry":{"type":"Point","coordinates":[-92.32,32.33]},"properties":{"id":"ncei-1951-10032656","year":1951,"month":4,"state":"LA","stateName":"Louisiana","scale":0,"scaleLabel":"F0","lengthMiles":1,"deaths":0,"injuries":1}},{"type":"Feature","geometry":{"type":"Point","coordinates":[-93.42,30.25]},"properties":{"id":"ncei-1951-10032657","year":1951,"month":8,"state":"LA","stateName":"Louisiana","scale":1,"scaleLabel":"F1","lengthMiles":0.5,"deaths":0,"injuries":0}},{"type":"Feature","geometry":{"type":"Point","coordinates":[-92.73,31.92]},"properties":{"id":"ncei-1951-10032658","year":1951,"month":9,"state":"LA","stateName":"Louisiana","scale":1,"scaleLabel":"F1","lengthMiles":0.5,"deaths":0,"injuries":0}},{"type":"Feature","geometry":{"type":"Point","coordinates":[-90.13,29.87]},"properties":{"id":"ncei-1951-10032659","year":1951,"month":9,"state":"LA","stateName":"Louisiana","scale":2,"scaleLabel":"F2","lengthMiles":1,"deaths":0,"injuries":0}},{"type":"Feature","geometry":{"type":"Point","coordinates":[-89.8,30.08]},"properties":{"id":"ncei-1951-10032660","year":1951,"month":11,"state":"LA","stateName":"Louisiana","scale":1,"scaleLabel":"F1","lengthMiles":0.3,"deaths":0,"injuries":0}},{"type":"Feature","geometry":{"type":"Point","coordinates":[-85.05,38.27]},"properties":{"id":"ncei-1951-10035923","year":1951,"month":2,"state":"KY","stateName":"Kentucky","scale":2,"scaleLabel":"F2","lengthMiles":0,"deaths":0,"injuries":0}},{"type":"Feature","geometry":{"type":"Point","coordinates":[-88.33,37.02]},"properties":{"id":"ncei-1951-10035924","year":1951,"month":11,"state":"KY","stateName":"Kentucky","scale":3,"scaleLabel":"F3","lengthMiles":2,"deaths":1,"injuries":11}},{"type":"Feature","geometry":{"type":"Point","coordinates":[-84.05,42.7]},"properties":{"id":"ncei-1951-10039190","year":1951,"month":5,"state":"MI","stateName":"Michigan","scale":2,"scaleLabel":"F2","lengthMiles":2.3,"deaths":0,"injuries":0}},{"type":"Feature","geometry":{"type":"Point","coordinates":[-84.75,42.75]},"properties":{"id":"ncei-1951-10039191","year":1951,"month":6,"state":"MI","stateName":"Michigan","scale":1,"scaleLabel":"F1","lengthMiles":0.5,"deaths":0,"injuries":1}},{"type":"Feature","geometry":{"type":"Point","coordinates":[-84.33,43.67]},"properties":{"id":"ncei-1951-10039192","year":1951,"month":6,"state":"MI","stateName":"Michigan","scale":1,"scaleLabel":"F1","lengthMiles":0,"deaths":0,"injuries":0}},{"type":"Feature","geometry":{"type":"Point","coordinates":[-83.55,42.15]},"properties":{"id":"ncei-1951-10039193","year":1951,"month":7,"state":"MI","stateName":"Michigan","scale":2,"scaleLabel":"F2","lengthMiles":0.5,"deaths":0,"injuries":0}},{"type":"Feature","geometry":{"type":"Point","coordinates":[-71.13,42.7]},"properties":{"id":"ncei-1951-10039198","year":1951,"month":8,"state":"MA","stateName":"Massachusetts","scale":2,"scaleLabel":"F2","lengthMiles":9.3,"deaths":0,"injuries":0}},{"type":"Feature","geometry":{"type":"Point","coordinates":[-70.53,41.37]},"properties":{"id":"ncei-1951-10039199","year":1951,"month":12,"state":"MA","stateName":"Massachusetts","scale":2,"scaleLabel":"F2","lengthMiles":0,"deaths":0,"injuries":0}},{"type":"Feature","geometry":{"type":"Point","coordinates":[-84.83,42.67]},"properties":{"id":"ncei-1951-10039407","year":1951,"month":8,"state":"MI","stateName":"Michigan","scale":1,"scaleLabel":"F1","lengthMiles":2.3,"deaths":0,"injuries":0}},{"type":"Feature","geometry":{"type":"Point","coordinates":[-83.22,43.18]},"properties":{"id":"ncei-1951-10039408","year":1951,"month":8,"state":"MI","stateName":"Michigan","scale":1,"scaleLabel":"F1","lengthMiles":0.2,"deaths":0,"injuries":0}},{"type":"Feature","geometry":{"type":"Point","coordinates":[-84.88,42.9]},"properties":{"id":"ncei-1951-10039409","year":1951,"month":8,"state":"MI","stateName":"Michigan","scale":2,"scaleLabel":"F2","lengthMiles":28.5,"deaths":0,"injuries":0}},{"type":"Feature","geometry":{"type":"Point","coordinates":[-85.87,43.78]},"properties":{"id":"ncei-1951-10039410","year":1951,"month":9,"state":"MI","stateName":"Michigan","scale":2,"scaleLabel":"F2","lengthMiles":2.3,"deaths":1,"injuries":3}},{"type":"Feature","geometry":{"type":"Point","coordinates":[-88.48,33.47]},"properties":{"id":"ncei-1951-10047276","year":1951,"month":2,"state":"MS","stateName":"Mississippi","scale":1,"scaleLabel":"F1","lengthMiles":0,"deaths":0,"injuries":0}},{"type":"Feature","geometry":{"type":"Point","coordinates":[-88.87,33.45]},"properties":{"id":"ncei-1951-10047277","year":1951,"month":2,"state":"MS","stateName":"Mississippi","scale":3,"scaleLabel":"F3","lengthMiles":0,"deaths":1,"injuries":1}},{"type":"Feature","geometry":{"type":"Point","coordinates":[-89.52,32.07]},"properties":{"id":"ncei-1951-10047278","year":1951,"month":4,"state":"MS","stateName":"Mississippi","scale":1,"scaleLabel":"F1","lengthMiles":0,"deaths":0,"injuries":0}},{"type":"Feature","geometry":{"type":"Point","coordinates":[-89.25,31.68]},"properties":{"id":"ncei-1951-10047279","year":1951,"month":4,"state":"MS","stateName":"Mississippi","scale":3,"scaleLabel":"F3","lengthMiles":8.8,"deaths":2,"injuries":10}},{"type":"Feature","geometry":{"type":"Point","coordinates":[-89.2,31.8]},"properties":{"id":"ncei-1951-10047280","year":1951,"month":4,"state":"MS","stateName":"Mississippi","scale":3,"scaleLabel":"F3","lengthMiles":24.7,"deaths":0,"injuries":6}},{"type":"Feature","geometry":{"type":"Point","coordinates":[-90.72,32.9]},"properties":{"id":"ncei-1951-10047281","year":1951,"month":6,"state":"MS","stateName":"Mississippi","scale":-1,"scaleLabel":"Unknown","lengthMiles":2,"deaths":0,"injuries":0}},{"type":"Feature","geometry":{"type":"Point","coordinates":[-88.43,33.5]},"properties":{"id":"ncei-1951-10047282","year":1951,"month":9,"state":"MS","stateName":"Mississippi","scale":2,"scaleLabel":"F2","lengthMiles":0.1,"deaths":0,"injuries":0}},{"type":"Feature","geometry":{"type":"Point","coordinates":[-90.8,32.17]},"properties":{"id":"ncei-1951-10047283","year":1951,"month":12,"state":"MS","stateName":"Mississippi","scale":-1,"scaleLabel":"Unknown","lengthMiles":0.5,"deaths":0,"injuries":0}},{"type":"Feature","geometry":{"type":"Point","coordinates":[-89.05,33.13]},"properties":{"id":"ncei-1951-10047284","year":1951,"month":12,"state":"MS","stateName":"Mississippi","scale":-1,"scaleLabel":"Unknown","lengthMiles":2,"deaths":0,"injuries":0}},{"type":"Feature","geometry":{"type":"Point","coordinates":[-94.37,44.88]},"properties":{"id":"ncei-1951-10052052","year":1951,"month":6,"state":"MN","stateName":"Minnesota","scale":4,"scaleLabel":"F4","lengthMiles":52.6,"deaths":0,"injuries":11}},{"type":"Feature","geometry":{"type":"Point","coordinates":[-93.38,45.2]},"properties":{"id":"ncei-1951-10052053","year":1951,"month":6,"state":"MN","stateName":"Minnesota","scale":4,"scaleLabel":"F4","lengthMiles":0,"deaths":1,"injuries":9}},{"type":"Feature","geometry":{"type":"Point","coordinates":[-94.77,43.57]},"properties":{"id":"ncei-1951-10052054","year":1951,"month":6,"state":"MN","stateName":"Minnesota","scale":2,"scaleLabel":"F2","lengthMiles":14.2,"deaths":0,"injuries":0}},{"type":"Feature","geometry":{"type":"Point","coordinates":[-93.5,44.93]},"properties":{"id":"ncei-1951-10052055","year":1951,"month":7,"state":"MN","stateName":"Minnesota","scale":3,"scaleLabel":"F3","lengthMiles":11.6,"deaths":5,"injuries":40}},{"type":"Feature","geometry":{"type":"Point","coordinates":[-95.17,40.4]},"properties":{"id":"ncei-1951-10063621","year":1951,"month":5,"state":"MO","stateName":"Missouri","scale":1,"scaleLabel":"F1","lengthMiles":0.2,"deaths":0,"injuries":0}},{"type":"Feature","geometry":{"type":"Point","coordinates":[-91.88,37.93]},"properties":{"id":"ncei-1951-10063622","year":1951,"month":6,"state":"MO","stateName":"Missouri","scale":1,"scaleLabel":"F1","lengthMiles":0,"deaths":0,"injuries":0}},{"type":"Feature","geometry":{"type":"Point","coordinates":[-94.47,37.15]},"properties":{"id":"ncei-1951-10063623","year":1951,"month":7,"state":"MO","stateName":"Missouri","scale":2,"scaleLabel":"F2","lengthMiles":0.1,"deaths":0,"injuries":1}},{"type":"Feature","geometry":{"type":"Point","coordinates":[-94.02,39.22]},"properties":{"id":"ncei-1951-10063624","year":1951,"month":7,"state":"MO","stateName":"Missouri","scale":2,"scaleLabel":"F2","lengthMiles":2.3,"deaths":0,"injuries":0}},{"type":"Feature","geometry":{"type":"Point","coordinates":[-91.7,36.55]},"properties":{"id":"ncei-1951-10063625","year":1951,"month":7,"state":"MO","stateName":"Missouri","scale":1,"scaleLabel":"F1","lengthMiles":2,"deaths":0,"injuries":0}},{"type":"Feature","geometry":{"type":"Point","coordinates":[-89.75,36.62]},"properties":{"id":"ncei-1951-10063626","year":1951,"month":11,"state":"MO","stateName":"Missouri","scale":3,"scaleLabel":"F3","lengthMiles":1,"deaths":0,"injuries":1}},{"type":"Feature","geometry":{"type":"Point","coordinates":[-98,41.08]},"properties":{"id":"ncei-1951-10073788","year":1951,"month":4,"state":"NE","stateName":"Nebraska","scale":1,"scaleLabel":"F1","lengthMiles":0.3,"deaths":0,"injuries":0}},{"type":"Feature","geometry":{"type":"Point","coordinates":[-99.93,41.58]},"properties":{"id":"ncei-1951-10073789","year":1951,"month":5,"state":"NE","stateName":"Nebraska","scale":0,"scaleLabel":"F0","lengthMiles":0,"deaths":0,"injuries":0}},{"type":"Feature","geometry":{"type":"Point","coordinates":[-103.5,41.9]},"properties":{"id":"ncei-1951-10073790","year":1951,"month":5,"state":"NE","stateName":"Nebraska","scale":2,"scaleLabel":"F2","lengthMiles":19.7,"deaths":0,"injuries":7}},{"type":"Feature","geometry":{"type":"Point","coordinates":[-101.55,40.47]},"properties":{"id":"ncei-1951-10073791","year":1951,"month":5,"state":"NE","stateName":"Nebraska","scale":1,"scaleLabel":"F1","lengthMiles":2,"deaths":0,"injuries":0}},{"type":"Feature","geometry":{"type":"Point","coordinates":[-103.88,42.95]},"properties":{"id":"ncei-1951-10073792","year":1951,"month":6,"state":"NE","stateName":"Nebraska","scale":1,"scaleLabel":"F1","lengthMiles":4.7,"deaths":0,"injuries":0}},{"type":"Feature","geometry":{"type":"Point","coordinates":[-103.05,41.1]},"properties":{"id":"ncei-1951-10073793","year":1951,"month":6,"state":"NE","stateName":"Nebraska","scale":2,"scaleLabel":"F2","lengthMiles":10.4,"deaths":0,"injuries":1}},{"type":"Feature","geometry":{"type":"Point","coordinates":[-101.55,40.85]},"properties":{"id":"ncei-1951-10073794","year":1951,"month":7,"state":"NE","stateName":"Nebraska","scale":0,"scaleLabel":"F0","lengthMiles":5.1,"deaths":0,"injuries":0}},{"type":"Feature","geometry":{"type":"Point","coordinates":[-102.58,41.23]},"properties":{"id":"ncei-1951-10073795","year":1951,"month":7,"state":"NE","stateName":"Nebraska","scale":0,"scaleLabel":"F0","lengthMiles":0,"deaths":0,"injuries":0}},{"type":"Feature","geometry":{"type":"Point","coordinates":[-103.25,41.75]},"properties":{"id":"ncei-1951-10073796","year":1951,"month":8,"state":"NE","stateName":"Nebraska","scale":1,"scaleLabel":"F1","lengthMiles":0,"deaths":0,"injuries":0}},{"type":"Feature","geometry":{"type":"Point","coordinates":[-78.33,36]},"properties":{"id":"ncei-1951-10077699","year":1951,"month":6,"state":"NC","stateName":"North Carolina","scale":1,"scaleLabel":"F1","lengthMiles":3.8,"deaths":0,"injuries":0}},{"type":"Feature","geometry":{"type":"Point","coordinates":[-77.53,34.4]},"properties":{"id":"ncei-1951-10077700","year":1951,"month":6,"state":"NC","stateName":"North Carolina","scale":1,"scaleLabel":"F1","lengthMiles":1,"deaths":0,"injuries":0}},{"type":"Feature","geometry":{"type":"Point","coordinates":[-78.23,33.92]},"properties":{"id":"ncei-1951-10077701","year":1951,"month":7,"state":"NC","stateName":"North Carolina","scale":1,"scaleLabel":"F1","lengthMiles":0,"deaths":0,"injuries":0}},{"type":"Feature","geometry":{"type":"Point","coordinates":[-81.33,35.75]},"properties":{"id":"ncei-1951-10077702","year":1951,"month":8,"state":"NC","stateName":"North Carolina","scale":2,"scaleLabel":"F2","lengthMiles":0.5,"deaths":0,"injuries":0}},{"type":"Feature","geometry":{"type":"Point","coordinates":[-104.8,33.1]},"properties":{"id":"ncei-1951-10080565","year":1951,"month":6,"state":"NM","stateName":"New Mexico","scale":0,"scaleLabel":"F0","lengthMiles":2,"deaths":0,"injuries":0}},{"type":"Feature","geometry":{"type":"Point","coordinates":[-103.95,36.67]},"properties":{"id":"ncei-1951-10080566","year":1951,"month":8,"state":"NM","stateName":"New Mexico","scale":0,"scaleLabel":"F0","lengthMiles":12.2,"deaths":0,"injuries":0}},{"type":"Feature","geometry":{"type":"Point","coordinates":[-71.13,42.83]},"properties":{"id":"ncei-1951-10081383","year":1951,"month":8,"state":"NH","stateName":"New Hampshire","scale":2,"scaleLabel":"F2","lengthMiles":4.9,"deaths":0,"injuries":0}},{"type":"Feature","geometry":{"type":"Point","coordinates":[-74.6,40.9]},"properties":{"id":"ncei-1951-10082587","year":1951,"month":4,"state":"NJ","stateName":"New Jersey","scale":1,"scaleLabel":"F1","lengthMiles":0.5,"deaths":0,"injuries":2}},{"type":"Feature","geometry":{"type":"Point","coordinates":[-83.67,41]},"properties":{"id":"ncei-1951-10086811","year":1951,"month":4,"state":"OH","stateName":"Ohio","scale":2,"scaleLabel":"F2","lengthMiles":15.2,"deaths":0,"injuries":5}},{"type":"Feature","geometry":{"type":"Point","coordinates":[-81.85,41.42]},"properties":{"id":"ncei-1951-10086812","year":1951,"month":6,"state":"OH","stateName":"Ohio","scale":2,"scaleLabel":"F2","lengthMiles":1,"deaths":0,"injuries":0}},{"type":"Feature","geometry":{"type":"Point","coordinates":[-84.58,39.5]},"properties":{"id":"ncei-1951-10086813","year":1951,"month":6,"state":"OH","stateName":"Ohio","scale":1,"scaleLabel":"F1","lengthMiles":4.7,"deaths":0,"injuries":0}},{"type":"Feature","geometry":{"type":"Point","coordinates":[-100.45,46.77]},"properties":{"id":"ncei-1951-10089657","year":1951,"month":6,"state":"ND","stateName":"North Dakota","scale":-1,"scaleLabel":"Unknown","lengthMiles":0,"deaths":0,"injuries":0}},{"type":"Feature","geometry":{"type":"Point","coordinates":[-102.25,46.38]},"properties":{"id":"ncei-1951-10089658","year":1951,"month":8,"state":"ND","stateName":"North Dakota","scale":1,"scaleLabel":"F1","lengthMiles":0,"deaths":0,"injuries":0}},{"type":"Feature","geometry":{"type":"Point","coordinates":[-98.18,35.27]},"properties":{"id":"ncei-1951-10099493","year":1951,"month":2,"state":"OK","stateName":"Oklahoma","scale":2,"scaleLabel":"F2","lengthMiles":7.6,"deaths":0,"injuries":5}},{"type":"Feature","geometry":{"type":"Point","coordinates":[-98.13,35.37]},"properties":{"id":"ncei-1951-10099704","year":1951,"month":2,"state":"OK","stateName":"Oklahoma","scale":2,"scaleLabel":"F2","lengthMiles":36.3,"deaths":0,"injuries":0}},{"type":"Feature","geometry":{"type":"Point","coordinates":[-97.45,35.15]},"properties":{"id":"ncei-1951-10099705","year":1951,"month":2,"state":"OK","stateName":"Oklahoma","scale":0,"scaleLabel":"F0","lengthMiles":0,"deaths":0,"injuries":0}},{"type":"Feature","geometry":{"type":"Point","coordinates":[-97.55,35.32]},"properties":{"id":"ncei-1951-10099706","year":1951,"month":4,"state":"OK","stateName":"Oklahoma","scale":2,"scaleLabel":"F2","lengthMiles":5.7,"deaths":0,"injuries":0}},{"type":"Feature","geometry":{"type":"Point","coordinates":[-97.72,35.23]},"properties":{"id":"ncei-1951-10099707","year":1951,"month":4,"state":"OK","stateName":"Oklahoma","scale":2,"scaleLabel":"F2","lengthMiles":0.2,"deaths":0,"injuries":2}},{"type":"Feature","geometry":{"type":"Point","coordinates":[-98.92,36.53]},"properties":{"id":"ncei-1951-10099708","year":1951,"month":4,"state":"OK","stateName":"Oklahoma","scale":2,"scaleLabel":"F2","lengthMiles":3.6,"deaths":0,"injuries":2}},{"type":"Feature","geometry":{"type":"Point","coordinates":[-99,35.78]},"properties":{"id":"ncei-1951-10099709","year":1951,"month":4,"state":"OK","stateName":"Oklahoma","scale":0,"scaleLabel":"F0","lengthMiles":0,"deaths":0,"injuries":0}},{"type":"Feature","geometry":{"type":"Point","coordinates":[-99.6,34.63]},"properties":{"id":"ncei-1951-10099710","year":1951,"month":4,"state":"OK","stateName":"Oklahoma","scale":1,"scaleLabel":"F1","lengthMiles":2.5,"deaths":0,"injuries":0}},{"type":"Feature","geometry":{"type":"Point","coordinates":[-97.4,36.75]},"properties":{"id":"ncei-1951-10099711","year":1951,"month":4,"state":"OK","stateName":"Oklahoma","scale":1,"scaleLabel":"F1","lengthMiles":0,"deaths":0,"injuries":0}},{"type":"Feature","geometry":{"type":"Point","coordinates":[-100.53,36.82]},"properties":{"id":"ncei-1951-10099712","year":1951,"month":4,"state":"OK","stateName":"Oklahoma","scale":1,"scaleLabel":"F1","lengthMiles":0,"deaths":0,"injuries":0}},{"type":"Feature","geometry":{"type":"Point","coordinates":[-98.2,36.33]},"properties":{"id":"ncei-1951-10099713","year":1951,"month":4,"state":"OK","stateName":"Oklahoma","scale":1,"scaleLabel":"F1","lengthMiles":0.8,"deaths":0,"injuries":2}},{"type":"Feature","geometry":{"type":"Point","coordinates":[-98.08,34.62]},"properties":{"id":"ncei-1951-10099714","year":1951,"month":4,"state":"OK","stateName":"Oklahoma","scale":1,"scaleLabel":"F1","lengthMiles":0,"deaths":0,"injuries":0}},{"type":"Feature","geometry":{"type":"Point","coordinates":[-97.58,35.5]},"properties":{"id":"ncei-1951-10099715","year":1951,"month":4,"state":"OK","stateName":"Oklahoma","scale":2,"scaleLabel":"F2","lengthMiles":1.5,"deaths":0,"injuries":0}},{"type":"Feature","geometry":{"type":"Point","coordinates":[-97.58,35.43]},"properties":{"id":"ncei-1951-10099716","year":1951,"month":4,"state":"OK","stateName":"Oklahoma","scale":3,"scaleLabel":"F3","lengthMiles":7.4,"deaths":0,"injuries":0}},{"type":"Feature","geometry":{"type":"Point","coordinates":[-98.32,34.45]},"properties":{"id":"ncei-1951-10099717","year":1951,"month":5,"state":"OK","stateName":"Oklahoma","scale":1,"scaleLabel":"F1","lengthMiles":0,"deaths":0,"injuries":0}},{"type":"Feature","geometry":{"type":"Point","coordinates":[-96.6,34]},"properties":{"id":"ncei-1951-10099718","year":1951,"month":5,"state":"OK","stateName":"Oklahoma","scale":2,"scaleLabel":"F2","lengthMiles":9.4,"deaths":0,"injuries":0}},{"type":"Feature","geometry":{"type":"Point","coordinates":[-96.52,34.12]},"properties":{"id":"ncei-1951-10099719","year":1951,"month":5,"state":"OK","stateName":"Oklahoma","scale":2,"scaleLabel":"F2","lengthMiles":5.4,"deaths":0,"injuries":1}},{"type":"Feature","geometry":{"type":"Point","coordinates":[-101.9,36.9]},"properties":{"id":"ncei-1951-10099720","year":1951,"month":5,"state":"OK","stateName":"Oklahoma","scale":2,"scaleLabel":"F2","lengthMiles":0,"deaths":0,"injuries":0}},{"type":"Feature","geometry":{"type":"Point","coordinates":[-101.9,36.87]},"properties":{"id":"ncei-1951-10099721","year":1951,"month":5,"state":"OK","stateName":"Oklahoma","scale":2,"scaleLabel":"F2","lengthMiles":0,"deaths":0,"injuries":0}},{"type":"Feature","geometry":{"type":"Point","coordinates":[-99.87,35.2]},"properties":{"id":"ncei-1951-10099722","year":1951,"month":5,"state":"OK","stateName":"Oklahoma","scale":0,"scaleLabel":"F0","lengthMiles":0,"deaths":0,"injuries":0}},{"type":"Feature","geometry":{"type":"Point","coordinates":[-98.28,34.78]},"properties":{"id":"ncei-1951-10099723","year":1951,"month":5,"state":"OK","stateName":"Oklahoma","scale":1,"scaleLabel":"F1","lengthMiles":0,"deaths":0,"injuries":0}},{"type":"Feature","geometry":{"type":"Point","coordinates":[-98.27,34.78]},"properties":{"id":"ncei-1951-10099724","year":1951,"month":5,"state":"OK","stateName":"Oklahoma","scale":1,"scaleLabel":"F1","lengthMiles":0,"deaths":0,"injuries":0}},{"type":"Feature","geometry":{"type":"Point","coordinates":[-98.23,34.78]},"properties":{"id":"ncei-1951-10099725","year":1951,"month":5,"state":"OK","stateName":"Oklahoma","scale":1,"scaleLabel":"F1","lengthMiles":0,"deaths":0,"injuries":0}},{"type":"Feature","geometry":{"type":"Point","coordinates":[-99.87,35.33]},"properties":{"id":"ncei-1951-10099726","year":1951,"month":5,"state":"OK","stateName":"Oklahoma","scale":1,"scaleLabel":"F1","lengthMiles":0,"deaths":0,"injuries":0}},{"type":"Feature","geometry":{"type":"Point","coordinates":[-98.95,36]},"properties":{"id":"ncei-1951-10099727","year":1951,"month":5,"state":"OK","stateName":"Oklahoma","scale":2,"scaleLabel":"F2","lengthMiles":2,"deaths":0,"injuries":0}},{"type":"Feature","geometry":{"type":"Point","coordinates":[-99.63,35.43]},"properties":{"id":"ncei-1951-10099728","year":1951,"month":5,"state":"OK","stateName":"Oklahoma","scale":0,"scaleLabel":"F0","lengthMiles":0,"deaths":0,"injuries":0}},{"type":"Feature","geometry":{"type":"Point","coordinates":[-101.8,36.53]},"properties":{"id":"ncei-1951-10099729","year":1951,"month":6,"state":"OK","stateName":"Oklahoma","scale":2,"scaleLabel":"F2","lengthMiles":0,"deaths":0,"injuries":0}},{"type":"Feature","geometry":{"type":"Point","coordinates":[-99.47,34.83]},"properties":{"id":"ncei-1951-10099730","year":1951,"month":6,"state":"OK","stateName":"Oklahoma","scale":0,"scaleLabel":"F0","lengthMiles":0.2,"deaths":0,"injuries":0}},{"type":"Feature","geometry":{"type":"Point","coordinates":[-97.7,34.7]},"properties":{"id":"ncei-1951-10099731","year":1951,"month":6,"state":"OK","stateName":"Oklahoma","scale":2,"scaleLabel":"F2","lengthMiles":3.8,"deaths":0,"injuries":0}},{"type":"Feature","geometry":{"type":"Point","coordinates":[-99,34.5]},"properties":{"id":"ncei-1951-10099732","year":1951,"month":6,"state":"OK","stateName":"Oklahoma","scale":2,"scaleLabel":"F2","lengthMiles":0.5,"deaths":0,"injuries":0}},{"type":"Feature","geometry":{"type":"Point","coordinates":[-95.75,36.45]},"properties":{"id":"ncei-1951-10099733","year":1951,"month":6,"state":"OK","stateName":"Oklahoma","scale":1,"scaleLabel":"F1","lengthMiles":5.7,"deaths":0,"injuries":1}},{"type":"Feature","geometry":{"type":"Point","coordinates":[-95.27,35.57]},"properties":{"id":"ncei-1951-10099734","year":1951,"month":6,"state":"OK","stateName":"Oklahoma","scale":2,"scaleLabel":"F2","lengthMiles":0,"deaths":0,"injuries":1}},{"type":"Feature","geometry":{"type":"Point","coordinates":[-98.8,35.38]},"properties":{"id":"ncei-1951-10099735","year":1951,"month":6,"state":"OK","stateName":"Oklahoma","scale":3,"scaleLabel":"F3","lengthMiles":10.9,"deaths":0,"injuries":0}},{"type":"Feature","geometry":{"type":"Point","coordinates":[-97.33,36.67]},"properties":{"id":"ncei-1951-10099736","year":1951,"month":6,"state":"OK","stateName":"Oklahoma","scale":1,"scaleLabel":"F1","lengthMiles":0.3,"deaths":0,"injuries":0}},{"type":"Feature","geometry":{"type":"Point","coordinates":[-98.72,34.37]},"properties":{"id":"ncei-1951-10099737","year":1951,"month":6,"state":"OK","stateName":"Oklahoma","scale":1,"scaleLabel":"F1","lengthMiles":0,"deaths":0,"injuries":0}},{"type":"Feature","geometry":{"type":"Point","coordinates":[-98.18,36.3]},"properties":{"id":"ncei-1951-10099738","year":1951,"month":6,"state":"OK","stateName":"Oklahoma","scale":1,"scaleLabel":"F1","lengthMiles":0,"deaths":0,"injuries":0}},{"type":"Feature","geometry":{"type":"Point","coordinates":[-102.78,36.63]},"properties":{"id":"ncei-1951-10099739","year":1951,"month":6,"state":"OK","stateName":"Oklahoma","scale":1,"scaleLabel":"F1","lengthMiles":4.3,"deaths":0,"injuries":0}},{"type":"Feature","geometry":{"type":"Point","coordinates":[-94.8,34.8]},"properties":{"id":"ncei-1951-10099740","year":1951,"month":7,"state":"OK","stateName":"Oklahoma","scale":0,"scaleLabel":"F0","lengthMiles":0,"deaths":0,"injuries":0}},{"type":"Feature","geometry":{"type":"Point","coordinates":[-94.8,34.8]},"properties":{"id":"ncei-1951-10099741","year":1951,"month":7,"state":"OK","stateName":"Oklahoma","scale":0,"scaleLabel":"F0","lengthMiles":0,"deaths":0,"injuries":0}},{"type":"Feature","geometry":{"type":"Point","coordinates":[-94.8,34.8]},"properties":{"id":"ncei-1951-10099742","year":1951,"month":7,"state":"OK","stateName":"Oklahoma","scale":2,"scaleLabel":"F2","lengthMiles":0,"deaths":0,"injuries":0}},{"type":"Feature","geometry":{"type":"Point","coordinates":[-99.8,36.13]},"properties":{"id":"ncei-1951-10099743","year":1951,"month":7,"state":"OK","stateName":"Oklahoma","scale":1,"scaleLabel":"F1","lengthMiles":0,"deaths":0,"injuries":0}},{"type":"Feature","geometry":{"type":"Point","coordinates":[-97.2,35.8]},"properties":{"id":"ncei-1951-10099744","year":1951,"month":8,"state":"OK","stateName":"Oklahoma","scale":1,"scaleLabel":"F1","lengthMiles":5.9,"deaths":0,"injuries":2}},{"type":"Feature","geometry":{"type":"Point","coordinates":[-98.67,36.73]},"properties":{"id":"ncei-1951-10099745","year":1951,"month":8,"state":"OK","stateName":"Oklahoma","scale":1,"scaleLabel":"F1","lengthMiles":0.5,"deaths":0,"injuries":0}},{"type":"Feature","geometry":{"type":"Point","coordinates":[-95.02,36.62]},"properties":{"id":"ncei-1951-10099746","year":1951,"month":9,"state":"OK","stateName":"Oklahoma","scale":2,"scaleLabel":"F2","lengthMiles":2,"deaths":0,"injuries":0}},{"type":"Feature","geometry":{"type":"Point","coordinates":[-97.07,36.53]},"properties":{"id":"ncei-1951-10099747","year":1951,"month":10,"state":"OK","stateName":"Oklahoma","scale":1,"scaleLabel":"F1","lengthMiles":2,"deaths":0,"injuries":0}},{"type":"Feature","geometry":{"type":"Point","coordinates":[-77.23,39.83]},"properties":{"id":"ncei-1951-10104933","year":1951,"month":3,"state":"PA","stateName":"Pennsylvania","scale":1,"scaleLabel":"F1","lengthMiles":0.1,"deaths":0,"injuries":0}},{"type":"Feature","geometry":{"type":"Point","coordinates":[-79.12,40.12]},"properties":{"id":"ncei-1951-10104934","year":1951,"month":5,"state":"PA","stateName":"Pennsylvania","scale":2,"scaleLabel":"F2","lengthMiles":8,"deaths":0,"injuries":1}},{"type":"Feature","geometry":{"type":"Point","coordinates":[-79.25,40.58]},"properties":{"id":"ncei-1951-10104935","year":1951,"month":6,"state":"PA","stateName":"Pennsylvania","scale":2,"scaleLabel":"F2","lengthMiles":19.7,"deaths":0,"injuries":0}},{"type":"Feature","geometry":{"type":"Point","coordinates":[-76.47,41.8]},"properties":{"id":"ncei-1951-10104936","year":1951,"month":7,"state":"PA","stateName":"Pennsylvania","scale":0,"scaleLabel":"F0","lengthMiles":0.1,"deaths":0,"injuries":0}},{"type":"Feature","geometry":{"type":"Point","coordinates":[-123.23,44.18]},"properties":{"id":"ncei-1951-10105002","year":1951,"month":12,"state":"OR","stateName":"Oregon","scale":1,"scaleLabel":"F1","lengthMiles":0.3,"deaths":0,"injuries":0}},{"type":"Feature","geometry":{"type":"Point","coordinates":[-96.83,45.37]},"properties":{"id":"ncei-1951-10110747","year":1951,"month":7,"state":"SD","stateName":"South Dakota","scale":2,"scaleLabel":"F2","lengthMiles":0,"deaths":0,"injuries":1}},{"type":"Feature","geometry":{"type":"Point","coordinates":[-96.08,44.9]},"properties":{"id":"ncei-1951-10110748","year":1951,"month":7,"state":"SD","stateName":"South Dakota","scale":2,"scaleLabel":"F2","lengthMiles":1,"deaths":0,"injuries":4}},{"type":"Feature","geometry":{"type":"Point","coordinates":[-81.13,33.32]},"properties":{"id":"ncei-1951-10117454","year":1951,"month":6,"state":"SC","stateName":"South Carolina","scale":1,"scaleLabel":"F1","lengthMiles":0,"deaths":0,"injuries":0}},{"type":"Feature","geometry":{"type":"Point","coordinates":[-95.6,31.37]},"properties":{"id":"ncei-1951-10120421","year":1951,"month":3,"state":"TX","stateName":"Texas","scale":1,"scaleLabel":"F1","lengthMiles":0.5,"deaths":0,"injuries":0}},{"type":"Feature","geometry":{"type":"Point","coordinates":[-98.45,33.92]},"properties":{"id":"ncei-1951-10120422","year":1951,"month":4,"state":"TX","stateName":"Texas","scale":2,"scaleLabel":"F2","lengthMiles":1.5,"deaths":0,"injuries":0}},{"type":"Feature","geometry":{"type":"Point","coordinates":[-98.68,33.93]},"properties":{"id":"ncei-1951-10120423","year":1951,"month":5,"state":"TX","stateName":"Texas","scale":2,"scaleLabel":"F2","lengthMiles":4.9,"deaths":0,"injuries":0}},{"type":"Feature","geometry":{"type":"Point","coordinates":[-102.3,34.5]},"properties":{"id":"ncei-1951-10120424","year":1951,"month":5,"state":"TX","stateName":"Texas","scale":1,"scaleLabel":"F1","lengthMiles":0,"deaths":0,"injuries":0}},{"type":"Feature","geometry":{"type":"Point","coordinates":[-98.75,33.42]},"properties":{"id":"ncei-1951-10120425","year":1951,"month":5,"state":"TX","stateName":"Texas","scale":4,"scaleLabel":"F4","lengthMiles":2,"deaths":2,"injuries":100}},{"type":"Feature","geometry":{"type":"Point","coordinates":[-99.9,33.37]},"properties":{"id":"ncei-1951-10120426","year":1951,"month":5,"state":"TX","stateName":"Texas","scale":1,"scaleLabel":"F1","lengthMiles":0.5,"deaths":1,"injuries":0}},{"type":"Feature","geometry":{"type":"Point","coordinates":[-101.38,35.77]},"properties":{"id":"ncei-1951-10123403","year":1951,"month":5,"state":"TX","stateName":"Texas","scale":1,"scaleLabel":"F1","lengthMiles":0.5,"deaths":0,"injuries":0}},{"type":"Feature","geometry":{"type":"Point","coordinates":[-101.82,35.23]},"properties":{"id":"ncei-1951-10123404","year":1951,"month":6,"state":"TX","stateName":"Texas","scale":-1,"scaleLabel":"Unknown","lengthMiles":0,"deaths":0,"injuries":0}},{"type":"Feature","geometry":{"type":"Point","coordinates":[-101.47,35.62]},"properties":{"id":"ncei-1951-10123405","year":1951,"month":6,"state":"TX","stateName":"Texas","scale":-1,"scaleLabel":"Unknown","lengthMiles":0,"deaths":0,"injuries":0}},{"type":"Feature","geometry":{"type":"Point","coordinates":[-101.18,35.43]},"properties":{"id":"ncei-1951-10123406","year":1951,"month":6,"state":"TX","stateName":"Texas","scale":3,"scaleLabel":"F3","lengthMiles":10.4,"deaths":0,"injuries":12}},{"type":"Feature","geometry":{"type":"Point","coordinates":[-100.97,35.55]},"properties":{"id":"ncei-1951-10123407","year":1951,"month":6,"state":"TX","stateName":"Texas","scale":0,"scaleLabel":"F0","lengthMiles":0,"deaths":0,"injuries":0}},{"type":"Feature","geometry":{"type":"Point","coordinates":[-100.2,34.43]},"properties":{"id":"ncei-1951-10123408","year":1951,"month":6,"state":"TX","stateName":"Texas","scale":2,"scaleLabel":"F2","lengthMiles":3.6,"deaths":0,"injuries":0}},{"type":"Feature","geometry":{"type":"Point","coordinates":[-100.02,32.45]},"properties":{"id":"ncei-1951-10123409","year":1951,"month":6,"state":"TX","stateName":"Texas","scale":1,"scaleLabel":"F1","lengthMiles":4.9,"deaths":0,"injuries":6}},{"type":"Feature","geometry":{"type":"Point","coordinates":[-97.42,32.45]},"properties":{"id":"ncei-1951-10123410","year":1951,"month":6,"state":"TX","stateName":"Texas","scale":2,"scaleLabel":"F2","lengthMiles":14.5,"deaths":0,"injuries":0}},{"type":"Feature","geometry":{"type":"Point","coordinates":[-102.12,34.18]},"properties":{"id":"ncei-1951-10123411","year":1951,"month":7,"state":"TX","stateName":"Texas","scale":2,"scaleLabel":"F2","lengthMiles":1,"deaths":0,"injuries":0}},{"type":"Feature","geometry":{"type":"Point","coordinates":[-87.03,35.22]},"properties":{"id":"ncei-1951-10126029","year":1951,"month":11,"state":"TN","stateName":"Tennessee","scale":2,"scaleLabel":"F2","lengthMiles":0.2,"deaths":0,"injuries":0}},{"type":"Feature","geometry":{"type":"Point","coordinates":[-88.5,43.62]},"properties":{"id":"ncei-1951-10146807","year":1951,"month":6,"state":"WI","stateName":"Wisconsin","scale":2,"scaleLabel":"F2","lengthMiles":1,"deaths":0,"injuries":0}},{"type":"Feature","geometry":{"type":"Point","coordinates":[-90.23,43.48]},"properties":{"id":"ncei-1951-10146808","year":1951,"month":7,"state":"WI","stateName":"Wisconsin","scale":2,"scaleLabel":"F2","lengthMiles":0.5,"deaths":0,"injuries":0}},{"type":"Feature","geometry":{"type":"Point","coordinates":[-92.08,44.63]},"properties":{"id":"ncei-1951-10146809","year":1951,"month":9,"state":"WI","stateName":"Wisconsin","scale":3,"scaleLabel":"F3","lengthMiles":3.3,"deaths":0,"injuries":0}},{"type":"Feature","geometry":{"type":"Point","coordinates":[-92.03,44.68]},"properties":{"id":"ncei-1951-10146810","year":1951,"month":9,"state":"WI","stateName":"Wisconsin","scale":3,"scaleLabel":"F3","lengthMiles":21.1,"deaths":0,"injuries":1}},{"type":"Feature","geometry":{"type":"Point","coordinates":[-89.3,44.33]},"properties":{"id":"ncei-1951-10146811","year":1951,"month":9,"state":"WI","stateName":"Wisconsin","scale":4,"scaleLabel":"F4","lengthMiles":4.1,"deaths":0,"injuries":0}},{"type":"Feature","geometry":{"type":"Point","coordinates":[-89.22,44.37]},"properties":{"id":"ncei-1951-10146812","year":1951,"month":9,"state":"WI","stateName":"Wisconsin","scale":4,"scaleLabel":"F4","lengthMiles":22.3,"deaths":6,"injuries":3}},{"type":"Feature","geometry":{"type":"Point","coordinates":[-89.25,43.47]},"properties":{"id":"ncei-1951-10146813","year":1951,"month":9,"state":"WI","stateName":"Wisconsin","scale":4,"scaleLabel":"F4","lengthMiles":9,"deaths":1,"injuries":9}},{"type":"Feature","geometry":{"type":"Point","coordinates":[-81.7,39.13]},"properties":{"id":"ncei-1951-10147654","year":1951,"month":6,"state":"WV","stateName":"West Virginia","scale":1,"scaleLabel":"F1","lengthMiles":0,"deaths":0,"injuries":1}},{"type":"Feature","geometry":{"type":"Point","coordinates":[-78.78,37.37]},"properties":{"id":"ncei-1951-10153059","year":1951,"month":2,"state":"VA","stateName":"Virginia","scale":1,"scaleLabel":"F1","lengthMiles":0.1,"deaths":0,"injuries":0}},{"type":"Feature","geometry":{"type":"Point","coordinates":[-76.73,37.55]},"properties":{"id":"ncei-1951-10153060","year":1951,"month":5,"state":"VA","stateName":"Virginia","scale":1,"scaleLabel":"F1","lengthMiles":0,"deaths":0,"injuries":0}},{"type":"Feature","geometry":{"type":"Point","coordinates":[-77.48,37.55]},"properties":{"id":"ncei-1951-10153061","year":1951,"month":6,"state":"VA","stateName":"Virginia","scale":2,"scaleLabel":"F2","lengthMiles":4.1,"deaths":0,"injuries":12}},{"type":"Feature","geometry":{"type":"Point","coordinates":[-76.53,37.12]},"properties":{"id":"ncei-1951-10153062","year":1951,"month":6,"state":"VA","stateName":"Virginia","scale":1,"scaleLabel":"F1","lengthMiles":0,"deaths":0,"injuries":0}},{"type":"Feature","geometry":{"type":"Point","coordinates":[-76.52,37.22]},"properties":{"id":"ncei-1951-10153063","year":1951,"month":11,"state":"VA","stateName":"Virginia","scale":1,"scaleLabel":"F1","lengthMiles":0,"deaths":0,"injuries":0}},{"type":"Feature","geometry":{"type":"Point","coordinates":[-87.7,33.67]},"properties":{"id":"ncei-1951-9979424","year":1951,"month":2,"state":"AL","stateName":"Alabama","scale":2,"scaleLabel":"F2","lengthMiles":0.1,"deaths":0,"injuries":2}},{"type":"Feature","geometry":{"type":"Point","coordinates":[-86.43,34.97]},"properties":{"id":"ncei-1951-9979425","year":1951,"month":6,"state":"AL","stateName":"Alabama","scale":2,"scaleLabel":"F2","lengthMiles":0,"deaths":0,"injuries":2}},{"type":"Feature","geometry":{"type":"Point","coordinates":[-86.7,34.2]},"properties":{"id":"ncei-1951-9979426","year":1951,"month":11,"state":"AL","stateName":"Alabama","scale":2,"scaleLabel":"F2","lengthMiles":0,"deaths":0,"injuries":2}},{"type":"Feature","geometry":{"type":"Point","coordinates":[-87.8,34.83]},"properties":{"id":"ncei-1951-9979427","year":1951,"month":11,"state":"AL","stateName":"Alabama","scale":2,"scaleLabel":"F2","lengthMiles":1.5,"deaths":0,"injuries":6}},{"type":"Feature","geometry":{"type":"Point","coordinates":[-86.52,34.08]},"properties":{"id":"ncei-1951-9979428","year":1951,"month":11,"state":"AL","stateName":"Alabama","scale":2,"scaleLabel":"F2","lengthMiles":1.5,"deaths":0,"injuries":1}},{"type":"Feature","geometry":{"type":"Point","coordinates":[-92.02,34.6]},"properties":{"id":"ncei-1951-9983006","year":1951,"month":2,"state":"AR","stateName":"Arkansas","scale":2,"scaleLabel":"F2","lengthMiles":20.2,"deaths":0,"injuries":3}},{"type":"Feature","geometry":{"type":"Point","coordinates":[-91.7,34.73]},"properties":{"id":"ncei-1951-9983007","year":1951,"month":2,"state":"AR","stateName":"Arkansas","scale":2,"scaleLabel":"F2","lengthMiles":92.6,"deaths":0,"injuries":0}},{"type":"Feature","geometry":{"type":"Point","coordinates":[-93.5,35]},"properties":{"id":"ncei-1951-9983008","year":1951,"month":10,"state":"AR","stateName":"Arkansas","scale":2,"scaleLabel":"F2","lengthMiles":0,"deaths":0,"injuries":4}},{"type":"Feature","geometry":{"type":"Point","coordinates":[-82.48,27.1]},"properties":{"id":"ncei-1951-9985760","year":1951,"month":3,"state":"FL","stateName":"Florida","scale":2,"scaleLabel":"F2","lengthMiles":2,"deaths":0,"injuries":0}},{"type":"Feature","geometry":{"type":"Point","coordinates":[-84.68,29.85]},"properties":{"id":"ncei-1951-9985761","year":1951,"month":5,"state":"FL","stateName":"Florida","scale":1,"scaleLabel":"F1","lengthMiles":0,"deaths":3,"injuries":0}},{"type":"Feature","geometry":{"type":"Point","coordinates":[-82.63,30.18]},"properties":{"id":"ncei-1951-9985762","year":1951,"month":5,"state":"FL","stateName":"Florida","scale":-1,"scaleLabel":"Unknown","lengthMiles":0,"deaths":0,"injuries":0}},{"type":"Feature","geometry":{"type":"Point","coordinates":[-82.43,27.73]},"properties":{"id":"ncei-1951-9985763","year":1951,"month":7,"state":"FL","stateName":"Florida","scale":2,"scaleLabel":"F2","lengthMiles":0,"deaths":0,"injuries":0}},{"type":"Feature","geometry":{"type":"Point","coordinates":[-82.03,28.12]},"properties":{"id":"ncei-1951-9985764","year":1951,"month":12,"state":"FL","stateName":"Florida","scale":1,"scaleLabel":"F1","lengthMiles":0,"deaths":0,"injuries":0}},{"type":"Feature","geometry":{"type":"Point","coordinates":[-81.75,30.35]},"properties":{"id":"ncei-1951-9985765","year":1951,"month":12,"state":"FL","stateName":"Florida","scale":1,"scaleLabel":"F1","lengthMiles":0.5,"deaths":0,"injuries":0}},{"type":"Feature","geometry":{"type":"Point","coordinates":[-81.8,27.75]},"properties":{"id":"ncei-1951-9985766","year":1951,"month":12,"state":"FL","stateName":"Florida","scale":2,"scaleLabel":"F2","lengthMiles":0,"deaths":0,"injuries":0}},{"type":"Feature","geometry":{"type":"Point","coordinates":[-82.63,27.77]},"properties":{"id":"ncei-1951-9985767","year":1951,"month":12,"state":"FL","stateName":"Florida","scale":1,"scaleLabel":"F1","lengthMiles":2.8,"deaths":0,"injuries":0}},{"type":"Feature","geometry":{"type":"Point","coordinates":[-81.53,27.78]},"properties":{"id":"ncei-1951-9985768","year":1951,"month":12,"state":"FL","stateName":"Florida","scale":2,"scaleLabel":"F2","lengthMiles":0,"deaths":0,"injuries":0}},{"type":"Feature","geometry":{"type":"Point","coordinates":[-72.25,41.87]},"properties":{"id":"ncei-1951-9986150","year":1951,"month":8,"state":"CT","stateName":"Connecticut","scale":2,"scaleLabel":"F2","lengthMiles":0,"deaths":0,"injuries":0}},{"type":"Feature","geometry":{"type":"Point","coordinates":[-73.42,41.62]},"properties":{"id":"ncei-1951-9986151","year":1951,"month":8,"state":"CT","stateName":"Connecticut","scale":2,"scaleLabel":"F2","lengthMiles":43.9,"deaths":0,"injuries":9}},{"type":"Feature","geometry":{"type":"Point","coordinates":[-72.5,41.58]},"properties":{"id":"ncei-1951-9986152","year":1951,"month":8,"state":"CT","stateName":"Connecticut","scale":3,"scaleLabel":"F3","lengthMiles":0,"deaths":0,"injuries":8}},{"type":"Feature","geometry":{"type":"Point","coordinates":[-122.12,37.37]},"properties":{"id":"ncei-1951-9990145","year":1951,"month":1,"state":"CA","stateName":"California","scale":2,"scaleLabel":"F2","lengthMiles":5.7,"deaths":0,"injuries":0}},{"type":"Feature","geometry":{"type":"Point","coordinates":[-104.62,39.33]},"properties":{"id":"ncei-1951-9991328","year":1951,"month":5,"state":"CO","stateName":"Colorado","scale":-1,"scaleLabel":"Unknown","lengthMiles":0,"deaths":0,"injuries":0}},{"type":"Feature","geometry":{"type":"Point","coordinates":[-102.27,40.98]},"properties":{"id":"ncei-1951-9991329","year":1951,"month":5,"state":"CO","stateName":"Colorado","scale":0,"scaleLabel":"F0","lengthMiles":0,"deaths":0,"injuries":0}},{"type":"Feature","geometry":{"type":"Point","coordinates":[-102.27,40.98]},"properties":{"id":"ncei-1951-9991330","year":1951,"month":5,"state":"CO","stateName":"Colorado","scale":0,"scaleLabel":"F0","lengthMiles":6.1,"deaths":0,"injuries":0}},{"type":"Feature","geometry":{"type":"Point","coordinates":[-102.27,40.98]},"properties":{"id":"ncei-1951-9991331","year":1951,"month":5,"state":"CO","stateName":"Colorado","scale":1,"scaleLabel":"F1","lengthMiles":10.3,"deaths":0,"injuries":0}},{"type":"Feature","geometry":{"type":"Point","coordinates":[-103.58,38.73]},"properties":{"id":"ncei-1951-9991332","year":1951,"month":6,"state":"CO","stateName":"Colorado","scale":2,"scaleLabel":"F2","lengthMiles":4.7,"deaths":0,"injuries":1}},{"type":"Feature","geometry":{"type":"Point","coordinates":[-104.25,39]},"properties":{"id":"ncei-1951-9991333","year":1951,"month":6,"state":"CO","stateName":"Colorado","scale":1,"scaleLabel":"F1","lengthMiles":0,"deaths":0,"injuries":0}},{"type":"Feature","geometry":{"type":"Point","coordinates":[-103.97,38.15]},"properties":{"id":"ncei-1951-9991334","year":1951,"month":6,"state":"CO","stateName":"Colorado","scale":-1,"scaleLabel":"Unknown","lengthMiles":29.9,"deaths":0,"injuries":0}},{"type":"Feature","geometry":{"type":"Point","coordinates":[-102.5,40.85]},"properties":{"id":"ncei-1951-9991335","year":1951,"month":6,"state":"CO","stateName":"Colorado","scale":1,"scaleLabel":"F1","lengthMiles":20.2,"deaths":0,"injuries":1}}]}
