{"type":"FeatureCollection","metadata":{"source":"NOAA/NCEI StormEvents details CSV","generatedAt":"2026-04-27T22:31:07.075Z","count":271,"year":1952},"features":[{"type":"Feature","geometry":{"type":"Point","coordinates":[-84.02,31.27]},"properties":{"id":"ncei-1952-10001437","year":1952,"month":1,"state":"GA","stateName":"Georgia","scale":2,"scaleLabel":"F2","lengthMiles":1.9,"deaths":0,"injuries":0}},{"type":"Feature","geometry":{"type":"Point","coordinates":[-84,31.28]},"properties":{"id":"ncei-1952-10001438","year":1952,"month":1,"state":"GA","stateName":"Georgia","scale":2,"scaleLabel":"F2","lengthMiles":6.8,"deaths":0,"injuries":8}},{"type":"Feature","geometry":{"type":"Point","coordinates":[-83.97,33.03]},"properties":{"id":"ncei-1952-10001439","year":1952,"month":1,"state":"GA","stateName":"Georgia","scale":1,"scaleLabel":"F1","lengthMiles":3.8,"deaths":0,"injuries":0}},{"type":"Feature","geometry":{"type":"Point","coordinates":[-84.17,31.58]},"properties":{"id":"ncei-1952-10001440","year":1952,"month":1,"state":"GA","stateName":"Georgia","scale":1,"scaleLabel":"F1","lengthMiles":2,"deaths":0,"injuries":1}},{"type":"Feature","geometry":{"type":"Point","coordinates":[-83.78,31.52]},"properties":{"id":"ncei-1952-10001441","year":1952,"month":1,"state":"GA","stateName":"Georgia","scale":2,"scaleLabel":"F2","lengthMiles":1,"deaths":0,"injuries":0}},{"type":"Feature","geometry":{"type":"Point","coordinates":[-83.5,31.47]},"properties":{"id":"ncei-1952-10001442","year":1952,"month":1,"state":"GA","stateName":"Georgia","scale":1,"scaleLabel":"F1","lengthMiles":0.1,"deaths":0,"injuries":2}},{"type":"Feature","geometry":{"type":"Point","coordinates":[-82.33,32.58]},"properties":{"id":"ncei-1952-10001443","year":1952,"month":1,"state":"GA","stateName":"Georgia","scale":1,"scaleLabel":"F1","lengthMiles":0.1,"deaths":0,"injuries":1}},{"type":"Feature","geometry":{"type":"Point","coordinates":[-83.33,34.4]},"properties":{"id":"ncei-1952-10001444","year":1952,"month":2,"state":"GA","stateName":"Georgia","scale":2,"scaleLabel":"F2","lengthMiles":7.8,"deaths":0,"injuries":0}},{"type":"Feature","geometry":{"type":"Point","coordinates":[-83.58,34.37]},"properties":{"id":"ncei-1952-10001445","year":1952,"month":2,"state":"GA","stateName":"Georgia","scale":2,"scaleLabel":"F2","lengthMiles":9.4,"deaths":0,"injuries":3}},{"type":"Feature","geometry":{"type":"Point","coordinates":[-83.67,34.12]},"properties":{"id":"ncei-1952-10001446","year":1952,"month":2,"state":"GA","stateName":"Georgia","scale":2,"scaleLabel":"F2","lengthMiles":0.2,"deaths":0,"injuries":5}},{"type":"Feature","geometry":{"type":"Point","coordinates":[-83.68,32.8]},"properties":{"id":"ncei-1952-10001447","year":1952,"month":3,"state":"GA","stateName":"Georgia","scale":3,"scaleLabel":"F3","lengthMiles":4.3,"deaths":0,"injuries":4}},{"type":"Feature","geometry":{"type":"Point","coordinates":[-84.17,31.65]},"properties":{"id":"ncei-1952-10001448","year":1952,"month":3,"state":"GA","stateName":"Georgia","scale":1,"scaleLabel":"F1","lengthMiles":1,"deaths":0,"injuries":0}},{"type":"Feature","geometry":{"type":"Point","coordinates":[-83.25,31.37]},"properties":{"id":"ncei-1952-10001449","year":1952,"month":5,"state":"GA","stateName":"Georgia","scale":3,"scaleLabel":"F3","lengthMiles":4.3,"deaths":0,"injuries":10}},{"type":"Feature","geometry":{"type":"Point","coordinates":[-86.07,39.8]},"properties":{"id":"ncei-1952-10004036","year":1952,"month":5,"state":"IN","stateName":"Indiana","scale":1,"scaleLabel":"F1","lengthMiles":15.6,"deaths":0,"injuries":0}},{"type":"Feature","geometry":{"type":"Point","coordinates":[-86.77,37.93]},"properties":{"id":"ncei-1952-10004037","year":1952,"month":12,"state":"IN","stateName":"Indiana","scale":3,"scaleLabel":"F3","lengthMiles":1.3,"deaths":0,"injuries":0}},{"type":"Feature","geometry":{"type":"Point","coordinates":[-90.37,39.18]},"properties":{"id":"ncei-1952-10009726","year":1952,"month":3,"state":"IL","stateName":"Illinois","scale":1,"scaleLabel":"F1","lengthMiles":3,"deaths":0,"injuries":1}},{"type":"Feature","geometry":{"type":"Point","coordinates":[-89.93,38.1]},"properties":{"id":"ncei-1952-10009727","year":1952,"month":3,"state":"IL","stateName":"Illinois","scale":2,"scaleLabel":"F2","lengthMiles":4.9,"deaths":0,"injuries":0}},{"type":"Feature","geometry":{"type":"Point","coordinates":[-90.02,39.5]},"properties":{"id":"ncei-1952-10009728","year":1952,"month":5,"state":"IL","stateName":"Illinois","scale":1,"scaleLabel":"F1","lengthMiles":0,"deaths":0,"injuries":0}},{"type":"Feature","geometry":{"type":"Point","coordinates":[-90.78,41.1]},"properties":{"id":"ncei-1952-10009729","year":1952,"month":7,"state":"IL","stateName":"Illinois","scale":1,"scaleLabel":"F1","lengthMiles":0,"deaths":0,"injuries":0}},{"type":"Feature","geometry":{"type":"Point","coordinates":[-92.97,42.75]},"properties":{"id":"ncei-1952-10017018","year":1952,"month":5,"state":"IA","stateName":"Iowa","scale":2,"scaleLabel":"F2","lengthMiles":0,"deaths":0,"injuries":0}},{"type":"Feature","geometry":{"type":"Point","coordinates":[-93.08,43.33]},"properties":{"id":"ncei-1952-10017019","year":1952,"month":5,"state":"IA","stateName":"Iowa","scale":1,"scaleLabel":"F1","lengthMiles":0,"deaths":0,"injuries":0}},{"type":"Feature","geometry":{"type":"Point","coordinates":[-95.85,42.75]},"properties":{"id":"ncei-1952-10017021","year":1952,"month":6,"state":"IA","stateName":"Iowa","scale":4,"scaleLabel":"F4","lengthMiles":24.1,"deaths":0,"injuries":4}},{"type":"Feature","geometry":{"type":"Point","coordinates":[-96.1,43.4]},"properties":{"id":"ncei-1952-10017022","year":1952,"month":7,"state":"IA","stateName":"Iowa","scale":1,"scaleLabel":"F1","lengthMiles":0,"deaths":0,"injuries":0}},{"type":"Feature","geometry":{"type":"Point","coordinates":[-91.08,41.55]},"properties":{"id":"ncei-1952-10017023","year":1952,"month":11,"state":"IA","stateName":"Iowa","scale":0,"scaleLabel":"F0","lengthMiles":0,"deaths":0,"injuries":0}},{"type":"Feature","geometry":{"type":"Point","coordinates":[-99.47,37.87]},"properties":{"id":"ncei-1952-10025350","year":1952,"month":4,"state":"KS","stateName":"Kansas","scale":1,"scaleLabel":"F1","lengthMiles":0,"deaths":0,"injuries":0}},{"type":"Feature","geometry":{"type":"Point","coordinates":[-96.75,39.18]},"properties":{"id":"ncei-1952-10025351","year":1952,"month":4,"state":"KS","stateName":"Kansas","scale":-1,"scaleLabel":"Unknown","lengthMiles":0,"deaths":0,"injuries":0}},{"type":"Feature","geometry":{"type":"Point","coordinates":[-100.08,37.08]},"properties":{"id":"ncei-1952-10025352","year":1952,"month":4,"state":"KS","stateName":"Kansas","scale":0,"scaleLabel":"F0","lengthMiles":0,"deaths":0,"injuries":0}},{"type":"Feature","geometry":{"type":"Point","coordinates":[-98.67,38.07]},"properties":{"id":"ncei-1952-10025353","year":1952,"month":4,"state":"KS","stateName":"Kansas","scale":0,"scaleLabel":"F0","lengthMiles":0,"deaths":0,"injuries":0}},{"type":"Feature","geometry":{"type":"Point","coordinates":[-99.83,37.75]},"properties":{"id":"ncei-1952-10025354","year":1952,"month":4,"state":"KS","stateName":"Kansas","scale":0,"scaleLabel":"F0","lengthMiles":0,"deaths":0,"injuries":0}},{"type":"Feature","geometry":{"type":"Point","coordinates":[-99,39.52]},"properties":{"id":"ncei-1952-10025355","year":1952,"month":5,"state":"KS","stateName":"Kansas","scale":-1,"scaleLabel":"Unknown","lengthMiles":0,"deaths":0,"injuries":0}},{"type":"Feature","geometry":{"type":"Point","coordinates":[-97.87,39.68]},"properties":{"id":"ncei-1952-10025356","year":1952,"month":5,"state":"KS","stateName":"Kansas","scale":2,"scaleLabel":"F2","lengthMiles":0.2,"deaths":0,"injuries":0}},{"type":"Feature","geometry":{"type":"Point","coordinates":[-95.22,38.98]},"properties":{"id":"ncei-1952-10025357","year":1952,"month":5,"state":"KS","stateName":"Kansas","scale":4,"scaleLabel":"F4","lengthMiles":2.7,"deaths":0,"injuries":2}},{"type":"Feature","geometry":{"type":"Point","coordinates":[-95.17,39.03]},"properties":{"id":"ncei-1952-10025358","year":1952,"month":5,"state":"KS","stateName":"Kansas","scale":4,"scaleLabel":"F4","lengthMiles":13.3,"deaths":0,"injuries":0}},{"type":"Feature","geometry":{"type":"Point","coordinates":[-94.92,39.03]},"properties":{"id":"ncei-1952-10025359","year":1952,"month":5,"state":"KS","stateName":"Kansas","scale":4,"scaleLabel":"F4","lengthMiles":10.9,"deaths":0,"injuries":1}},{"type":"Feature","geometry":{"type":"Point","coordinates":[-97.42,37.18]},"properties":{"id":"ncei-1952-10025360","year":1952,"month":6,"state":"KS","stateName":"Kansas","scale":2,"scaleLabel":"F2","lengthMiles":3.3,"deaths":0,"injuries":0}},{"type":"Feature","geometry":{"type":"Point","coordinates":[-95.15,39.13]},"properties":{"id":"ncei-1952-10025361","year":1952,"month":6,"state":"KS","stateName":"Kansas","scale":2,"scaleLabel":"F2","lengthMiles":24.9,"deaths":0,"injuries":0}},{"type":"Feature","geometry":{"type":"Point","coordinates":[-99.45,39.68]},"properties":{"id":"ncei-1952-10025362","year":1952,"month":6,"state":"KS","stateName":"Kansas","scale":2,"scaleLabel":"F2","lengthMiles":12,"deaths":0,"injuries":0}},{"type":"Feature","geometry":{"type":"Point","coordinates":[-100.12,39.75]},"properties":{"id":"ncei-1952-10025363","year":1952,"month":6,"state":"KS","stateName":"Kansas","scale":2,"scaleLabel":"F2","lengthMiles":1.9,"deaths":0,"injuries":0}},{"type":"Feature","geometry":{"type":"Point","coordinates":[-100.2,39.83]},"properties":{"id":"ncei-1952-10025364","year":1952,"month":7,"state":"KS","stateName":"Kansas","scale":1,"scaleLabel":"F1","lengthMiles":11.9,"deaths":0,"injuries":0}},{"type":"Feature","geometry":{"type":"Point","coordinates":[-101.98,39.73]},"properties":{"id":"ncei-1952-10025365","year":1952,"month":7,"state":"KS","stateName":"Kansas","scale":-1,"scaleLabel":"Unknown","lengthMiles":0,"deaths":0,"injuries":0}},{"type":"Feature","geometry":{"type":"Point","coordinates":[-101.85,39.27]},"properties":{"id":"ncei-1952-10025366","year":1952,"month":7,"state":"KS","stateName":"Kansas","scale":2,"scaleLabel":"F2","lengthMiles":0,"deaths":0,"injuries":0}},{"type":"Feature","geometry":{"type":"Point","coordinates":[-98.52,39]},"properties":{"id":"ncei-1952-10025367","year":1952,"month":8,"state":"KS","stateName":"Kansas","scale":3,"scaleLabel":"F3","lengthMiles":4.7,"deaths":0,"injuries":0}},{"type":"Feature","geometry":{"type":"Point","coordinates":[-99.42,37.93]},"properties":{"id":"ncei-1952-10025368","year":1952,"month":8,"state":"KS","stateName":"Kansas","scale":1,"scaleLabel":"F1","lengthMiles":0,"deaths":0,"injuries":0}},{"type":"Feature","geometry":{"type":"Point","coordinates":[-97.02,38.68]},"properties":{"id":"ncei-1952-10025369","year":1952,"month":8,"state":"KS","stateName":"Kansas","scale":2,"scaleLabel":"F2","lengthMiles":1.5,"deaths":0,"injuries":0}},{"type":"Feature","geometry":{"type":"Point","coordinates":[-95.87,39.67]},"properties":{"id":"ncei-1952-10025370","year":1952,"month":11,"state":"KS","stateName":"Kansas","scale":1,"scaleLabel":"F1","lengthMiles":0,"deaths":0,"injuries":0}},{"type":"Feature","geometry":{"type":"Point","coordinates":[-94,32.98]},"properties":{"id":"ncei-1952-10032661","year":1952,"month":2,"state":"LA","stateName":"Louisiana","scale":0,"scaleLabel":"F0","lengthMiles":1,"deaths":0,"injuries":0}},{"type":"Feature","geometry":{"type":"Point","coordinates":[-94,32.35]},"properties":{"id":"ncei-1952-10032662","year":1952,"month":2,"state":"LA","stateName":"Louisiana","scale":2,"scaleLabel":"F2","lengthMiles":0.5,"deaths":0,"injuries":5}},{"type":"Feature","geometry":{"type":"Point","coordinates":[-93.65,32.23]},"properties":{"id":"ncei-1952-10032663","year":1952,"month":3,"state":"LA","stateName":"Louisiana","scale":3,"scaleLabel":"F3","lengthMiles":50.9,"deaths":0,"injuries":0}},{"type":"Feature","geometry":{"type":"Point","coordinates":[-92.83,32.95]},"properties":{"id":"ncei-1952-10032664","year":1952,"month":4,"state":"LA","stateName":"Louisiana","scale":1,"scaleLabel":"F1","lengthMiles":2,"deaths":0,"injuries":0}},{"type":"Feature","geometry":{"type":"Point","coordinates":[-92.87,30.17]},"properties":{"id":"ncei-1952-10032665","year":1952,"month":4,"state":"LA","stateName":"Louisiana","scale":3,"scaleLabel":"F3","lengthMiles":16.5,"deaths":0,"injuries":10}},{"type":"Feature","geometry":{"type":"Point","coordinates":[-92.62,30.27]},"properties":{"id":"ncei-1952-10032666","year":1952,"month":4,"state":"LA","stateName":"Louisiana","scale":3,"scaleLabel":"F3","lengthMiles":20.2,"deaths":0,"injuries":0}},{"type":"Feature","geometry":{"type":"Point","coordinates":[-92.13,30.37]},"properties":{"id":"ncei-1952-10032667","year":1952,"month":4,"state":"LA","stateName":"Louisiana","scale":2,"scaleLabel":"F2","lengthMiles":13.2,"deaths":4,"injuries":33}},{"type":"Feature","geometry":{"type":"Point","coordinates":[-91.62,29.87]},"properties":{"id":"ncei-1952-10032668","year":1952,"month":4,"state":"LA","stateName":"Louisiana","scale":2,"scaleLabel":"F2","lengthMiles":6.4,"deaths":0,"injuries":3}},{"type":"Feature","geometry":{"type":"Point","coordinates":[-91.92,30.4]},"properties":{"id":"ncei-1952-10032669","year":1952,"month":4,"state":"LA","stateName":"Louisiana","scale":2,"scaleLabel":"F2","lengthMiles":7.2,"deaths":0,"injuries":0}},{"type":"Feature","geometry":{"type":"Point","coordinates":[-90.5,30.88]},"properties":{"id":"ncei-1952-10032670","year":1952,"month":4,"state":"LA","stateName":"Louisiana","scale":0,"scaleLabel":"F0","lengthMiles":0.5,"deaths":0,"injuries":0}},{"type":"Feature","geometry":{"type":"Point","coordinates":[-90.67,29.6]},"properties":{"id":"ncei-1952-10032671","year":1952,"month":5,"state":"LA","stateName":"Louisiana","scale":0,"scaleLabel":"F0","lengthMiles":1,"deaths":0,"injuries":0}},{"type":"Feature","geometry":{"type":"Point","coordinates":[-85.72,37.53]},"properties":{"id":"ncei-1952-10035925","year":1952,"month":3,"state":"KY","stateName":"Kentucky","scale":3,"scaleLabel":"F3","lengthMiles":2.7,"deaths":0,"injuries":18}},{"type":"Feature","geometry":{"type":"Point","coordinates":[-87.3,37.68]},"properties":{"id":"ncei-1952-10035926","year":1952,"month":12,"state":"KY","stateName":"Kentucky","scale":3,"scaleLabel":"F3","lengthMiles":25.2,"deaths":0,"injuries":3}},{"type":"Feature","geometry":{"type":"Point","coordinates":[-86.9,37.87]},"properties":{"id":"ncei-1952-10035927","year":1952,"month":12,"state":"KY","stateName":"Kentucky","scale":3,"scaleLabel":"F3","lengthMiles":8.5,"deaths":0,"injuries":0}},{"type":"Feature","geometry":{"type":"Point","coordinates":[-77.55,39.45]},"properties":{"id":"ncei-1952-10038921","year":1952,"month":4,"state":"MD","stateName":"Maryland","scale":1,"scaleLabel":"F1","lengthMiles":1,"deaths":0,"injuries":0}},{"type":"Feature","geometry":{"type":"Point","coordinates":[-77.42,39.63]},"properties":{"id":"ncei-1952-10038922","year":1952,"month":4,"state":"MD","stateName":"Maryland","scale":1,"scaleLabel":"F1","lengthMiles":1,"deaths":0,"injuries":1}},{"type":"Feature","geometry":{"type":"Point","coordinates":[-75.75,39.12]},"properties":{"id":"ncei-1952-10038923","year":1952,"month":4,"state":"MD","stateName":"Maryland","scale":0,"scaleLabel":"F0","lengthMiles":0.3,"deaths":0,"injuries":0}},{"type":"Feature","geometry":{"type":"Point","coordinates":[-77.22,39.02]},"properties":{"id":"ncei-1952-10038924","year":1952,"month":8,"state":"MD","stateName":"Maryland","scale":1,"scaleLabel":"F1","lengthMiles":0,"deaths":0,"injuries":0}},{"type":"Feature","geometry":{"type":"Point","coordinates":[-89.1,32.77]},"properties":{"id":"ncei-1952-10047285","year":1952,"month":2,"state":"MS","stateName":"Mississippi","scale":0,"scaleLabel":"F0","lengthMiles":0,"deaths":0,"injuries":0}},{"type":"Feature","geometry":{"type":"Point","coordinates":[-88.47,33.85]},"properties":{"id":"ncei-1952-10047286","year":1952,"month":2,"state":"MS","stateName":"Mississippi","scale":1,"scaleLabel":"F1","lengthMiles":0,"deaths":0,"injuries":1}},{"type":"Feature","geometry":{"type":"Point","coordinates":[-89.48,30.42]},"properties":{"id":"ncei-1952-10047287","year":1952,"month":2,"state":"MS","stateName":"Mississippi","scale":1,"scaleLabel":"F1","lengthMiles":0,"deaths":0,"injuries":2}},{"type":"Feature","geometry":{"type":"Point","coordinates":[-90.12,32.47]},"properties":{"id":"ncei-1952-10047288","year":1952,"month":3,"state":"MS","stateName":"Mississippi","scale":-1,"scaleLabel":"Unknown","lengthMiles":0,"deaths":0,"injuries":1}},{"type":"Feature","geometry":{"type":"Point","coordinates":[-89.68,34.87]},"properties":{"id":"ncei-1952-10047289","year":1952,"month":3,"state":"MS","stateName":"Mississippi","scale":4,"scaleLabel":"F4","lengthMiles":10.9,"deaths":9,"injuries":24}},{"type":"Feature","geometry":{"type":"Point","coordinates":[-89.53,31.62]},"properties":{"id":"ncei-1952-10047290","year":1952,"month":7,"state":"MS","stateName":"Mississippi","scale":-1,"scaleLabel":"Unknown","lengthMiles":0,"deaths":0,"injuries":0}},{"type":"Feature","geometry":{"type":"Point","coordinates":[-89.52,34.37]},"properties":{"id":"ncei-1952-10047291","year":1952,"month":8,"state":"MS","stateName":"Mississippi","scale":2,"scaleLabel":"F2","lengthMiles":0.3,"deaths":0,"injuries":0}},{"type":"Feature","geometry":{"type":"Point","coordinates":[-95.5,45.3]},"properties":{"id":"ncei-1952-10052056","year":1952,"month":6,"state":"MN","stateName":"Minnesota","scale":2,"scaleLabel":"F2","lengthMiles":8.4,"deaths":0,"injuries":0}},{"type":"Feature","geometry":{"type":"Point","coordinates":[-95.28,44]},"properties":{"id":"ncei-1952-10052057","year":1952,"month":6,"state":"MN","stateName":"Minnesota","scale":2,"scaleLabel":"F2","lengthMiles":12.5,"deaths":0,"injuries":0}},{"type":"Feature","geometry":{"type":"Point","coordinates":[-95.08,44.12]},"properties":{"id":"ncei-1952-10052058","year":1952,"month":6,"state":"MN","stateName":"Minnesota","scale":2,"scaleLabel":"F2","lengthMiles":30.7,"deaths":0,"injuries":5}},{"type":"Feature","geometry":{"type":"Point","coordinates":[-94.58,44.38]},"properties":{"id":"ncei-1952-10052059","year":1952,"month":6,"state":"MN","stateName":"Minnesota","scale":2,"scaleLabel":"F2","lengthMiles":61.6,"deaths":0,"injuries":0}},{"type":"Feature","geometry":{"type":"Point","coordinates":[-93.5,44.83]},"properties":{"id":"ncei-1952-10052060","year":1952,"month":6,"state":"MN","stateName":"Minnesota","scale":2,"scaleLabel":"F2","lengthMiles":0,"deaths":0,"injuries":5}},{"type":"Feature","geometry":{"type":"Point","coordinates":[-93.85,44.33]},"properties":{"id":"ncei-1952-10052061","year":1952,"month":6,"state":"MN","stateName":"Minnesota","scale":2,"scaleLabel":"F2","lengthMiles":65.8,"deaths":0,"injuries":6}},{"type":"Feature","geometry":{"type":"Point","coordinates":[-93.08,45.12]},"properties":{"id":"ncei-1952-10052062","year":1952,"month":6,"state":"MN","stateName":"Minnesota","scale":2,"scaleLabel":"F2","lengthMiles":5.1,"deaths":0,"injuries":9}},{"type":"Feature","geometry":{"type":"Point","coordinates":[-96.18,45.87]},"properties":{"id":"ncei-1952-10052063","year":1952,"month":7,"state":"MN","stateName":"Minnesota","scale":1,"scaleLabel":"F1","lengthMiles":4.1,"deaths":0,"injuries":0}},{"type":"Feature","geometry":{"type":"Point","coordinates":[-93.53,46.72]},"properties":{"id":"ncei-1952-10052064","year":1952,"month":7,"state":"MN","stateName":"Minnesota","scale":2,"scaleLabel":"F2","lengthMiles":9.4,"deaths":0,"injuries":0}},{"type":"Feature","geometry":{"type":"Point","coordinates":[-93.48,43.72]},"properties":{"id":"ncei-1952-10052065","year":1952,"month":7,"state":"MN","stateName":"Minnesota","scale":2,"scaleLabel":"F2","lengthMiles":1.5,"deaths":0,"injuries":4}},{"type":"Feature","geometry":{"type":"Point","coordinates":[-96.22,45.58]},"properties":{"id":"ncei-1952-10052066","year":1952,"month":8,"state":"MN","stateName":"Minnesota","scale":1,"scaleLabel":"F1","lengthMiles":13.3,"deaths":0,"injuries":0}},{"type":"Feature","geometry":{"type":"Point","coordinates":[-89.93,36.07]},"properties":{"id":"ncei-1952-10063627","year":1952,"month":2,"state":"MO","stateName":"Missouri","scale":2,"scaleLabel":"F2","lengthMiles":4.5,"deaths":0,"injuries":0}},{"type":"Feature","geometry":{"type":"Point","coordinates":[-89.88,36.12]},"properties":{"id":"ncei-1952-10063628","year":1952,"month":2,"state":"MO","stateName":"Missouri","scale":2,"scaleLabel":"F2","lengthMiles":2.3,"deaths":0,"injuries":0}},{"type":"Feature","geometry":{"type":"Point","coordinates":[-90.5,37.75]},"properties":{"id":"ncei-1952-10063629","year":1952,"month":3,"state":"MO","stateName":"Missouri","scale":2,"scaleLabel":"F2","lengthMiles":8.5,"deaths":0,"injuries":1}},{"type":"Feature","geometry":{"type":"Point","coordinates":[-90.35,37.78]},"properties":{"id":"ncei-1952-10063630","year":1952,"month":3,"state":"MO","stateName":"Missouri","scale":2,"scaleLabel":"F2","lengthMiles":9.9,"deaths":0,"injuries":0}},{"type":"Feature","geometry":{"type":"Point","coordinates":[-89.78,37.37]},"properties":{"id":"ncei-1952-10063631","year":1952,"month":3,"state":"MO","stateName":"Missouri","scale":2,"scaleLabel":"F2","lengthMiles":6.2,"deaths":0,"injuries":0}},{"type":"Feature","geometry":{"type":"Point","coordinates":[-89.82,36.05]},"properties":{"id":"ncei-1952-10063632","year":1952,"month":3,"state":"MO","stateName":"Missouri","scale":4,"scaleLabel":"F4","lengthMiles":6.5,"deaths":17,"injuries":100}},{"type":"Feature","geometry":{"type":"Point","coordinates":[-94.53,40.1]},"properties":{"id":"ncei-1952-10063633","year":1952,"month":5,"state":"MO","stateName":"Missouri","scale":1,"scaleLabel":"F1","lengthMiles":1.5,"deaths":0,"injuries":0}},{"type":"Feature","geometry":{"type":"Point","coordinates":[-94.27,38.9]},"properties":{"id":"ncei-1952-10063634","year":1952,"month":5,"state":"MO","stateName":"Missouri","scale":2,"scaleLabel":"F2","lengthMiles":1.3,"deaths":0,"injuries":1}},{"type":"Feature","geometry":{"type":"Point","coordinates":[-91.5,38.97]},"properties":{"id":"ncei-1952-10063635","year":1952,"month":7,"state":"MO","stateName":"Missouri","scale":1,"scaleLabel":"F1","lengthMiles":0.2,"deaths":0,"injuries":0}},{"type":"Feature","geometry":{"type":"Point","coordinates":[-93.27,38.68]},"properties":{"id":"ncei-1952-10063636","year":1952,"month":8,"state":"MO","stateName":"Missouri","scale":2,"scaleLabel":"F2","lengthMiles":1.3,"deaths":1,"injuries":13}},{"type":"Feature","geometry":{"type":"Point","coordinates":[-95.07,40.45]},"properties":{"id":"ncei-1952-10063637","year":1952,"month":11,"state":"MO","stateName":"Missouri","scale":3,"scaleLabel":"F3","lengthMiles":21.6,"deaths":0,"injuries":2}},{"type":"Feature","geometry":{"type":"Point","coordinates":[-104.28,46.37]},"properties":{"id":"ncei-1952-10072246","year":1952,"month":7,"state":"MT","stateName":"Montana","scale":-1,"scaleLabel":"Unknown","lengthMiles":55.5,"deaths":0,"injuries":0}},{"type":"Feature","geometry":{"type":"Point","coordinates":[-104.25,46.97]},"properties":{"id":"ncei-1952-10072247","year":1952,"month":7,"state":"MT","stateName":"Montana","scale":3,"scaleLabel":"F3","lengthMiles":9.1,"deaths":1,"injuries":2}},{"type":"Feature","geometry":{"type":"Point","coordinates":[-99.8,40.15]},"properties":{"id":"ncei-1952-10073797","year":1952,"month":4,"state":"NE","stateName":"Nebraska","scale":1,"scaleLabel":"F1","lengthMiles":1,"deaths":0,"injuries":0}},{"type":"Feature","geometry":{"type":"Point","coordinates":[-103.33,41.18]},"properties":{"id":"ncei-1952-10073798","year":1952,"month":5,"state":"NE","stateName":"Nebraska","scale":1,"scaleLabel":"F1","lengthMiles":0,"deaths":0,"injuries":0}},{"type":"Feature","geometry":{"type":"Point","coordinates":[-103.07,41.42]},"properties":{"id":"ncei-1952-10073799","year":1952,"month":5,"state":"NE","stateName":"Nebraska","scale":1,"scaleLabel":"F1","lengthMiles":0,"deaths":0,"injuries":0}},{"type":"Feature","geometry":{"type":"Point","coordinates":[-103.03,41.2]},"properties":{"id":"ncei-1952-10073800","year":1952,"month":5,"state":"NE","stateName":"Nebraska","scale":0,"scaleLabel":"F0","lengthMiles":2,"deaths":0,"injuries":0}},{"type":"Feature","geometry":{"type":"Point","coordinates":[-98.67,42.48]},"properties":{"id":"ncei-1952-10073801","year":1952,"month":6,"state":"NE","stateName":"Nebraska","scale":1,"scaleLabel":"F1","lengthMiles":1,"deaths":0,"injuries":0}},{"type":"Feature","geometry":{"type":"Point","coordinates":[-96.93,40.63]},"properties":{"id":"ncei-1952-10073802","year":1952,"month":6,"state":"NE","stateName":"Nebraska","scale":2,"scaleLabel":"F2","lengthMiles":2.7,"deaths":0,"injuries":0}},{"type":"Feature","geometry":{"type":"Point","coordinates":[-103,41.17]},"properties":{"id":"ncei-1952-10073803","year":1952,"month":7,"state":"NE","stateName":"Nebraska","scale":1,"scaleLabel":"F1","lengthMiles":27.6,"deaths":0,"injuries":0}},{"type":"Feature","geometry":{"type":"Point","coordinates":[-97.28,41.47]},"properties":{"id":"ncei-1952-10073804","year":1952,"month":8,"state":"NE","stateName":"Nebraska","scale":3,"scaleLabel":"F3","lengthMiles":3.3,"deaths":0,"injuries":0}},{"type":"Feature","geometry":{"type":"Point","coordinates":[-97.17,41.35]},"properties":{"id":"ncei-1952-10073805","year":1952,"month":8,"state":"NE","stateName":"Nebraska","scale":3,"scaleLabel":"F3","lengthMiles":41.1,"deaths":0,"injuries":1}},{"type":"Feature","geometry":{"type":"Point","coordinates":[-96.58,41.22]},"properties":{"id":"ncei-1952-10073806","year":1952,"month":8,"state":"NE","stateName":"Nebraska","scale":4,"scaleLabel":"F4","lengthMiles":19.4,"deaths":0,"injuries":20}},{"type":"Feature","geometry":{"type":"Point","coordinates":[-96.32,41.02]},"properties":{"id":"ncei-1952-10073807","year":1952,"month":8,"state":"NE","stateName":"Nebraska","scale":4,"scaleLabel":"F4","lengthMiles":7.3,"deaths":0,"injuries":0}},{"type":"Feature","geometry":{"type":"Point","coordinates":[-78.72,36.43]},"properties":{"id":"ncei-1952-10075517","year":1952,"month":11,"state":"NC","stateName":"North Carolina","scale":2,"scaleLabel":"F2","lengthMiles":1,"deaths":0,"injuries":1}},{"type":"Feature","geometry":{"type":"Point","coordinates":[-74,44.33]},"properties":{"id":"ncei-1952-10075659","year":1952,"month":5,"state":"NY","stateName":"New York","scale":2,"scaleLabel":"F2","lengthMiles":4.9,"deaths":0,"injuries":0}},{"type":"Feature","geometry":{"type":"Point","coordinates":[-75.6,35.95]},"properties":{"id":"ncei-1952-10076649","year":1952,"month":9,"state":"NC","stateName":"North Carolina","scale":3,"scaleLabel":"F3","lengthMiles":1,"deaths":0,"injuries":0}},{"type":"Feature","geometry":{"type":"Point","coordinates":[-78.88,35.8]},"properties":{"id":"ncei-1952-10077703","year":1952,"month":4,"state":"NC","stateName":"North Carolina","scale":2,"scaleLabel":"F2","lengthMiles":6.9,"deaths":0,"injuries":0}},{"type":"Feature","geometry":{"type":"Point","coordinates":[-77.25,36.1]},"properties":{"id":"ncei-1952-10077704","year":1952,"month":5,"state":"NC","stateName":"North Carolina","scale":2,"scaleLabel":"F2","lengthMiles":0,"deaths":0,"injuries":6}},{"type":"Feature","geometry":{"type":"Point","coordinates":[-76.38,35.47]},"properties":{"id":"ncei-1952-10077705","year":1952,"month":5,"state":"NC","stateName":"North Carolina","scale":2,"scaleLabel":"F2","lengthMiles":1.5,"deaths":0,"injuries":2}},{"type":"Feature","geometry":{"type":"Point","coordinates":[-77.75,36.25]},"properties":{"id":"ncei-1952-10077706","year":1952,"month":7,"state":"NC","stateName":"North Carolina","scale":2,"scaleLabel":"F2","lengthMiles":0,"deaths":0,"injuries":0}},{"type":"Feature","geometry":{"type":"Point","coordinates":[-80.17,36.25]},"properties":{"id":"ncei-1952-10077707","year":1952,"month":8,"state":"NC","stateName":"North Carolina","scale":1,"scaleLabel":"F1","lengthMiles":0,"deaths":0,"injuries":0}},{"type":"Feature","geometry":{"type":"Point","coordinates":[-74.32,40.63]},"properties":{"id":"ncei-1952-10082588","year":1952,"month":4,"state":"NJ","stateName":"New Jersey","scale":1,"scaleLabel":"F1","lengthMiles":0.2,"deaths":0,"injuries":0}},{"type":"Feature","geometry":{"type":"Point","coordinates":[-74.6,40]},"properties":{"id":"ncei-1952-10082589","year":1952,"month":8,"state":"NJ","stateName":"New Jersey","scale":1,"scaleLabel":"F1","lengthMiles":2.3,"deaths":0,"injuries":0}},{"type":"Feature","geometry":{"type":"Point","coordinates":[-74.57,40.03]},"properties":{"id":"ncei-1952-10082590","year":1952,"month":8,"state":"NJ","stateName":"New Jersey","scale":1,"scaleLabel":"F1","lengthMiles":12.5,"deaths":0,"injuries":0}},{"type":"Feature","geometry":{"type":"Point","coordinates":[-74.4,40.17]},"properties":{"id":"ncei-1952-10082591","year":1952,"month":8,"state":"NJ","stateName":"New Jersey","scale":1,"scaleLabel":"F1","lengthMiles":24.5,"deaths":0,"injuries":0}},{"type":"Feature","geometry":{"type":"Point","coordinates":[-81.5,41.42]},"properties":{"id":"ncei-1952-10083092","year":1952,"month":5,"state":"OH","stateName":"Ohio","scale":1,"scaleLabel":"F1","lengthMiles":0,"deaths":0,"injuries":0}},{"type":"Feature","geometry":{"type":"Point","coordinates":[-81.5,40.53]},"properties":{"id":"ncei-1952-10086814","year":1952,"month":4,"state":"OH","stateName":"Ohio","scale":1,"scaleLabel":"F1","lengthMiles":0,"deaths":0,"injuries":4}},{"type":"Feature","geometry":{"type":"Point","coordinates":[-104,47.07]},"properties":{"id":"ncei-1952-10089659","year":1952,"month":6,"state":"ND","stateName":"North Dakota","scale":-1,"scaleLabel":"Unknown","lengthMiles":8.8,"deaths":0,"injuries":0}},{"type":"Feature","geometry":{"type":"Point","coordinates":[-103.02,46.78]},"properties":{"id":"ncei-1952-10089660","year":1952,"month":6,"state":"ND","stateName":"North Dakota","scale":2,"scaleLabel":"F2","lengthMiles":10.1,"deaths":0,"injuries":0}},{"type":"Feature","geometry":{"type":"Point","coordinates":[-99.55,47.4]},"properties":{"id":"ncei-1952-10089661","year":1952,"month":6,"state":"ND","stateName":"North Dakota","scale":3,"scaleLabel":"F3","lengthMiles":1.7,"deaths":0,"injuries":1}},{"type":"Feature","geometry":{"type":"Point","coordinates":[-102.13,47.92]},"properties":{"id":"ncei-1952-10089662","year":1952,"month":6,"state":"ND","stateName":"North Dakota","scale":-1,"scaleLabel":"Unknown","lengthMiles":0,"deaths":0,"injuries":0}},{"type":"Feature","geometry":{"type":"Point","coordinates":[-96.95,46.07]},"properties":{"id":"ncei-1952-10089663","year":1952,"month":7,"state":"ND","stateName":"North Dakota","scale":3,"scaleLabel":"F3","lengthMiles":0.5,"deaths":0,"injuries":0}},{"type":"Feature","geometry":{"type":"Point","coordinates":[-103.55,47.82]},"properties":{"id":"ncei-1952-10089664","year":1952,"month":7,"state":"ND","stateName":"North Dakota","scale":2,"scaleLabel":"F2","lengthMiles":9.7,"deaths":0,"injuries":0}},{"type":"Feature","geometry":{"type":"Point","coordinates":[-100.5,47.05]},"properties":{"id":"ncei-1952-10089665","year":1952,"month":7,"state":"ND","stateName":"North Dakota","scale":4,"scaleLabel":"F4","lengthMiles":19.8,"deaths":1,"injuries":25}},{"type":"Feature","geometry":{"type":"Point","coordinates":[-100.1,47.15]},"properties":{"id":"ncei-1952-10089666","year":1952,"month":7,"state":"ND","stateName":"North Dakota","scale":4,"scaleLabel":"F4","lengthMiles":28.2,"deaths":0,"injuries":1}},{"type":"Feature","geometry":{"type":"Point","coordinates":[-97.17,47.92]},"properties":{"id":"ncei-1952-10089667","year":1952,"month":7,"state":"ND","stateName":"North Dakota","scale":2,"scaleLabel":"F2","lengthMiles":0,"deaths":0,"injuries":0}},{"type":"Feature","geometry":{"type":"Point","coordinates":[-104.05,47]},"properties":{"id":"ncei-1952-10089668","year":1952,"month":7,"state":"ND","stateName":"North Dakota","scale":3,"scaleLabel":"F3","lengthMiles":7.3,"deaths":0,"injuries":0}},{"type":"Feature","geometry":{"type":"Point","coordinates":[-98.67,47]},"properties":{"id":"ncei-1952-10089669","year":1952,"month":7,"state":"ND","stateName":"North Dakota","scale":2,"scaleLabel":"F2","lengthMiles":7.3,"deaths":0,"injuries":0}},{"type":"Feature","geometry":{"type":"Point","coordinates":[-97.73,35.93]},"properties":{"id":"ncei-1952-10098429","year":1952,"month":7,"state":"OK","stateName":"Oklahoma","scale":1,"scaleLabel":"F1","lengthMiles":1,"deaths":0,"injuries":0}},{"type":"Feature","geometry":{"type":"Point","coordinates":[-95.7,36.32]},"properties":{"id":"ncei-1952-10099559","year":1952,"month":7,"state":"OK","stateName":"Oklahoma","scale":1,"scaleLabel":"F1","lengthMiles":0,"deaths":0,"injuries":0}},{"type":"Feature","geometry":{"type":"Point","coordinates":[-100.88,36.87]},"properties":{"id":"ncei-1952-10099560","year":1952,"month":7,"state":"OK","stateName":"Oklahoma","scale":1,"scaleLabel":"F1","lengthMiles":0,"deaths":0,"injuries":0}},{"type":"Feature","geometry":{"type":"Point","coordinates":[-97.5,35.8]},"properties":{"id":"ncei-1952-10099561","year":1952,"month":8,"state":"OK","stateName":"Oklahoma","scale":2,"scaleLabel":"F2","lengthMiles":5.1,"deaths":0,"injuries":0}},{"type":"Feature","geometry":{"type":"Point","coordinates":[-99.7,35.25]},"properties":{"id":"ncei-1952-10099748","year":1952,"month":4,"state":"OK","stateName":"Oklahoma","scale":0,"scaleLabel":"F0","lengthMiles":45.9,"deaths":0,"injuries":0}},{"type":"Feature","geometry":{"type":"Point","coordinates":[-99.87,34.88]},"properties":{"id":"ncei-1952-10099749","year":1952,"month":4,"state":"OK","stateName":"Oklahoma","scale":1,"scaleLabel":"F1","lengthMiles":0,"deaths":0,"injuries":0}},{"type":"Feature","geometry":{"type":"Point","coordinates":[-99.5,34.67]},"properties":{"id":"ncei-1952-10099750","year":1952,"month":4,"state":"OK","stateName":"Oklahoma","scale":0,"scaleLabel":"F0","lengthMiles":1.5,"deaths":0,"injuries":0}},{"type":"Feature","geometry":{"type":"Point","coordinates":[-99.5,34.67]},"properties":{"id":"ncei-1952-10099751","year":1952,"month":4,"state":"OK","stateName":"Oklahoma","scale":0,"scaleLabel":"F0","lengthMiles":1.5,"deaths":0,"injuries":0}},{"type":"Feature","geometry":{"type":"Point","coordinates":[-99.5,34.67]},"properties":{"id":"ncei-1952-10099752","year":1952,"month":4,"state":"OK","stateName":"Oklahoma","scale":0,"scaleLabel":"F0","lengthMiles":1.5,"deaths":0,"injuries":0}},{"type":"Feature","geometry":{"type":"Point","coordinates":[-99.67,35.3]},"properties":{"id":"ncei-1952-10099753","year":1952,"month":4,"state":"OK","stateName":"Oklahoma","scale":1,"scaleLabel":"F1","lengthMiles":0,"deaths":0,"injuries":0}},{"type":"Feature","geometry":{"type":"Point","coordinates":[-99.47,35.97]},"properties":{"id":"ncei-1952-10099754","year":1952,"month":4,"state":"OK","stateName":"Oklahoma","scale":0,"scaleLabel":"F0","lengthMiles":0,"deaths":0,"injuries":0}},{"type":"Feature","geometry":{"type":"Point","coordinates":[-99.3,36.15]},"properties":{"id":"ncei-1952-10099755","year":1952,"month":4,"state":"OK","stateName":"Oklahoma","scale":0,"scaleLabel":"F0","lengthMiles":0,"deaths":0,"injuries":0}},{"type":"Feature","geometry":{"type":"Point","coordinates":[-97.33,36.87]},"properties":{"id":"ncei-1952-10099756","year":1952,"month":4,"state":"OK","stateName":"Oklahoma","scale":0,"scaleLabel":"F0","lengthMiles":0.3,"deaths":0,"injuries":0}},{"type":"Feature","geometry":{"type":"Point","coordinates":[-99.08,36.77]},"properties":{"id":"ncei-1952-10099757","year":1952,"month":4,"state":"OK","stateName":"Oklahoma","scale":2,"scaleLabel":"F2","lengthMiles":13.7,"deaths":0,"injuries":0}},{"type":"Feature","geometry":{"type":"Point","coordinates":[-97.92,34.75]},"properties":{"id":"ncei-1952-10099758","year":1952,"month":5,"state":"OK","stateName":"Oklahoma","scale":1,"scaleLabel":"F1","lengthMiles":0,"deaths":0,"injuries":0}},{"type":"Feature","geometry":{"type":"Point","coordinates":[-96.82,36.02]},"properties":{"id":"ncei-1952-10099759","year":1952,"month":5,"state":"OK","stateName":"Oklahoma","scale":1,"scaleLabel":"F1","lengthMiles":0,"deaths":0,"injuries":0}},{"type":"Feature","geometry":{"type":"Point","coordinates":[-98.87,34.67]},"properties":{"id":"ncei-1952-10099760","year":1952,"month":5,"state":"OK","stateName":"Oklahoma","scale":1,"scaleLabel":"F1","lengthMiles":16.9,"deaths":0,"injuries":0}},{"type":"Feature","geometry":{"type":"Point","coordinates":[-98.42,34.62]},"properties":{"id":"ncei-1952-10099761","year":1952,"month":5,"state":"OK","stateName":"Oklahoma","scale":2,"scaleLabel":"F2","lengthMiles":0.3,"deaths":0,"injuries":1}},{"type":"Feature","geometry":{"type":"Point","coordinates":[-98.43,34.65]},"properties":{"id":"ncei-1952-10099762","year":1952,"month":5,"state":"OK","stateName":"Oklahoma","scale":2,"scaleLabel":"F2","lengthMiles":0,"deaths":0,"injuries":0}},{"type":"Feature","geometry":{"type":"Point","coordinates":[-100,35.5]},"properties":{"id":"ncei-1952-10099763","year":1952,"month":6,"state":"OK","stateName":"Oklahoma","scale":1,"scaleLabel":"F1","lengthMiles":0,"deaths":0,"injuries":0}},{"type":"Feature","geometry":{"type":"Point","coordinates":[-98.32,36.07]},"properties":{"id":"ncei-1952-10099764","year":1952,"month":6,"state":"OK","stateName":"Oklahoma","scale":1,"scaleLabel":"F1","lengthMiles":0,"deaths":0,"injuries":0}},{"type":"Feature","geometry":{"type":"Point","coordinates":[-99.68,35.62]},"properties":{"id":"ncei-1952-10099765","year":1952,"month":6,"state":"OK","stateName":"Oklahoma","scale":1,"scaleLabel":"F1","lengthMiles":0,"deaths":0,"injuries":0}},{"type":"Feature","geometry":{"type":"Point","coordinates":[-98.42,36.28]},"properties":{"id":"ncei-1952-10099766","year":1952,"month":6,"state":"OK","stateName":"Oklahoma","scale":1,"scaleLabel":"F1","lengthMiles":0.3,"deaths":0,"injuries":0}},{"type":"Feature","geometry":{"type":"Point","coordinates":[-99,34.38]},"properties":{"id":"ncei-1952-10099767","year":1952,"month":6,"state":"OK","stateName":"Oklahoma","scale":2,"scaleLabel":"F2","lengthMiles":0,"deaths":0,"injuries":1}},{"type":"Feature","geometry":{"type":"Point","coordinates":[-97.83,35.33]},"properties":{"id":"ncei-1952-10099768","year":1952,"month":7,"state":"OK","stateName":"Oklahoma","scale":1,"scaleLabel":"F1","lengthMiles":3.6,"deaths":0,"injuries":0}},{"type":"Feature","geometry":{"type":"Point","coordinates":[-80.3,41.6]},"properties":{"id":"ncei-1952-10104937","year":1952,"month":1,"state":"PA","stateName":"Pennsylvania","scale":2,"scaleLabel":"F2","lengthMiles":0.5,"deaths":0,"injuries":0}},{"type":"Feature","geometry":{"type":"Point","coordinates":[-76.98,39.8]},"properties":{"id":"ncei-1952-10104938","year":1952,"month":4,"state":"PA","stateName":"Pennsylvania","scale":3,"scaleLabel":"F3","lengthMiles":17.5,"deaths":0,"injuries":4}},{"type":"Feature","geometry":{"type":"Point","coordinates":[-76.8,40.23]},"properties":{"id":"ncei-1952-10104939","year":1952,"month":4,"state":"PA","stateName":"Pennsylvania","scale":0,"scaleLabel":"F0","lengthMiles":0,"deaths":0,"injuries":6}},{"type":"Feature","geometry":{"type":"Point","coordinates":[-75.28,41.12]},"properties":{"id":"ncei-1952-10104940","year":1952,"month":4,"state":"PA","stateName":"Pennsylvania","scale":1,"scaleLabel":"F1","lengthMiles":1,"deaths":0,"injuries":0}},{"type":"Feature","geometry":{"type":"Point","coordinates":[-79.75,41.93]},"properties":{"id":"ncei-1952-10104941","year":1952,"month":7,"state":"PA","stateName":"Pennsylvania","scale":2,"scaleLabel":"F2","lengthMiles":5.6,"deaths":0,"injuries":0}},{"type":"Feature","geometry":{"type":"Point","coordinates":[-77.57,40.62]},"properties":{"id":"ncei-1952-10104942","year":1952,"month":7,"state":"PA","stateName":"Pennsylvania","scale":2,"scaleLabel":"F2","lengthMiles":0,"deaths":0,"injuries":4}},{"type":"Feature","geometry":{"type":"Point","coordinates":[-76.72,40.62]},"properties":{"id":"ncei-1952-10104943","year":1952,"month":8,"state":"PA","stateName":"Pennsylvania","scale":1,"scaleLabel":"F1","lengthMiles":0.5,"deaths":0,"injuries":0}},{"type":"Feature","geometry":{"type":"Point","coordinates":[-98.1,44.02]},"properties":{"id":"ncei-1952-10110749","year":1952,"month":6,"state":"SD","stateName":"South Dakota","scale":0,"scaleLabel":"F0","lengthMiles":2,"deaths":0,"injuries":0}},{"type":"Feature","geometry":{"type":"Point","coordinates":[-101.45,44.18]},"properties":{"id":"ncei-1952-10110750","year":1952,"month":6,"state":"SD","stateName":"South Dakota","scale":0,"scaleLabel":"F0","lengthMiles":0,"deaths":0,"injuries":0}},{"type":"Feature","geometry":{"type":"Point","coordinates":[-99.4,45.2]},"properties":{"id":"ncei-1952-10110751","year":1952,"month":6,"state":"SD","stateName":"South Dakota","scale":-1,"scaleLabel":"Unknown","lengthMiles":0,"deaths":0,"injuries":0}},{"type":"Feature","geometry":{"type":"Point","coordinates":[-99.08,43.45]},"properties":{"id":"ncei-1952-10110752","year":1952,"month":6,"state":"SD","stateName":"South Dakota","scale":0,"scaleLabel":"F0","lengthMiles":1,"deaths":0,"injuries":0}},{"type":"Feature","geometry":{"type":"Point","coordinates":[-97.58,43.23]},"properties":{"id":"ncei-1952-10110753","year":1952,"month":6,"state":"SD","stateName":"South Dakota","scale":1,"scaleLabel":"F1","lengthMiles":0,"deaths":0,"injuries":0}},{"type":"Feature","geometry":{"type":"Point","coordinates":[-82.25,34.8]},"properties":{"id":"ncei-1952-10117455","year":1952,"month":5,"state":"SC","stateName":"South Carolina","scale":3,"scaleLabel":"F3","lengthMiles":6.6,"deaths":0,"injuries":0}},{"type":"Feature","geometry":{"type":"Point","coordinates":[-82.13,34.8]},"properties":{"id":"ncei-1952-10117456","year":1952,"month":5,"state":"SC","stateName":"South Carolina","scale":3,"scaleLabel":"F3","lengthMiles":16.1,"deaths":2,"injuries":4}},{"type":"Feature","geometry":{"type":"Point","coordinates":[-81.42,33.42]},"properties":{"id":"ncei-1952-10117457","year":1952,"month":6,"state":"SC","stateName":"South Carolina","scale":1,"scaleLabel":"F1","lengthMiles":2,"deaths":0,"injuries":0}},{"type":"Feature","geometry":{"type":"Point","coordinates":[-100.47,31.45]},"properties":{"id":"ncei-1952-10121789","year":1952,"month":4,"state":"TX","stateName":"Texas","scale":3,"scaleLabel":"F3","lengthMiles":0.5,"deaths":0,"injuries":6}},{"type":"Feature","geometry":{"type":"Point","coordinates":[-95.62,32.22]},"properties":{"id":"ncei-1952-10121790","year":1952,"month":5,"state":"TX","stateName":"Texas","scale":0,"scaleLabel":"F0","lengthMiles":0.5,"deaths":0,"injuries":1}},{"type":"Feature","geometry":{"type":"Point","coordinates":[-100.48,31.45]},"properties":{"id":"ncei-1952-10121791","year":1952,"month":5,"state":"TX","stateName":"Texas","scale":1,"scaleLabel":"F1","lengthMiles":7.1,"deaths":0,"injuries":1}},{"type":"Feature","geometry":{"type":"Point","coordinates":[-96.75,33.65]},"properties":{"id":"ncei-1952-10121792","year":1952,"month":6,"state":"TX","stateName":"Texas","scale":1,"scaleLabel":"F1","lengthMiles":13.8,"deaths":0,"injuries":0}},{"type":"Feature","geometry":{"type":"Point","coordinates":[-98.6,33.12]},"properties":{"id":"ncei-1952-10121793","year":1952,"month":8,"state":"TX","stateName":"Texas","scale":1,"scaleLabel":"F1","lengthMiles":0.7,"deaths":0,"injuries":0}},{"type":"Feature","geometry":{"type":"Point","coordinates":[-95.3,30.9]},"properties":{"id":"ncei-1952-10121794","year":1952,"month":12,"state":"TX","stateName":"Texas","scale":2,"scaleLabel":"F2","lengthMiles":13.3,"deaths":0,"injuries":4}},{"type":"Feature","geometry":{"type":"Point","coordinates":[-93.77,30.08]},"properties":{"id":"ncei-1952-10123412","year":1952,"month":2,"state":"TX","stateName":"Texas","scale":2,"scaleLabel":"F2","lengthMiles":1,"deaths":0,"injuries":0}},{"type":"Feature","geometry":{"type":"Point","coordinates":[-96.58,32.97]},"properties":{"id":"ncei-1952-10123413","year":1952,"month":3,"state":"TX","stateName":"Texas","scale":0,"scaleLabel":"F0","lengthMiles":0.2,"deaths":0,"injuries":0}},{"type":"Feature","geometry":{"type":"Point","coordinates":[-98.58,33.88]},"properties":{"id":"ncei-1952-10123414","year":1952,"month":3,"state":"TX","stateName":"Texas","scale":1,"scaleLabel":"F1","lengthMiles":0,"deaths":0,"injuries":0}},{"type":"Feature","geometry":{"type":"Point","coordinates":[-98.25,32.92]},"properties":{"id":"ncei-1952-10123415","year":1952,"month":3,"state":"TX","stateName":"Texas","scale":0,"scaleLabel":"F0","lengthMiles":0.5,"deaths":0,"injuries":0}},{"type":"Feature","geometry":{"type":"Point","coordinates":[-96.7,33.6]},"properties":{"id":"ncei-1952-10123416","year":1952,"month":4,"state":"TX","stateName":"Texas","scale":2,"scaleLabel":"F2","lengthMiles":4.9,"deaths":0,"injuries":1}},{"type":"Feature","geometry":{"type":"Point","coordinates":[-95.85,32.22]},"properties":{"id":"ncei-1952-10123417","year":1952,"month":4,"state":"TX","stateName":"Texas","scale":1,"scaleLabel":"F1","lengthMiles":0.8,"deaths":0,"injuries":0}},{"type":"Feature","geometry":{"type":"Point","coordinates":[-97.45,31.5]},"properties":{"id":"ncei-1952-10123418","year":1952,"month":4,"state":"TX","stateName":"Texas","scale":4,"scaleLabel":"F4","lengthMiles":2.3,"deaths":0,"injuries":0}},{"type":"Feature","geometry":{"type":"Point","coordinates":[-88.12,36]},"properties":{"id":"ncei-1952-10126030","year":1952,"month":2,"state":"TN","stateName":"Tennessee","scale":2,"scaleLabel":"F2","lengthMiles":0.3,"deaths":0,"injuries":0}},{"type":"Feature","geometry":{"type":"Point","coordinates":[-87.03,36.05]},"properties":{"id":"ncei-1952-10126031","year":1952,"month":2,"state":"TN","stateName":"Tennessee","scale":1,"scaleLabel":"F1","lengthMiles":0.3,"deaths":0,"injuries":0}},{"type":"Feature","geometry":{"type":"Point","coordinates":[-86.82,35.23]},"properties":{"id":"ncei-1952-10126032","year":1952,"month":2,"state":"TN","stateName":"Tennessee","scale":1,"scaleLabel":"F1","lengthMiles":0.2,"deaths":0,"injuries":0}},{"type":"Feature","geometry":{"type":"Point","coordinates":[-86.6,35.22]},"properties":{"id":"ncei-1952-10126033","year":1952,"month":2,"state":"TN","stateName":"Tennessee","scale":3,"scaleLabel":"F3","lengthMiles":7.4,"deaths":0,"injuries":2}},{"type":"Feature","geometry":{"type":"Point","coordinates":[-86.3,35.2]},"properties":{"id":"ncei-1952-10126034","year":1952,"month":2,"state":"TN","stateName":"Tennessee","scale":4,"scaleLabel":"F4","lengthMiles":1.3,"deaths":0,"injuries":9}},{"type":"Feature","geometry":{"type":"Point","coordinates":[-86.28,35.2]},"properties":{"id":"ncei-1952-10126035","year":1952,"month":2,"state":"TN","stateName":"Tennessee","scale":4,"scaleLabel":"F4","lengthMiles":11.4,"deaths":3,"injuries":35}},{"type":"Feature","geometry":{"type":"Point","coordinates":[-85.83,35.25]},"properties":{"id":"ncei-1952-10126036","year":1952,"month":2,"state":"TN","stateName":"Tennessee","scale":3,"scaleLabel":"F3","lengthMiles":5.1,"deaths":0,"injuries":2}},{"type":"Feature","geometry":{"type":"Point","coordinates":[-86.7,35.42]},"properties":{"id":"ncei-1952-10126037","year":1952,"month":2,"state":"TN","stateName":"Tennessee","scale":1,"scaleLabel":"F1","lengthMiles":0.1,"deaths":3,"injuries":166}},{"type":"Feature","geometry":{"type":"Point","coordinates":[-86.58,35.15]},"properties":{"id":"ncei-1952-10126038","year":1952,"month":2,"state":"TN","stateName":"Tennessee","scale":4,"scaleLabel":"F4","lengthMiles":2,"deaths":2,"injuries":150}},{"type":"Feature","geometry":{"type":"Point","coordinates":[-85.85,35.53]},"properties":{"id":"ncei-1952-10126039","year":1952,"month":2,"state":"TN","stateName":"Tennessee","scale":2,"scaleLabel":"F2","lengthMiles":1,"deaths":0,"injuries":0}},{"type":"Feature","geometry":{"type":"Point","coordinates":[-84.67,35.3]},"properties":{"id":"ncei-1952-10126040","year":1952,"month":2,"state":"TN","stateName":"Tennessee","scale":2,"scaleLabel":"F2","lengthMiles":15.3,"deaths":0,"injuries":0}},{"type":"Feature","geometry":{"type":"Point","coordinates":[-89.2,36.02]},"properties":{"id":"ncei-1952-10126041","year":1952,"month":3,"state":"TN","stateName":"Tennessee","scale":4,"scaleLabel":"F4","lengthMiles":4.7,"deaths":2,"injuries":10}},{"type":"Feature","geometry":{"type":"Point","coordinates":[-89.43,35.95]},"properties":{"id":"ncei-1952-10126042","year":1952,"month":3,"state":"TN","stateName":"Tennessee","scale":3,"scaleLabel":"F3","lengthMiles":18.1,"deaths":10,"injuries":30}},{"type":"Feature","geometry":{"type":"Point","coordinates":[-89.27,36.1]},"properties":{"id":"ncei-1952-10126043","year":1952,"month":3,"state":"TN","stateName":"Tennessee","scale":4,"scaleLabel":"F4","lengthMiles":2,"deaths":4,"injuries":5}},{"type":"Feature","geometry":{"type":"Point","coordinates":[-89.58,35]},"properties":{"id":"ncei-1952-10126257","year":1952,"month":3,"state":"TN","stateName":"Tennessee","scale":4,"scaleLabel":"F4","lengthMiles":18.7,"deaths":7,"injuries":50}},{"type":"Feature","geometry":{"type":"Point","coordinates":[-88.78,35.8]},"properties":{"id":"ncei-1952-10126258","year":1952,"month":3,"state":"TN","stateName":"Tennessee","scale":2,"scaleLabel":"F2","lengthMiles":0.1,"deaths":2,"injuries":2}},{"type":"Feature","geometry":{"type":"Point","coordinates":[-88.67,35.85]},"properties":{"id":"ncei-1952-10126259","year":1952,"month":3,"state":"TN","stateName":"Tennessee","scale":3,"scaleLabel":"F3","lengthMiles":0.1,"deaths":0,"injuries":3}},{"type":"Feature","geometry":{"type":"Point","coordinates":[-88.5,35.93]},"properties":{"id":"ncei-1952-10126260","year":1952,"month":3,"state":"TN","stateName":"Tennessee","scale":2,"scaleLabel":"F2","lengthMiles":0.1,"deaths":1,"injuries":8}},{"type":"Feature","geometry":{"type":"Point","coordinates":[-88.27,36.02]},"properties":{"id":"ncei-1952-10126261","year":1952,"month":3,"state":"TN","stateName":"Tennessee","scale":3,"scaleLabel":"F3","lengthMiles":5.1,"deaths":0,"injuries":19}},{"type":"Feature","geometry":{"type":"Point","coordinates":[-88.98,35.27]},"properties":{"id":"ncei-1952-10126262","year":1952,"month":3,"state":"TN","stateName":"Tennessee","scale":4,"scaleLabel":"F4","lengthMiles":11.1,"deaths":4,"injuries":14}},{"type":"Feature","geometry":{"type":"Point","coordinates":[-87.68,35.85]},"properties":{"id":"ncei-1952-10126263","year":1952,"month":3,"state":"TN","stateName":"Tennessee","scale":2,"scaleLabel":"F2","lengthMiles":0.3,"deaths":0,"injuries":0}},{"type":"Feature","geometry":{"type":"Point","coordinates":[-88.82,35.35]},"properties":{"id":"ncei-1952-10126264","year":1952,"month":3,"state":"TN","stateName":"Tennessee","scale":4,"scaleLabel":"F4","lengthMiles":19.8,"deaths":23,"injuries":100}},{"type":"Feature","geometry":{"type":"Point","coordinates":[-87.58,35.87]},"properties":{"id":"ncei-1952-10126265","year":1952,"month":3,"state":"TN","stateName":"Tennessee","scale":2,"scaleLabel":"F2","lengthMiles":0.5,"deaths":3,"injuries":10}},{"type":"Feature","geometry":{"type":"Point","coordinates":[-88.52,35.5]},"properties":{"id":"ncei-1952-10126266","year":1952,"month":3,"state":"TN","stateName":"Tennessee","scale":4,"scaleLabel":"F4","lengthMiles":15.9,"deaths":11,"injuries":43}},{"type":"Feature","geometry":{"type":"Point","coordinates":[-85.93,36.25]},"properties":{"id":"ncei-1952-10126267","year":1952,"month":3,"state":"TN","stateName":"Tennessee","scale":1,"scaleLabel":"F1","lengthMiles":0.3,"deaths":0,"injuries":1}},{"type":"Feature","geometry":{"type":"Point","coordinates":[-86.77,36.03]},"properties":{"id":"ncei-1952-10126268","year":1952,"month":6,"state":"TN","stateName":"Tennessee","scale":1,"scaleLabel":"F1","lengthMiles":0.3,"deaths":0,"injuries":0}},{"type":"Feature","geometry":{"type":"Point","coordinates":[-92.63,45.42]},"properties":{"id":"ncei-1952-10146814","year":1952,"month":6,"state":"WI","stateName":"Wisconsin","scale":3,"scaleLabel":"F3","lengthMiles":18.2,"deaths":2,"injuries":6}},{"type":"Feature","geometry":{"type":"Point","coordinates":[-78.83,38.22]},"properties":{"id":"ncei-1952-10153064","year":1952,"month":4,"state":"VA","stateName":"Virginia","scale":2,"scaleLabel":"F2","lengthMiles":1,"deaths":0,"injuries":2}},{"type":"Feature","geometry":{"type":"Point","coordinates":[-78.73,38.37]},"properties":{"id":"ncei-1952-10153065","year":1952,"month":4,"state":"VA","stateName":"Virginia","scale":2,"scaleLabel":"F2","lengthMiles":4.9,"deaths":0,"injuries":0}},{"type":"Feature","geometry":{"type":"Point","coordinates":[-77.15,38.78]},"properties":{"id":"ncei-1952-10153066","year":1952,"month":8,"state":"VA","stateName":"Virginia","scale":1,"scaleLabel":"F1","lengthMiles":2,"deaths":0,"injuries":0}},{"type":"Feature","geometry":{"type":"Point","coordinates":[-104.33,42.93]},"properties":{"id":"ncei-1952-10162816","year":1952,"month":5,"state":"WY","stateName":"Wyoming","scale":1,"scaleLabel":"F1","lengthMiles":2,"deaths":0,"injuries":0}},{"type":"Feature","geometry":{"type":"Point","coordinates":[-85.97,32.92]},"properties":{"id":"ncei-1952-9979429","year":1952,"month":1,"state":"AL","stateName":"Alabama","scale":1,"scaleLabel":"F1","lengthMiles":0,"deaths":0,"injuries":0}},{"type":"Feature","geometry":{"type":"Point","coordinates":[-87.67,33.57]},"properties":{"id":"ncei-1952-9979430","year":1952,"month":2,"state":"AL","stateName":"Alabama","scale":3,"scaleLabel":"F3","lengthMiles":3.3,"deaths":1,"injuries":14}},{"type":"Feature","geometry":{"type":"Point","coordinates":[-87.63,33.6]},"properties":{"id":"ncei-1952-9979431","year":1952,"month":2,"state":"AL","stateName":"Alabama","scale":3,"scaleLabel":"F3","lengthMiles":2.3,"deaths":0,"injuries":0}},{"type":"Feature","geometry":{"type":"Point","coordinates":[-86.75,34.02]},"properties":{"id":"ncei-1952-9979432","year":1952,"month":2,"state":"AL","stateName":"Alabama","scale":1,"scaleLabel":"F1","lengthMiles":1.3,"deaths":0,"injuries":3}},{"type":"Feature","geometry":{"type":"Point","coordinates":[-86.73,34.03]},"properties":{"id":"ncei-1952-9979433","year":1952,"month":2,"state":"AL","stateName":"Alabama","scale":1,"scaleLabel":"F1","lengthMiles":4.7,"deaths":0,"injuries":3}},{"type":"Feature","geometry":{"type":"Point","coordinates":[-86.93,33.6]},"properties":{"id":"ncei-1952-9979434","year":1952,"month":2,"state":"AL","stateName":"Alabama","scale":3,"scaleLabel":"F3","lengthMiles":0,"deaths":1,"injuries":26}},{"type":"Feature","geometry":{"type":"Point","coordinates":[-85.7,34.5]},"properties":{"id":"ncei-1952-9979435","year":1952,"month":2,"state":"AL","stateName":"Alabama","scale":3,"scaleLabel":"F3","lengthMiles":3.3,"deaths":0,"injuries":12}},{"type":"Feature","geometry":{"type":"Point","coordinates":[-87.9,33.33]},"properties":{"id":"ncei-1952-9979436","year":1952,"month":3,"state":"AL","stateName":"Alabama","scale":3,"scaleLabel":"F3","lengthMiles":3.3,"deaths":0,"injuries":6}},{"type":"Feature","geometry":{"type":"Point","coordinates":[-87,34.6]},"properties":{"id":"ncei-1952-9979437","year":1952,"month":3,"state":"AL","stateName":"Alabama","scale":4,"scaleLabel":"F4","lengthMiles":21.6,"deaths":4,"injuries":50}},{"type":"Feature","geometry":{"type":"Point","coordinates":[-88.28,30.7]},"properties":{"id":"ncei-1952-9979438","year":1952,"month":4,"state":"AL","stateName":"Alabama","scale":1,"scaleLabel":"F1","lengthMiles":0.2,"deaths":0,"injuries":2}},{"type":"Feature","geometry":{"type":"Point","coordinates":[-87.75,33.73]},"properties":{"id":"ncei-1952-9979439","year":1952,"month":5,"state":"AL","stateName":"Alabama","scale":1,"scaleLabel":"F1","lengthMiles":0.2,"deaths":0,"injuries":0}},{"type":"Feature","geometry":{"type":"Point","coordinates":[-87.75,33.73]},"properties":{"id":"ncei-1952-9979440","year":1952,"month":5,"state":"AL","stateName":"Alabama","scale":1,"scaleLabel":"F1","lengthMiles":0.2,"deaths":0,"injuries":0}},{"type":"Feature","geometry":{"type":"Point","coordinates":[-87.75,33.73]},"properties":{"id":"ncei-1952-9979441","year":1952,"month":5,"state":"AL","stateName":"Alabama","scale":1,"scaleLabel":"F1","lengthMiles":0.2,"deaths":0,"injuries":0}},{"type":"Feature","geometry":{"type":"Point","coordinates":[-112.57,35.13]},"properties":{"id":"ncei-1952-9982822","year":1952,"month":11,"state":"AZ","stateName":"Arizona","scale":-1,"scaleLabel":"Unknown","lengthMiles":0.2,"deaths":0,"injuries":0}},{"type":"Feature","geometry":{"type":"Point","coordinates":[-91.4,34.42]},"properties":{"id":"ncei-1952-9983009","year":1952,"month":1,"state":"AR","stateName":"Arkansas","scale":1,"scaleLabel":"F1","lengthMiles":0,"deaths":0,"injuries":0}},{"type":"Feature","geometry":{"type":"Point","coordinates":[-91.55,34.48]},"properties":{"id":"ncei-1952-9983010","year":1952,"month":1,"state":"AR","stateName":"Arkansas","scale":1,"scaleLabel":"F1","lengthMiles":0,"deaths":0,"injuries":0}},{"type":"Feature","geometry":{"type":"Point","coordinates":[-90.15,35.95]},"properties":{"id":"ncei-1952-9983011","year":1952,"month":2,"state":"AR","stateName":"Arkansas","scale":2,"scaleLabel":"F2","lengthMiles":0.3,"deaths":0,"injuries":5}},{"type":"Feature","geometry":{"type":"Point","coordinates":[-93.93,35.13]},"properties":{"id":"ncei-1952-9983012","year":1952,"month":3,"state":"AR","stateName":"Arkansas","scale":1,"scaleLabel":"F1","lengthMiles":0.6,"deaths":0,"injuries":0}},{"type":"Feature","geometry":{"type":"Point","coordinates":[-94.02,34.02]},"properties":{"id":"ncei-1952-9983013","year":1952,"month":3,"state":"AR","stateName":"Arkansas","scale":4,"scaleLabel":"F4","lengthMiles":13,"deaths":7,"injuries":9}},{"type":"Feature","geometry":{"type":"Point","coordinates":[-92.82,34.72]},"properties":{"id":"ncei-1952-9983014","year":1952,"month":3,"state":"AR","stateName":"Arkansas","scale":3,"scaleLabel":"F3","lengthMiles":17.7,"deaths":0,"injuries":0}},{"type":"Feature","geometry":{"type":"Point","coordinates":[-91.7,35.22]},"properties":{"id":"ncei-1952-9983015","year":1952,"month":3,"state":"AR","stateName":"Arkansas","scale":4,"scaleLabel":"F4","lengthMiles":14.6,"deaths":50,"injuries":325}},{"type":"Feature","geometry":{"type":"Point","coordinates":[-92.42,34.95]},"properties":{"id":"ncei-1952-9983016","year":1952,"month":3,"state":"AR","stateName":"Arkansas","scale":2,"scaleLabel":"F2","lengthMiles":0,"deaths":0,"injuries":6}},{"type":"Feature","geometry":{"type":"Point","coordinates":[-91.8,34.53]},"properties":{"id":"ncei-1952-9983017","year":1952,"month":3,"state":"AR","stateName":"Arkansas","scale":3,"scaleLabel":"F3","lengthMiles":16.2,"deaths":9,"injuries":9}},{"type":"Feature","geometry":{"type":"Point","coordinates":[-91.85,34.9]},"properties":{"id":"ncei-1952-9983018","year":1952,"month":3,"state":"AR","stateName":"Arkansas","scale":4,"scaleLabel":"F4","lengthMiles":7.6,"deaths":2,"injuries":6}},{"type":"Feature","geometry":{"type":"Point","coordinates":[-91.57,34.72]},"properties":{"id":"ncei-1952-9983019","year":1952,"month":3,"state":"AR","stateName":"Arkansas","scale":-1,"scaleLabel":"Unknown","lengthMiles":0,"deaths":1,"injuries":5}},{"type":"Feature","geometry":{"type":"Point","coordinates":[-91.8,34.8]},"properties":{"id":"ncei-1952-9983020","year":1952,"month":3,"state":"AR","stateName":"Arkansas","scale":2,"scaleLabel":"F2","lengthMiles":13.3,"deaths":5,"injuries":15}},{"type":"Feature","geometry":{"type":"Point","coordinates":[-91.45,35.13]},"properties":{"id":"ncei-1952-9983021","year":1952,"month":3,"state":"AR","stateName":"Arkansas","scale":3,"scaleLabel":"F3","lengthMiles":17.6,"deaths":0,"injuries":0}},{"type":"Feature","geometry":{"type":"Point","coordinates":[-91.25,35]},"properties":{"id":"ncei-1952-9983022","year":1952,"month":3,"state":"AR","stateName":"Arkansas","scale":4,"scaleLabel":"F4","lengthMiles":13.1,"deaths":29,"injuries":180}},{"type":"Feature","geometry":{"type":"Point","coordinates":[-91.2,35.47]},"properties":{"id":"ncei-1952-9983023","year":1952,"month":3,"state":"AR","stateName":"Arkansas","scale":3,"scaleLabel":"F3","lengthMiles":9.6,"deaths":0,"injuries":6}},{"type":"Feature","geometry":{"type":"Point","coordinates":[-91.05,35.53]},"properties":{"id":"ncei-1952-9983024","year":1952,"month":3,"state":"AR","stateName":"Arkansas","scale":3,"scaleLabel":"F3","lengthMiles":18.9,"deaths":0,"injuries":0}},{"type":"Feature","geometry":{"type":"Point","coordinates":[-91,35.42]},"properties":{"id":"ncei-1952-9983025","year":1952,"month":3,"state":"AR","stateName":"Arkansas","scale":4,"scaleLabel":"F4","lengthMiles":0,"deaths":4,"injuries":5}},{"type":"Feature","geometry":{"type":"Point","coordinates":[-90.72,35.6]},"properties":{"id":"ncei-1952-9983026","year":1952,"month":3,"state":"AR","stateName":"Arkansas","scale":3,"scaleLabel":"F3","lengthMiles":12.1,"deaths":2,"injuries":39}},{"type":"Feature","geometry":{"type":"Point","coordinates":[-90.42,35.53]},"properties":{"id":"ncei-1952-9983027","year":1952,"month":3,"state":"AR","stateName":"Arkansas","scale":3,"scaleLabel":"F3","lengthMiles":9.4,"deaths":1,"injuries":5}},{"type":"Feature","geometry":{"type":"Point","coordinates":[-90.52,35.67]},"properties":{"id":"ncei-1952-9983028","year":1952,"month":3,"state":"AR","stateName":"Arkansas","scale":3,"scaleLabel":"F3","lengthMiles":39.7,"deaths":1,"injuries":57}},{"type":"Feature","geometry":{"type":"Point","coordinates":[-90.52,35.67]},"properties":{"id":"ncei-1952-9983029","year":1952,"month":3,"state":"AR","stateName":"Arkansas","scale":3,"scaleLabel":"F3","lengthMiles":39.7,"deaths":1,"injuries":57}},{"type":"Feature","geometry":{"type":"Point","coordinates":[-93.25,33.32]},"properties":{"id":"ncei-1952-9983030","year":1952,"month":4,"state":"AR","stateName":"Arkansas","scale":1,"scaleLabel":"F1","lengthMiles":0.3,"deaths":0,"injuries":0}},{"type":"Feature","geometry":{"type":"Point","coordinates":[-91.63,35.9]},"properties":{"id":"ncei-1952-9983031","year":1952,"month":4,"state":"AR","stateName":"Arkansas","scale":1,"scaleLabel":"F1","lengthMiles":0,"deaths":0,"injuries":0}},{"type":"Feature","geometry":{"type":"Point","coordinates":[-90.93,36.12]},"properties":{"id":"ncei-1952-9983032","year":1952,"month":6,"state":"AR","stateName":"Arkansas","scale":2,"scaleLabel":"F2","lengthMiles":0,"deaths":0,"injuries":0}},{"type":"Feature","geometry":{"type":"Point","coordinates":[-92.08,34.7]},"properties":{"id":"ncei-1952-9983033","year":1952,"month":6,"state":"AR","stateName":"Arkansas","scale":0,"scaleLabel":"F0","lengthMiles":0,"deaths":0,"injuries":0}},{"type":"Feature","geometry":{"type":"Point","coordinates":[-93.97,33.45]},"properties":{"id":"ncei-1952-9983034","year":1952,"month":7,"state":"AR","stateName":"Arkansas","scale":2,"scaleLabel":"F2","lengthMiles":1.1,"deaths":0,"injuries":0}},{"type":"Feature","geometry":{"type":"Point","coordinates":[-93.97,33.45]},"properties":{"id":"ncei-1952-9983035","year":1952,"month":7,"state":"AR","stateName":"Arkansas","scale":2,"scaleLabel":"F2","lengthMiles":1.1,"deaths":0,"injuries":0}},{"type":"Feature","geometry":{"type":"Point","coordinates":[-94.4,34.57]},"properties":{"id":"ncei-1952-9983036","year":1952,"month":11,"state":"AR","stateName":"Arkansas","scale":2,"scaleLabel":"F2","lengthMiles":11.4,"deaths":0,"injuries":0}},{"type":"Feature","geometry":{"type":"Point","coordinates":[-94.28,34.7]},"properties":{"id":"ncei-1952-9983037","year":1952,"month":11,"state":"AR","stateName":"Arkansas","scale":2,"scaleLabel":"F2","lengthMiles":27.8,"deaths":0,"injuries":2}},{"type":"Feature","geometry":{"type":"Point","coordinates":[-85.25,30.47]},"properties":{"id":"ncei-1952-9985769","year":1952,"month":1,"state":"FL","stateName":"Florida","scale":1,"scaleLabel":"F1","lengthMiles":0.5,"deaths":0,"injuries":3}},{"type":"Feature","geometry":{"type":"Point","coordinates":[-84.23,30.5]},"properties":{"id":"ncei-1952-9985770","year":1952,"month":1,"state":"FL","stateName":"Florida","scale":2,"scaleLabel":"F2","lengthMiles":1.5,"deaths":0,"injuries":0}},{"type":"Feature","geometry":{"type":"Point","coordinates":[-85.7,30.17]},"properties":{"id":"ncei-1952-9985771","year":1952,"month":2,"state":"FL","stateName":"Florida","scale":2,"scaleLabel":"F2","lengthMiles":1.5,"deaths":0,"injuries":4}},{"type":"Feature","geometry":{"type":"Point","coordinates":[-118.53,34.4]},"properties":{"id":"ncei-1952-9990146","year":1952,"month":12,"state":"CA","stateName":"California","scale":-1,"scaleLabel":"Unknown","lengthMiles":0,"deaths":0,"injuries":0}},{"type":"Feature","geometry":{"type":"Point","coordinates":[-80.12,26.57]},"properties":{"id":"ncei-1952-9991239","year":1952,"month":2,"state":"FL","stateName":"Florida","scale":1,"scaleLabel":"F1","lengthMiles":1.5,"deaths":0,"injuries":0}},{"type":"Feature","geometry":{"type":"Point","coordinates":[-102.6,39.48]},"properties":{"id":"ncei-1952-9991336","year":1952,"month":5,"state":"CO","stateName":"Colorado","scale":2,"scaleLabel":"F2","lengthMiles":2.5,"deaths":0,"injuries":1}},{"type":"Feature","geometry":{"type":"Point","coordinates":[-104.57,40.33]},"properties":{"id":"ncei-1952-9991337","year":1952,"month":5,"state":"CO","stateName":"Colorado","scale":3,"scaleLabel":"F3","lengthMiles":7.4,"deaths":0,"injuries":5}},{"type":"Feature","geometry":{"type":"Point","coordinates":[-103.6,40]},"properties":{"id":"ncei-1952-9991338","year":1952,"month":6,"state":"CO","stateName":"Colorado","scale":2,"scaleLabel":"F2","lengthMiles":7,"deaths":0,"injuries":0}},{"type":"Feature","geometry":{"type":"Point","coordinates":[-85.7,30.17]},"properties":{"id":"ncei-1952-9991450","year":1952,"month":4,"state":"FL","stateName":"Florida","scale":1,"scaleLabel":"F1","lengthMiles":0,"deaths":0,"injuries":1}},{"type":"Feature","geometry":{"type":"Point","coordinates":[-82.38,28.55]},"properties":{"id":"ncei-1952-9991451","year":1952,"month":5,"state":"FL","stateName":"Florida","scale":0,"scaleLabel":"F0","lengthMiles":0,"deaths":0,"injuries":1}},{"type":"Feature","geometry":{"type":"Point","coordinates":[-82.82,27.93]},"properties":{"id":"ncei-1952-9991452","year":1952,"month":5,"state":"FL","stateName":"Florida","scale":2,"scaleLabel":"F2","lengthMiles":0.1,"deaths":0,"injuries":0}},{"type":"Feature","geometry":{"type":"Point","coordinates":[-82.62,27.77]},"properties":{"id":"ncei-1952-9991453","year":1952,"month":6,"state":"FL","stateName":"Florida","scale":1,"scaleLabel":"F1","lengthMiles":2.5,"deaths":0,"injuries":0}},{"type":"Feature","geometry":{"type":"Point","coordinates":[-82.65,27.75]},"properties":{"id":"ncei-1952-9991454","year":1952,"month":6,"state":"FL","stateName":"Florida","scale":1,"scaleLabel":"F1","lengthMiles":0,"deaths":0,"injuries":0}},{"type":"Feature","geometry":{"type":"Point","coordinates":[-80.22,26.77]},"properties":{"id":"ncei-1952-9991455","year":1952,"month":8,"state":"FL","stateName":"Florida","scale":1,"scaleLabel":"F1","lengthMiles":0.2,"deaths":0,"injuries":0}}]}
