{"type":"FeatureCollection","metadata":{"source":"NOAA/NCEI StormEvents details CSV","generatedAt":"2026-04-27T22:31:07.075Z","count":27,"year":2026},"features":[{"type":"Feature","geometry":{"type":"Point","coordinates":[-96.327,36.538]},"properties":{"id":"ncei-2026-1299990","year":2026,"month":1,"state":"OK","stateName":"Oklahoma","scale":1,"scaleLabel":"EF1","lengthMiles":0.8,"deaths":0,"injuries":0}},{"type":"Feature","geometry":{"type":"Point","coordinates":[-85.4927,33.7984]},"properties":{"id":"ncei-2026-1300187","year":2026,"month":1,"state":"AL","stateName":"Alabama","scale":0,"scaleLabel":"EF0","lengthMiles":7.4,"deaths":0,"injuries":0}},{"type":"Feature","geometry":{"type":"Point","coordinates":[-88.971,31.8682]},"properties":{"id":"ncei-2026-1302401","year":2026,"month":1,"state":"MS","stateName":"Mississippi","scale":1,"scaleLabel":"EF1","lengthMiles":3.95,"deaths":0,"injuries":0}},{"type":"Feature","geometry":{"type":"Point","coordinates":[-88.911,31.894]},"properties":{"id":"ncei-2026-1302402","year":2026,"month":1,"state":"MS","stateName":"Mississippi","scale":1,"scaleLabel":"EF1","lengthMiles":6.3,"deaths":0,"injuries":0}},{"type":"Feature","geometry":{"type":"Point","coordinates":[-89.1478,31.7369]},"properties":{"id":"ncei-2026-1302403","year":2026,"month":1,"state":"MS","stateName":"Mississippi","scale":0,"scaleLabel":"EF0","lengthMiles":0.32,"deaths":0,"injuries":0}},{"type":"Feature","geometry":{"type":"Point","coordinates":[-89.3138,31.8392]},"properties":{"id":"ncei-2026-1302404","year":2026,"month":1,"state":"MS","stateName":"Mississippi","scale":0,"scaleLabel":"EF0","lengthMiles":0.6,"deaths":0,"injuries":0}},{"type":"Feature","geometry":{"type":"Point","coordinates":[-89.796,31.5307]},"properties":{"id":"ncei-2026-1302405","year":2026,"month":1,"state":"MS","stateName":"Mississippi","scale":1,"scaleLabel":"EF1","lengthMiles":5.24,"deaths":0,"injuries":0}},{"type":"Feature","geometry":{"type":"Point","coordinates":[-90.1325,31.6431]},"properties":{"id":"ncei-2026-1302408","year":2026,"month":1,"state":"MS","stateName":"Mississippi","scale":0,"scaleLabel":"EF0","lengthMiles":0.72,"deaths":0,"injuries":0}},{"type":"Feature","geometry":{"type":"Point","coordinates":[-86.4555,32.2218]},"properties":{"id":"ncei-2026-1304055","year":2026,"month":1,"state":"AL","stateName":"Alabama","scale":1,"scaleLabel":"EF1","lengthMiles":2.75,"deaths":0,"injuries":0}},{"type":"Feature","geometry":{"type":"Point","coordinates":[-86.4086,32.2215]},"properties":{"id":"ncei-2026-1304056","year":2026,"month":1,"state":"AL","stateName":"Alabama","scale":0,"scaleLabel":"EF0","lengthMiles":0.56,"deaths":0,"injuries":0}},{"type":"Feature","geometry":{"type":"Point","coordinates":[-89.7519,32.7595]},"properties":{"id":"ncei-2026-1305947","year":2026,"month":1,"state":"MS","stateName":"Mississippi","scale":0,"scaleLabel":"EF0","lengthMiles":1.48,"deaths":0,"injuries":0}},{"type":"Feature","geometry":{"type":"Point","coordinates":[-89.7305,32.771]},"properties":{"id":"ncei-2026-1305948","year":2026,"month":1,"state":"MS","stateName":"Mississippi","scale":0,"scaleLabel":"EF0","lengthMiles":3.13,"deaths":0,"injuries":0}},{"type":"Feature","geometry":{"type":"Point","coordinates":[-90.04,31.11]},"properties":{"id":"ncei-2026-1305971","year":2026,"month":1,"state":"MS","stateName":"Mississippi","scale":1,"scaleLabel":"EF1","lengthMiles":3.82,"deaths":0,"injuries":0}},{"type":"Feature","geometry":{"type":"Point","coordinates":[-90.006,31.157]},"properties":{"id":"ncei-2026-1306721","year":2026,"month":1,"state":"MS","stateName":"Mississippi","scale":1,"scaleLabel":"EF1","lengthMiles":2.99,"deaths":0,"injuries":0}},{"type":"Feature","geometry":{"type":"Point","coordinates":[-93.2911,31.999]},"properties":{"id":"ncei-2026-1308441","year":2026,"month":1,"state":"LA","stateName":"Louisiana","scale":1,"scaleLabel":"EF1","lengthMiles":0.37,"deaths":0,"injuries":0}},{"type":"Feature","geometry":{"type":"Point","coordinates":[-85.048,33.4539]},"properties":{"id":"ncei-2026-1310115","year":2026,"month":1,"state":"GA","stateName":"Georgia","scale":1,"scaleLabel":"EF1","lengthMiles":1.03,"deaths":0,"injuries":0}},{"type":"Feature","geometry":{"type":"Point","coordinates":[-111.2361,32.109]},"properties":{"id":"ncei-2026-1310424","year":2026,"month":1,"state":"AZ","stateName":"Arizona","scale":-1,"scaleLabel":"Unknown","lengthMiles":0.38,"deaths":0,"injuries":0}},{"type":"Feature","geometry":{"type":"Point","coordinates":[-97.443,34.967]},"properties":{"id":"ncei-2026-1311609","year":2026,"month":1,"state":"OK","stateName":"Oklahoma","scale":2,"scaleLabel":"EF2","lengthMiles":6.5,"deaths":0,"injuries":0}},{"type":"Feature","geometry":{"type":"Point","coordinates":[-97.354,35.025]},"properties":{"id":"ncei-2026-1311610","year":2026,"month":1,"state":"OK","stateName":"Oklahoma","scale":0,"scaleLabel":"EF0","lengthMiles":2.9,"deaths":0,"injuries":0}},{"type":"Feature","geometry":{"type":"Point","coordinates":[-97.229,35.241]},"properties":{"id":"ncei-2026-1311611","year":2026,"month":1,"state":"OK","stateName":"Oklahoma","scale":0,"scaleLabel":"EF0","lengthMiles":1.8,"deaths":0,"injuries":0}},{"type":"Feature","geometry":{"type":"Point","coordinates":[-97.145,35.319]},"properties":{"id":"ncei-2026-1311612","year":2026,"month":1,"state":"OK","stateName":"Oklahoma","scale":0,"scaleLabel":"EF0","lengthMiles":0.25,"deaths":0,"injuries":0}},{"type":"Feature","geometry":{"type":"Point","coordinates":[-97.142,35.321]},"properties":{"id":"ncei-2026-1311613","year":2026,"month":1,"state":"OK","stateName":"Oklahoma","scale":1,"scaleLabel":"EF1","lengthMiles":3.7,"deaths":0,"injuries":0}},{"type":"Feature","geometry":{"type":"Point","coordinates":[-96.94,35.369]},"properties":{"id":"ncei-2026-1311614","year":2026,"month":1,"state":"OK","stateName":"Oklahoma","scale":1,"scaleLabel":"EF1","lengthMiles":2.6,"deaths":0,"injuries":0}},{"type":"Feature","geometry":{"type":"Point","coordinates":[-86.2036,30.7907]},"properties":{"id":"ncei-2026-1311727","year":2026,"month":1,"state":"FL","stateName":"Florida","scale":1,"scaleLabel":"EF1","lengthMiles":1.09,"deaths":0,"injuries":0}},{"type":"Feature","geometry":{"type":"Point","coordinates":[-85.8784,31.0369]},"properties":{"id":"ncei-2026-1311728","year":2026,"month":1,"state":"AL","stateName":"Alabama","scale":2,"scaleLabel":"EF2","lengthMiles":3.61,"deaths":0,"injuries":0}},{"type":"Feature","geometry":{"type":"Point","coordinates":[-85.2439,31.3001]},"properties":{"id":"ncei-2026-1311729","year":2026,"month":1,"state":"AL","stateName":"Alabama","scale":1,"scaleLabel":"EF1","lengthMiles":8.6,"deaths":0,"injuries":0}},{"type":"Feature","geometry":{"type":"Point","coordinates":[-85.3718,31.0227]},"properties":{"id":"ncei-2026-1311730","year":2026,"month":1,"state":"AL","stateName":"Alabama","scale":0,"scaleLabel":"EF0","lengthMiles":0.09,"deaths":0,"injuries":0}}]}
