{"type":"FeatureCollection","metadata":{"source":"NOAA/NCEI StormEvents details CSV","generatedAt":"2026-04-27T22:31:07.075Z","count":27,"year":2026},"features":[{"type":"Feature","geometry":{"type":"LineString","coordinates":[[-96.327,36.538],[-96.318,36.547]]},"properties":{"id":"ncei-2026-1299990","eventId":"1299990","episodeId":"208639","year":2026,"month":1,"date":"2026-01-08","beginTime":"2026-01-08T08:41:00","endTime":"2026-01-08T08:42:00","timezone":"CST-6","state":"OK","stateName":"Oklahoma","county":"Osage","countyFips":"113","wfo":"TSA","scale":1,"scaleLabel":"EF1","lengthMiles":0.8,"widthYards":100,"deaths":0,"injuries":0,"propertyDamage":200000,"cropDamage":0,"source":"NWS Storm Survey","dataSource":"CSV"}},{"type":"Feature","geometry":{"type":"LineString","coordinates":[[-85.4927,33.7984],[-85.3848,33.8563]]},"properties":{"id":"ncei-2026-1300187","eventId":"1300187","episodeId":"208752","year":2026,"month":1,"date":"2026-01-10","beginTime":"2026-01-10T06:48:00","endTime":"2026-01-10T06:59:00","timezone":"CST-6","state":"AL","stateName":"Alabama","county":"Cleburne","countyFips":"29","wfo":"BMX","scale":0,"scaleLabel":"EF0","lengthMiles":7.4,"widthYards":75,"deaths":0,"injuries":0,"propertyDamage":0,"cropDamage":0,"source":"NWS Storm Survey","dataSource":"CSV"}},{"type":"Feature","geometry":{"type":"LineString","coordinates":[[-88.971,31.8682],[-88.911,31.894]]},"properties":{"id":"ncei-2026-1302401","eventId":"1302401","episodeId":"209081","year":2026,"month":1,"date":"2026-01-10","beginTime":"2026-01-10T05:41:00","endTime":"2026-01-10T05:47:00","timezone":"CST-6","state":"MS","stateName":"Mississippi","county":"Jasper","countyFips":"61","wfo":"JAN","scale":1,"scaleLabel":"EF1","lengthMiles":3.95,"widthYards":300,"deaths":0,"injuries":0,"propertyDamage":125000,"cropDamage":0,"source":"NWS Storm Survey","dataSource":"CSV"}},{"type":"Feature","geometry":{"type":"LineString","coordinates":[[-88.911,31.894],[-88.8365,31.9597]]},"properties":{"id":"ncei-2026-1302402","eventId":"1302402","episodeId":"209081","year":2026,"month":1,"date":"2026-01-10","beginTime":"2026-01-10T05:47:00","endTime":"2026-01-10T05:56:00","timezone":"CST-6","state":"MS","stateName":"Mississippi","county":"Clarke","countyFips":"23","wfo":"JAN","scale":1,"scaleLabel":"EF1","lengthMiles":6.3,"widthYards":300,"deaths":0,"injuries":0,"propertyDamage":175000,"cropDamage":0,"source":"NWS Storm Survey","dataSource":"CSV"}},{"type":"Feature","geometry":{"type":"LineString","coordinates":[[-89.1478,31.7369],[-89.1443,31.7404]]},"properties":{"id":"ncei-2026-1302403","eventId":"1302403","episodeId":"209081","year":2026,"month":1,"date":"2026-01-09","beginTime":"2026-01-09T08:47:00","endTime":"2026-01-09T08:48:00","timezone":"CST-6","state":"MS","stateName":"Mississippi","county":"Jones","countyFips":"67","wfo":"JAN","scale":0,"scaleLabel":"EF0","lengthMiles":0.32,"widthYards":50,"deaths":0,"injuries":0,"propertyDamage":50000,"cropDamage":0,"source":"NWS Storm Survey","dataSource":"CSV"}},{"type":"Feature","geometry":{"type":"LineString","coordinates":[[-89.3138,31.8392],[-89.3037,31.8408]]},"properties":{"id":"ncei-2026-1302404","eventId":"1302404","episodeId":"209081","year":2026,"month":1,"date":"2026-01-10","beginTime":"2026-01-10T04:06:00","endTime":"2026-01-10T04:07:00","timezone":"CST-6","state":"MS","stateName":"Mississippi","county":"Jasper","countyFips":"61","wfo":"JAN","scale":0,"scaleLabel":"EF0","lengthMiles":0.6,"widthYards":70,"deaths":0,"injuries":0,"propertyDamage":15000,"cropDamage":0,"source":"NWS Storm Survey","dataSource":"CSV"}},{"type":"Feature","geometry":{"type":"LineString","coordinates":[[-89.796,31.5307],[-89.7192,31.5689]]},"properties":{"id":"ncei-2026-1302405","eventId":"1302405","episodeId":"209081","year":2026,"month":1,"date":"2026-01-10","beginTime":"2026-01-10T04:21:00","endTime":"2026-01-10T04:31:00","timezone":"CST-6","state":"MS","stateName":"Mississippi","county":"Jefferson Davis","countyFips":"65","wfo":"JAN","scale":1,"scaleLabel":"EF1","lengthMiles":5.24,"widthYards":350,"deaths":0,"injuries":0,"propertyDamage":250000,"cropDamage":0,"source":"NWS Storm Survey","dataSource":"CSV"}},{"type":"Feature","geometry":{"type":"LineString","coordinates":[[-90.1325,31.6431],[-90.1228,31.6494]]},"properties":{"id":"ncei-2026-1302408","eventId":"1302408","episodeId":"209081","year":2026,"month":1,"date":"2026-01-10","beginTime":"2026-01-10T01:58:00","endTime":"2026-01-10T01:59:00","timezone":"CST-6","state":"MS","stateName":"Mississippi","county":"Lawrence","countyFips":"77","wfo":"JAN","scale":0,"scaleLabel":"EF0","lengthMiles":0.72,"widthYards":75,"deaths":0,"injuries":0,"propertyDamage":5000,"cropDamage":0,"source":"NWS Storm Survey","dataSource":"CSV"}},{"type":"Feature","geometry":{"type":"LineString","coordinates":[[-86.4555,32.2218],[-86.4086,32.2215]]},"properties":{"id":"ncei-2026-1304055","eventId":"1304055","episodeId":"209071","year":2026,"month":1,"date":"2026-01-25","beginTime":"2026-01-25T11:16:00","endTime":"2026-01-25T11:19:00","timezone":"CST-6","state":"AL","stateName":"Alabama","county":"Lowndes","countyFips":"85","wfo":"BMX","scale":1,"scaleLabel":"EF1","lengthMiles":2.75,"widthYards":65,"deaths":0,"injuries":0,"propertyDamage":0,"cropDamage":0,"source":"NWS Storm Survey","dataSource":"CSV"}},{"type":"Feature","geometry":{"type":"LineString","coordinates":[[-86.4086,32.2215],[-86.3995,32.2191]]},"properties":{"id":"ncei-2026-1304056","eventId":"1304056","episodeId":"209071","year":2026,"month":1,"date":"2026-01-25","beginTime":"2026-01-25T11:19:00","endTime":"2026-01-25T11:20:00","timezone":"CST-6","state":"AL","stateName":"Alabama","county":"Montgomery","countyFips":"101","wfo":"BMX","scale":0,"scaleLabel":"EF0","lengthMiles":0.56,"widthYards":65,"deaths":0,"injuries":0,"propertyDamage":0,"cropDamage":0,"source":"NWS Storm Survey","dataSource":"CSV"}},{"type":"Feature","geometry":{"type":"LineString","coordinates":[[-89.7519,32.7595],[-89.7305,32.771]]},"properties":{"id":"ncei-2026-1305947","eventId":"1305947","episodeId":"209081","year":2026,"month":1,"date":"2026-01-09","beginTime":"2026-01-09T06:29:00","endTime":"2026-01-09T06:33:00","timezone":"CST-6","state":"MS","stateName":"Mississippi","county":"Madison","countyFips":"89","wfo":"JAN","scale":0,"scaleLabel":"EF0","lengthMiles":1.48,"widthYards":75,"deaths":0,"injuries":0,"propertyDamage":10000,"cropDamage":0,"source":"NWS Storm Survey","dataSource":"CSV"}},{"type":"Feature","geometry":{"type":"LineString","coordinates":[[-89.7305,32.771],[-89.6773,32.778]]},"properties":{"id":"ncei-2026-1305948","eventId":"1305948","episodeId":"209081","year":2026,"month":1,"date":"2026-01-09","beginTime":"2026-01-09T06:33:00","endTime":"2026-01-09T06:38:00","timezone":"CST-6","state":"MS","stateName":"Mississippi","county":"Leake","countyFips":"79","wfo":"JAN","scale":0,"scaleLabel":"EF0","lengthMiles":3.13,"widthYards":75,"deaths":0,"injuries":0,"propertyDamage":10000,"cropDamage":0,"source":"NWS Storm Survey","dataSource":"CSV"}},{"type":"Feature","geometry":{"type":"LineString","coordinates":[[-90.04,31.11],[-90.006,31.157]]},"properties":{"id":"ncei-2026-1305971","eventId":"1305971","episodeId":"209506","year":2026,"month":1,"date":"2026-01-09","beginTime":"2026-01-09T06:23:00","endTime":"2026-01-09T06:33:00","timezone":"CST-6","state":"MS","stateName":"Mississippi","county":"Walthall","countyFips":"147","wfo":"LIX","scale":1,"scaleLabel":"EF1","lengthMiles":3.82,"widthYards":125,"deaths":0,"injuries":0,"propertyDamage":10000,"cropDamage":0,"source":"NWS Storm Survey","dataSource":"CSV"}},{"type":"Feature","geometry":{"type":"LineString","coordinates":[[-90.006,31.157],[-89.984,31.1959]]},"properties":{"id":"ncei-2026-1306721","eventId":"1306721","episodeId":"209081","year":2026,"month":1,"date":"2026-01-09","beginTime":"2026-01-09T06:33:00","endTime":"2026-01-09T06:40:00","timezone":"CST-6","state":"MS","stateName":"Mississippi","county":"Marion","countyFips":"91","wfo":"JAN","scale":1,"scaleLabel":"EF1","lengthMiles":2.99,"widthYards":125,"deaths":0,"injuries":0,"propertyDamage":50000,"cropDamage":0,"source":"NWS Storm Survey","dataSource":"CSV"}},{"type":"Feature","geometry":{"type":"LineString","coordinates":[[-93.2911,31.999],[-93.2855,32.0015]]},"properties":{"id":"ncei-2026-1308441","eventId":"1308441","episodeId":"209822","year":2026,"month":1,"date":"2026-01-10","beginTime":"2026-01-10T00:04:00","endTime":"2026-01-10T00:06:00","timezone":"CST-6","state":"LA","stateName":"Louisiana","county":"Red River","countyFips":"81","wfo":"SHV","scale":1,"scaleLabel":"EF1","lengthMiles":0.37,"widthYards":84,"deaths":0,"injuries":0,"propertyDamage":0,"cropDamage":0,"source":"NWS Storm Survey","dataSource":"CSV"}},{"type":"Feature","geometry":{"type":"LineString","coordinates":[[-85.048,33.4539],[-85.0302,33.455]]},"properties":{"id":"ncei-2026-1310115","eventId":"1310115","episodeId":"210047","year":2026,"month":1,"date":"2026-01-10","beginTime":"2026-01-10T10:54:00","endTime":"2026-01-10T11:01:00","timezone":"EST-5","state":"GA","stateName":"Georgia","county":"Carroll","countyFips":"45","wfo":"FFC","scale":1,"scaleLabel":"EF1","lengthMiles":1.03,"widthYards":150,"deaths":0,"injuries":0,"propertyDamage":0,"cropDamage":0,"source":"NWS Storm Survey","dataSource":"CSV"}},{"type":"Feature","geometry":{"type":"LineString","coordinates":[[-111.2361,32.109],[-111.2297,32.1102]]},"properties":{"id":"ncei-2026-1310424","eventId":"1310424","episodeId":"210116","year":2026,"month":1,"date":"2026-01-01","beginTime":"2026-01-01T13:05:00","endTime":"2026-01-01T13:06:00","timezone":"MST-7","state":"AZ","stateName":"Arizona","county":"Pima","countyFips":"19","wfo":"TWC","scale":-1,"scaleLabel":"Unknown","lengthMiles":0.38,"widthYards":1,"deaths":0,"injuries":0,"propertyDamage":0,"cropDamage":0,"source":"Trained Spotter","dataSource":"CSV"}},{"type":"Feature","geometry":{"type":"LineString","coordinates":[[-97.443,34.967],[-97.354,35.025]]},"properties":{"id":"ncei-2026-1311609","eventId":"1311609","episodeId":"209155","year":2026,"month":1,"date":"2026-01-08","beginTime":"2026-01-08T07:24:00","endTime":"2026-01-08T07:31:00","timezone":"CST-6","state":"OK","stateName":"Oklahoma","county":"Mcclain","countyFips":"87","wfo":"OUN","scale":2,"scaleLabel":"EF2","lengthMiles":6.5,"widthYards":150,"deaths":0,"injuries":0,"propertyDamage":400000,"cropDamage":0,"source":"NWS Storm Survey","dataSource":"CSV"}},{"type":"Feature","geometry":{"type":"LineString","coordinates":[[-97.354,35.025],[-97.311,35.047]]},"properties":{"id":"ncei-2026-1311610","eventId":"1311610","episodeId":"209155","year":2026,"month":1,"date":"2026-01-08","beginTime":"2026-01-08T07:31:00","endTime":"2026-01-08T07:34:00","timezone":"CST-6","state":"OK","stateName":"Oklahoma","county":"Cleveland","countyFips":"27","wfo":"OUN","scale":0,"scaleLabel":"EF0","lengthMiles":2.9,"widthYards":150,"deaths":0,"injuries":0,"propertyDamage":10000,"cropDamage":0,"source":"NWS Storm Survey","dataSource":"CSV"}},{"type":"Feature","geometry":{"type":"LineString","coordinates":[[-97.229,35.241],[-97.211,35.263]]},"properties":{"id":"ncei-2026-1311611","eventId":"1311611","episodeId":"209155","year":2026,"month":1,"date":"2026-01-08","beginTime":"2026-01-08T07:44:00","endTime":"2026-01-08T07:45:00","timezone":"CST-6","state":"OK","stateName":"Oklahoma","county":"Cleveland","countyFips":"27","wfo":"OUN","scale":0,"scaleLabel":"EF0","lengthMiles":1.8,"widthYards":50,"deaths":0,"injuries":0,"propertyDamage":5000,"cropDamage":0,"source":"NWS Storm Survey","dataSource":"CSV"}},{"type":"Feature","geometry":{"type":"LineString","coordinates":[[-97.145,35.319],[-97.142,35.321]]},"properties":{"id":"ncei-2026-1311612","eventId":"1311612","episodeId":"209155","year":2026,"month":1,"date":"2026-01-08","beginTime":"2026-01-08T07:52:00","endTime":"2026-01-08T07:53:00","timezone":"CST-6","state":"OK","stateName":"Oklahoma","county":"Cleveland","countyFips":"27","wfo":"OUN","scale":0,"scaleLabel":"EF0","lengthMiles":0.25,"widthYards":75,"deaths":0,"injuries":0,"propertyDamage":20000,"cropDamage":0,"source":"Emergency Manager","dataSource":"CSV"}},{"type":"Feature","geometry":{"type":"LineString","coordinates":[[-97.142,35.321],[-97.086,35.349]]},"properties":{"id":"ncei-2026-1311613","eventId":"1311613","episodeId":"209155","year":2026,"month":1,"date":"2026-01-08","beginTime":"2026-01-08T07:53:00","endTime":"2026-01-08T07:57:00","timezone":"CST-6","state":"OK","stateName":"Oklahoma","county":"Pottawatomie","countyFips":"125","wfo":"OUN","scale":1,"scaleLabel":"EF1","lengthMiles":3.7,"widthYards":75,"deaths":0,"injuries":0,"propertyDamage":75000,"cropDamage":0,"source":"Emergency Manager","dataSource":"CSV"}},{"type":"Feature","geometry":{"type":"LineString","coordinates":[[-96.94,35.369],[-96.913,35.398]]},"properties":{"id":"ncei-2026-1311614","eventId":"1311614","episodeId":"209155","year":2026,"month":1,"date":"2026-01-08","beginTime":"2026-01-08T08:06:00","endTime":"2026-01-08T08:09:00","timezone":"CST-6","state":"OK","stateName":"Oklahoma","county":"Pottawatomie","countyFips":"125","wfo":"OUN","scale":1,"scaleLabel":"EF1","lengthMiles":2.6,"widthYards":40,"deaths":0,"injuries":0,"propertyDamage":100000,"cropDamage":0,"source":"Emergency Manager","dataSource":"CSV"}},{"type":"Feature","geometry":{"type":"LineString","coordinates":[[-86.2036,30.7907],[-86.1853,30.7905]]},"properties":{"id":"ncei-2026-1311727","eventId":"1311727","episodeId":"210109","year":2026,"month":1,"date":"2026-01-25","beginTime":"2026-01-25T13:23:00","endTime":"2026-01-25T13:25:00","timezone":"CST-6","state":"FL","stateName":"Florida","county":"Walton","countyFips":"131","wfo":"TAE","scale":1,"scaleLabel":"EF1","lengthMiles":1.09,"widthYards":800,"deaths":0,"injuries":0,"propertyDamage":50000,"cropDamage":0,"source":"NWS Storm Survey","dataSource":"CSV"}},{"type":"Feature","geometry":{"type":"LineString","coordinates":[[-85.8784,31.0369],[-85.8175,31.0352]]},"properties":{"id":"ncei-2026-1311728","eventId":"1311728","episodeId":"210108","year":2026,"month":1,"date":"2026-01-25","beginTime":"2026-01-25T13:29:00","endTime":"2026-01-25T13:33:00","timezone":"CST-6","state":"AL","stateName":"Alabama","county":"Geneva","countyFips":"61","wfo":"TAE","scale":2,"scaleLabel":"EF2","lengthMiles":3.61,"widthYards":900,"deaths":0,"injuries":0,"propertyDamage":200000,"cropDamage":0,"source":"NWS Storm Survey","dataSource":"CSV"}},{"type":"Feature","geometry":{"type":"LineString","coordinates":[[-85.2439,31.3001],[-85.0995,31.2839]]},"properties":{"id":"ncei-2026-1311729","eventId":"1311729","episodeId":"210108","year":2026,"month":1,"date":"2026-01-25","beginTime":"2026-01-25T13:52:00","endTime":"2026-01-25T14:09:00","timezone":"CST-6","state":"AL","stateName":"Alabama","county":"Houston","countyFips":"69","wfo":"TAE","scale":1,"scaleLabel":"EF1","lengthMiles":8.6,"widthYards":300,"deaths":0,"injuries":0,"propertyDamage":5000,"cropDamage":0,"source":"NWS Storm Survey","dataSource":"CSV"}},{"type":"Feature","geometry":{"type":"LineString","coordinates":[[-85.3718,31.0227],[-85.3703,31.0228]]},"properties":{"id":"ncei-2026-1311730","eventId":"1311730","episodeId":"210108","year":2026,"month":1,"date":"2026-01-25","beginTime":"2026-01-25T14:02:00","endTime":"2026-01-25T14:03:00","timezone":"CST-6","state":"AL","stateName":"Alabama","county":"Houston","countyFips":"69","wfo":"TAE","scale":0,"scaleLabel":"EF0","lengthMiles":0.09,"widthYards":50,"deaths":0,"injuries":0,"propertyDamage":10000,"cropDamage":0,"source":"NWS Storm Survey","dataSource":"CSV"}}]}
